accuracy,club_id,formatted_address,google_place_id,input_string,latitude,longitude,number_of_results,place,postcode,status,type,lat,lng
ROOFTOP,28354,"Markgrafendamm 24c, 10245 Berlin, Germany",ChIJE3PM7_lOqEcRx7NIgXOdQVA,Markgrafendamm 24c; Friedrichshain; 10245,52.50255900000001,13.4663169,1, ://about blank,10245,OK,street_address,52.50255900000001,13.4663169
ROOFTOP,142467,"Skalitzer Str. 41, 10997 Berlin, Germany",ChIJxRLajEpOqEcRgSuyC2cQILo,"Skalitzer Strasse 41, 10997",52.4990937,13.4288184,1, :Vorwien,10997,OK,street_address,52.4990937,13.4288184
ROOFTOP,45446,"Frankfurter Allee 187, 10365 Berlin, Germany",ChIJGdvwWJNOqEcR9jTzPww1EOg,"187 Frankfurter Allee, Friedrichshain, 10247",52.5126711,13.4877049,1, [F.U.C] Ministerium,10365,OK,premise,52.5126711,13.4877049
ROOFTOP,90981,"Vor dem Schlesischen Tor 2, 10997 Berlin, Germany",ChIJeUvOfVROqEcR3sMDhUfpjBU,Vor dem Schlesischen Tor 2a; Kreuzberg; 10997,52.4973043,13.4501604,1, [ipsə],10997,OK,street_address,52.4973043,13.4501604
ROOFTOP,136975,"Alt-Stralau 1, 10245 Berlin, Germany",ChIJIZI7HPxOqEcRTfbLQ0t63Tw,"Alt-Stralau 1, 10245",52.49715,13.46502,1, 1 Stralau,10245,OK,street_address,52.49715,13.46502
ROOFTOP,138531,"Altenbraker Str. 3, 12053 Berlin, Germany",ChIJpTcRrZlPqEcRfSfwKQLxefU,"Altenbraker strasse 3, 12053, Berlín",52.47193559999999,13.4320904,1, 19:28 Tattoo Club,12053,OK,premise,52.47193559999999,13.4320904
ROOFTOP,41940,"nhow Berlin, Stralauer Allee 3, 10245 Berlin, Germany",ChIJQUmQNVFOqEcRzqNBfDUFdBs,"Stralauer Allee 3, 10245",52.50119189999999,13.4508457,1, 1st Floor,10245,OK,premise,52.50119189999999,13.4508457
ROOFTOP,141849,"Alt-Stralau 1, 10245 Berlin, Germany",ChIJIZI7HPxOqEcRTfbLQ0t63Tw,Alt Stralau 1,52.49715,13.46502,1, 1stralau,10245,OK,street_address,52.49715,13.46502
ROOFTOP,144924,"Budapester Str. 40, 10787 Berlin, Germany",ChIJ-RAVYVVQqEcR7BN7HG1zkwk,"Budapester Straße 40, 10787",52.50561949999999,13.3379602,1," 25hours Hotel Bikini Berlin, 3. Etage",10787,OK,street_address,52.50561949999999,13.3379602
GEOMETRIC_CENTER,88929,"Waldemarstraße, 10997 Berlin, Germany",EiZXYWxkZW1hcnN0cmHDn2UsIDEwOTk3IEJlcmxpbiwgR2VybWFueSJIKkYKFAoSCc32ZBw0TqhHEbttNOJgYIQFEhQKEgmnTxmqTk6oRxGQ0z2VSSAhHBoYCgoNjfZKHxUci_8HEgoNEnFLHxXXNgEI,"Waldemarstraße, 10997",52.5022904,13.4241162,1, 60 Hz,10997,OK,route,52.5022904,13.4241162
ROOFTOP,153709,"Budapester Str. 38, 10787 Berlin, Germany",ChIJO2UEZVVQqEcRs6YRTG4XSoc,"Budapester Straße 38-40, 10787",52.505429,13.3382338,1, 808 Berlin,10787,OK,street_address,52.505429,13.3382338
ROOFTOP,154724,"Alexanderstraße 7, 10178 Berlin, Germany",ChIJzUBDKBlOqEcRiZcv2MLSNQo,"Alexanderstr. 7, 10178 -Mitte",52.5230361,13.4166955,1, A Seven,10178,OK,street_address,52.5230361,13.4166955
ROOFTOP,111027,"Veteranenstraße 21, 10119 Berlin, Germany",ChIJbZnT2_pRqEcRmGbapIsAjV4,Veteranenstraße 21,52.533432,13.4009334,1, Acud Macht NEU,10119,OK,street_address,52.533432,13.4009334
ROOFTOP,113971,"Pannierstraße 56, 12047 Berlin, Germany",ChIJPU_BwLBPqEcRKDWSulyeXdE,Pannierstrasse 56 12047,52.4872162,13.4305756,1, AETHER:bar,12047,OK,premise,52.4872162,13.4305756
GEOMETRIC_CENTER,17860,"10178 Berlin, Germany",ChIJbygR2x5OqEcRbhbkZsMB_DA,"Alexanderplatz, 10178",52.5219184,13.4132147,1, Alexanderplatz,10178,OK,"establishment,point_of_interest",52.5219184,13.4132147
ROOFTOP,150129,"An der Wuhlheide 256, 12555 Berlin, Germany",ChIJs9gooGFIqEcRzy1X0C_bLAw,"An der Wuhlheide 256, 12555",52.45544,13.56379,1, All Club,12555,OK,street_address,52.45544,13.56379
ROOFTOP,23260,"Molkenmarkt 2, 10179 Berlin, Germany",ChIJmzReJSFOqEcR0L2bMybiyCM,Molkenmarkt 2; Mitte; 10179,52.5161129,13.4091198,1, Alte Münze,10179,OK,street_address,52.5161129,13.4091198
ROOFTOP,109845,"Richardstraße 31-32, 12043 Berlin, Germany",ChIJO63UUaBPqEcRwyS4-gD7y3Q,"Richardstraße 31-32, 12043",52.47555,13.4431099,1, Alter Roter Löwe Rein,12043,OK,street_address,52.47555,13.4431099
ROOFTOP,89613,"Auguststraße 43, 10119 Berlin, Germany",ChIJmQ8X9eNRqEcRfNDEqG3-OQI,"Auguststraße 43, 10119",52.5282414,13.4028234,1, Amano,10119,OK,premise,52.5282414,13.4028234
ROOFTOP,142637,"Heidestraße 62, 10557 Berlin, Germany",ChIJifkdY5ZRqEcRf9PgCWuL8P0,"Heidestraße 62, 10557",52.5278532,13.370368,1, Amano Grand Central,10557,OK,street_address,52.5278532,13.370368
ROOFTOP,56988,"Kastanienallee 103, 10435 Berlin, Germany",ChIJ48E6G_9RqEcRnJ4yA-iGxuQ,"Kastanienallee 103, 10435",52.5400404,13.4116738,1, An Einem Sonntag Im August,10435,OK,street_address,52.5400404,13.4116738
ROOFTOP,84382,"Gerichtstraße 23, 13347 Berlin, Germany",ChIJGwOte4hRqEcRt65DQT5lWYs,"Gerichtstraße 23, 13347",52.5445587,13.372549,1, Anita Berber,13347,OK,premise,52.5445587,13.372549
ROOFTOP,121816,"Storkower Str. 123, 10407 Berlin, Germany",ChIJG13qeXZOqEcRhAuM5lyTwUI,"Storkower Str. 123, 10407",52.5353532,13.453061,1, Anomalie Art Club,10407,OK,premise,52.5353532,13.453061
ROOFTOP,144555,"Kurfürstenstraße 97, 12105 Berlin, Germany",ChIJBXE2OE1FqEcRej4Ri-O8Jn0,"Kurfürstenstraße 97, 12105 -Mariendorf",52.44765,13.3717401,1, Apartment A,12105,OK,street_address,52.44765,13.3717401
ROOFTOP,129944,"Heidestraße 62, 10557 Berlin, Germany",ChIJifkdY5ZRqEcRf9PgCWuL8P0,"Heidestraße 62, 10557",52.5278532,13.370368,1, Apartment Bar,10557,OK,street_address,52.5278532,13.370368
ROOFTOP,149142,"Leipziger Str. 60, 14473 Potsdam, Germany",ChIJeTYu78D1qEcRI8n1MpejJTY,"Leipziger Straße 60, 14473 Potsdam",52.3888481,13.0597659,1, Archiv Potsdam,14473,OK,street_address,52.3888481,13.0597659
ROOFTOP,5828,"Eichenstraße 4, 12435 Berlin, Germany",ChIJoT4CElVOqEcRHxVOOvof1S4,Eichenstrasse 4; Treptow; 12435,52.4966473,13.4530078,1, Arena Club,12435,OK,street_address,52.4966473,13.4530078
ROOFTOP,145577,"Karl-Marx-Platz 16, 12043 Berlin, Germany",ChIJdT1vJqBPqEcR9DgmQl5aiwk,Karl-Marx Platz 16 12043,52.4738267,13.4426702,1, arkaoda Berlin,12043,OK,street_address,52.4738267,13.4426702
ROOFTOP,137621,"Alexanderstraße 7, 10178 Berlin, Germany",ChIJzUBDKBlOqEcRiZcv2MLSNQo,"Alexanderstrasse 7, 10178",52.5230361,13.4166955,1, Aseven,10178,OK,street_address,52.5230361,13.4166955
ROOFTOP,16793,"Revaler Str. 99, 10245 Berlin, Germany",ChIJsdkMp1lOqEcRq8YbzXSVlqI,Revaler Strasse 99; Friedrichshain; 10245,52.5077221,13.4542457,1, Astra Kulturhaus,10245,OK,street_address,52.5077221,13.4542457
ROOFTOP,17243,"Prinzenstraße 85d/OG 3, 10969 Berlin, Germany",Ei9PRyAzLCBQcmluemVuc3RyYcOfZSA4NWQsIDEwOTY5IEJlcmxpbiwgR2VybWFueSIgGh4KFgoUChIJkXT2si1OqEcRIXN-COyO6BESBE9HIDM,Prinzenstraße 85 D 1 (OG 3) 10969,52.502686,13.4095928,1, Aufbau Haus,10969,OK,subpremise,52.502686,13.4095928
ROOFTOP,21511,"Lychener Str. 60, 10437 Berlin, Germany",ChIJkTeSb_9NqEcRMU_mB9-iPYY,Lychener Strasse 60; Prenzlauer Berg; 10437,52.54484120000001,13.4197262,1, Ausland,10437,OK,street_address,52.54484120000001,13.4197262
ROOFTOP,85008,"Pücklerstraße 34, 10997 Berlin, Germany",ChIJ3zU6jElOqEcRg3E-mYrQPhc,"Pücklerstraße 34, 10997",52.50242739999999,13.4311086,1, Auster Club,10997,OK,street_address,52.50242739999999,13.4311086
ROOFTOP,157095,"Gehrenseestraße 42a, 13053 Berlin, Germany",ChIJxzB9MGxMqEcRcR57yRpaxMg,"Gehrenseestraße 42A, 13053",52.5551771,13.5275198,1, Autoverwertung Berk Gmbh,13053,OK,premise,52.5551771,13.5275198
ROOFTOP,71065,"Carmerstraße 12, 10623 Berlin, Germany",ChIJYytHPP1QqEcRdCFlJlknSYo,"Carmerstraße 12, 10623",52.50708299999999,13.3242218,1, AV Hütte,10623,OK,street_address,52.50708299999999,13.3242218
ROOFTOP,73618,"Warschauer Pl. 18, 10245 Berlin, Germany",ChIJrQotU1BOqEcR5bLN2_6M4eY,"Warschauer Pl. 18, 10245",52.502892,13.4475138,1, AVA Club,10245,OK,premise,52.502892,13.4475138
ROOFTOP,55843,"Revaler Str. 99, 10245 Berlin, Germany",ChIJsdkMp1lOqEcRq8YbzXSVlqI,Revalerstrasse 99; Friedrichshain; 10245,52.5077221,13.4542457,1, Badehaus Berlin,10245,OK,street_address,52.5077221,13.4542457
ROOFTOP,11355,"Eichenstraße 4, 12435 Berlin, Germany",ChIJoT4CElVOqEcRHxVOOvof1S4,Eichenstrasse 4; Treptow; 12435,52.4966473,13.4530078,1, Badeschiff,12435,OK,street_address,52.4966473,13.4530078
ROOFTOP,90875,"Kottbusser Damm 76, 10967 Berlin, Germany",ChIJH7ksGLZPqEcRz6hmhDVq7oA,"Kottbusser Damm 76, 10967",52.4907727,13.4238637,1, Ballhaus Rixdorf,10967,OK,street_address,52.4907727,13.4238637
ROOFTOP,51255,"Falckensteinstraße 1, 10997 Berlin, Germany",ChIJcRtRHVJOqEcRvs_pTwvoXww,"Falckensteinstraße 1-2, 10997",52.500496,13.444133,1, Banja Luka,10997,OK,street_address,52.500496,13.444133
ROOFTOP,152439,"Schönhauser Allee 36-39, 10435 Berlin, Germany",ChIJgSHqQ_5RqEcR_wusuJS-XW4,"Schönhauser allee 36-39, 10435",52.5383033,13.4127523,1, Bar 21,10435,OK,premise,52.5383033,13.4127523
ROOFTOP,124146,"Karl-Marx-Allee 36, 10178 Berlin, Germany",ChIJofjJ4BdOqEcR0Itjfc343DM,"Karl-Marx-Allee 36, 10178",52.51953,13.42338,1, Bar Babette,10178,OK,street_address,52.51953,13.42338
ROOFTOP,123412,"Müggelstraße 9, 10247 Berlin, Germany",ChIJGySslfROqEcRtoJvYwHi3nM,"Müggelstraße 9, 10247",52.5120029,13.4707601,1, Bar Bobu,10247,OK,street_address,52.5120029,13.4707601
ROOFTOP,143374,"Mariannenstraße 29, 10999 Berlin, Germany",ChIJD12oO8tPqEcRB25YnPCEVq8,"Mariannenstraße 29, 10999",52.49692,13.420766,1, Bar In A Jar,10999,OK,premise,52.49692,13.420766
ROOFTOP,98358,"Czeminskistraße 10, 10829 Berlin, Germany",ChIJw9LFLDlQqEcRErvtpBTHq9I,"Czeminskistraße 10, 10829",52.4880765,13.36415,1, Barkett,10829,OK,premise,52.4880765,13.36415
ROOFTOP,150761,"Schleiermacherstraße 18, 10961 Berlin, Germany",ChIJLfStF9dPqEcR4yrd9ZP04OA,"Schleiermacherstraße 18, 10961 Deutschland",52.4914596,13.3978259,1, Basement of the Pandora Art Gallery,10961,OK,premise,52.4914596,13.3978259
ROOFTOP,145173,"Forster Str. 46, 10999 Berlin, Germany",ChIJ04JuY7NPqEcRsMqneJlCYEk,Forster Strasse 46 10999,52.49448,13.4327999,1, The Basement Records,10999,OK,street_address,52.49448,13.4327999
ROOFTOP,16629,"Schönhauser Allee 176A, 10119 Berlin, Germany",ChIJV1QbVP1RqEcRJ5KqIAep-es,"Schönhauser Allee 176A, 10119",52.531517,13.4117905,1, Bassy,10119,OK,street_address,52.531517,13.4117905
GEOMETRIC_CENTER,146931,"Schinkelpl., 10117 Berlin, Germany",ChIJucYSpd5RqEcR3-I5FkgBY3g,Schinkelplatz 10117,52.5165967,13.3983836,1, Bauakademie,10117,OK,route,52.5165967,13.3983836
ROOFTOP,143180,"Falckensteinstraße 47, 10997 Berlin, Germany",ChIJc7s_9FFOqEcRfEzd3bcwcvc,"Falckensteinstraße 47, 10997",52.5006966,13.4447841,1, Baumhaus Bar,10997,OK,street_address,52.5006966,13.4447841
ROOFTOP,98993,"Schillingstraße 31, 10179 Berlin, Germany",ChIJGQyj2yJOqEcRiXTjCnANyRk,"Schillingstr. 31, 10179",52.5174427,13.4190838,1, Beate Uwe,10179,OK,street_address,52.5174427,13.4190838
RANGE_INTERPOLATED,5031,"Am Wriezener Bahnhof 70, 10243 Berlin, Germany",Ei5BbSBXcmllemVuZXIgQmFobmhvZiA3MCwgMTAyNDMgQmVybGluLCBHZXJtYW55IhoSGAoUChIJGfXprEZOqEcRrLJpuzi-6ioQRg,70 Am Wriezener Bahnhof; Friedrichshain; 10243,52.5116457,13.4404548,1, Berghain | Panorama Bar | Säule,10243,OK,street_address,52.5116457,13.4404548
ROOFTOP,148196,"Mengerzeile 14, 12435 Berlin, Germany",ChIJ0z2r6q5PqEcRhZdg0VcDR5Y,"Mengerzeile 14, 12435",52.488336,13.4428336,1, Berliner Vinylwerk,12435,OK,street_address,52.488336,13.4428336
ROOFTOP,21776,"Prinzessinnenstraße 19, 10969 Berlin, Germany",ChIJR3SNjS1OqEcRhiQPXpQ28hU,"Prinzessinnenstraße 19-20, 10969",52.5023728,13.4119609,1, Betahaus,10969,OK,street_address,52.5023728,13.4119609
GEOMETRIC_CENTER,58532,"U-Bahnhof Schlesisches Tor, 10997 Berlin, Germany",ChIJx-KTCk5OqEcRed3d5Z0uW1A,Im U-Bhf. Schlesisches Tor; 10997,52.500711,13.441273,2, Bi Nuu,10997,OK,"establishment,night_club,point_of_interest",52.500711,13.441273
ROOFTOP,104289,"Schleusenufer 3, 10997 Berlin, Germany",ChIJ80-meVROqEcRtzuQZMC6bNI,"Schleusenufer 3, 10997",52.49768479999999,13.4498045,1, Birgit,10997,OK,premise,52.49768479999999,13.4498045
ROOFTOP,82455,"Silvio-Meier-Straße 8, 10247 Berlin, Germany",ChIJ9R47RGBOqEcRDmwbpMkRh1A,"Silvio-Meier-Str. 8, 10247 Friedrichshain",52.51634,13.46397,1, Bitte & Danke,10247,OK,street_address,52.51634,13.46397
ROOFTOP,30250,"Kaskelstraße 55, 10317 Berlin, Germany",ChIJzbs6z-5OqEcR8Z3p7RQEcDE,Kaskelstrasse 55; ; 10317,52.5050734,13.4837782,1, BLO-Ateliers,10317,OK,street_address,52.5050734,13.4837782
GEOMETRIC_CENTER,136060,"May-Ayim-Ufer, 10997 Berlin, Germany",ChIJN3QNGE5OqEcRR7_2_HTLdn0,May Ayim Ufer,52.5020576,13.4428975,1, Boat - MS Rhein,10997,OK,route,52.5020576,13.4428975
ROOFTOP,13344,"Reichenberger Str. 153, 10999 Berlin, Germany",ChIJ54BjSjVOqEcRFrtHn8BQwj4,"Reichenberger Str. 153, 10999",52.4975806,13.4242358,1, Bohnengold,10999,OK,premise,52.4975806,13.4242358
RANGE_INTERPOLATED,149865,"Falckensteinstraße 19, 10997 Berlin, Germany",Ei1GYWxja2Vuc3RlaW5zdHJhw59lIDE5LCAxMDk5NyBCZXJsaW4sIEdlcm1hbnkiGhIYChQKEgmBv8N8TU6oRxFBfhtHekDI_hAT,"Falckensteinstraße 19, 10997",52.4973171,13.4411111,1, Bolzplatz Falckensteinstraße Kreuzberg,10997,OK,street_address,52.4973171,13.4411111
ROOFTOP,95818,"Torstraße 133, 10119 Berlin, Germany",ChIJZ0F8U-RRqEcRJDxAPWt24UU,"Torstraße 133, 10119",52.52972380000001,13.3997139,1, Bonbon Bar,10119,OK,premise,52.52972380000001,13.3997139
ROOFTOP,145243,"Gneisenaustraße 9, 10961 Berlin, Germany",ChIJo27wQChQqEcRoe9sJJoDgxI,"Gneisenaustraße 9, 10961 Berlín",52.49207999999999,13.3904015,1, Bonnie & Kleid,10961,OK,street_address,52.49207999999999,13.3904015
ROOFTOP,157285,"Torstraße 230, 10115 Berlin, Germany",ChIJ6XCwaelRqEcRkQb9FTn7CfE,"Torstraße 230, 10115",52.5270535,13.3878739,1, Bravo Bar,10115,OK,street_address,52.5270535,13.3878739
ROOFTOP,112226,"Mohrenstraße 30, 10117 Berlin, Germany",ChIJbb1wp9BRqEcR_wp3oJGAT0s,"Mohrenstraße 30, 10117",52.51177,13.39327,1, Bricks Berlin,10117,OK,street_address,52.51177,13.39327
ROOFTOP,150252,"Friedrich-Breuer-Straße 17, 53225 Bonn, Germany",ChIJ4YEXCQ7hvkcRD4QZ0Dr4u6g,"Friedrich-Breuer-Str. 17, 53225 Bonn",50.7385175,7.1152839,1, Brückenforum,53225,OK,street_address,50.7385175,7.1152839
ROOFTOP,112987,"Schleusenufer 3, 10997 Berlin, Germany",ChIJ80-meVROqEcRtzuQZMC6bNI,"Schleusenufer 3, 10997",52.49768479999999,13.4498045,1, Burg Schnabel,10997,OK,premise,52.49768479999999,13.4498045
ROOFTOP,116419,"Pannierstraße 12, 12047 Berlin, Germany",ChIJ0QJ3-bBPqEcRRi7eMU2BEF8,"Pannierstraße 12, 12047",52.4878189,13.4325581,1, Cafe Futuro,12047,OK,premise,52.4878189,13.4325581
ROOFTOP,128237,"Kastanienallee 85, 10435 Berlin, Germany",ChIJCxDQo_5RqEcRVjEt6B-ZuN8,"Kastanienallee 85, 10435",52.5375872,13.4089405,1, Café Morgenrot,10435,OK,street_address,52.5375872,13.4089405
ROOFTOP,109421,"Schlesische Str. 32, 10997 Berlin, Germany",ChIJy_oOy1NOqEcREasuKRoiKvY,"Schlesische Str. 32, 10997",52.4991576,13.4466025,1, Cake,10997,OK,premise,52.4991576,13.4466025
ROOFTOP,13013,"Revaler Str. 99, 10245 Berlin, Germany",ChIJsdkMp1lOqEcRq8YbzXSVlqI,"Revaler Str. 99, 10245",52.5077221,13.4542457,1, Cassiopeia,10245,OK,street_address,52.5077221,13.4542457
ROOFTOP,65654,"Vor dem Schlesischen Tor 3, 10997 Berlin, Germany",ChIJqezgf1ROqEcRmuWEkHEYLIw,Vor dem Schlesischen Tor 3; Kreuzberg; 10997,52.4972296,13.4493373,1, Chalet,10997,OK,premise,52.4972296,13.4493373
ROOFTOP,152749,"Chausseestraße 131, 10115 Berlin, Germany",ChIJj_Vp3OtRqEcRL4DzN_zV4Ow,"Chausseestrasse 131, 10115",52.5272479,13.3863671,1, Chausseestrasse 131,10115,OK,street_address,52.5272479,13.3863671
ROOFTOP,44572,"Dorotheenstraße 12, 10117 Berlin, Germany",ChIJl5MeVtxRqEcR4k5H8C91Ca0,"Dorotheenstraße 12, 10117",52.5193832,13.394617,1, CHB - Collegium Hungaricum Berlin,10117,OK,street_address,52.5193832,13.394617
ROOFTOP,20497,"An der Schillingbrücke 3, 10243 Berlin, Germany",ChIJS1MAKr8jZUERkWFDbesy7dk,An Der Schilling Brücke; Ostbahnhof; 10243,52.5092548,13.4305315,1, Chez Jacki,10243,OK,"establishment,night_club,point_of_interest",52.5092548,13.4305315
ROOFTOP,146792,"Brückenstraße 1, 10179 Berlin, Germany",ChIJA_8fLiVOqEcRXxzvNK-Q68w,"Brückenstr. 1, 10179",52.5111887,13.416781,1, Clinic Basement,10179,OK,premise,52.5111887,13.416781
ROOFTOP,31119,"Ackerstraße 168, 10115 Berlin, Germany",ChIJIfjHm-VRqEcR3LDKq5qh4rg,"Ackerstraße 168, 10115",52.5299397,13.3970986,1, Club Der Polnischen Versager,10115,OK,premise,52.5299397,13.3970986
ROOFTOP,6949,"Am Flutgraben 1, 12435 Berlin, Germany",ChIJY7pZiVROqEcR9S0E-uegHtQ,"Am Flutgraben 1, 12435",52.4967917,13.450466,1, Club der Visionaere,12435,OK,premise,52.4967917,13.450466
ROOFTOP,76284,"Wasgenstraße 75, 14129 Berlin, Germany",ChIJbaPuNXFZqEcRd-Y3JHA7gy4,"Wasgenstraße 75, 14129",52.42857309999999,13.2168849,1, Club-A18,14129,OK,"establishment,premise",52.42857309999999,13.2168849
ROOFTOP,82368,"Skalitzer Str. 68, 10997 Berlin, Germany",ChIJPRRGzk1OqEcR0DyoQgXHB7A,"Skalitzer Str. 68, 10997",52.5002443,13.4397621,1, CoBa Bar,10997,OK,premise,52.5002443,13.4397621
ROOFTOP,115854,"Columbiadamm 9-11, 10965 Berlin, Germany",ChIJJ-mYM99PqEcRzLlnPm6Vfv4,"Columbiadamm 9-11, 10965",52.484674,13.3913695,1, Columbia Theater,10965,OK,premise,52.484674,13.3913695
ROOFTOP,2636,"Columbiadamm 13-21, 10965 Berlin, Germany",ChIJ2ZiFLN9PqEcRRqdJQS89nM8,"Columbiadamm 13-21, 10965",52.48464999999999,13.39221,1, Columbiahalle,10965,OK,street_address,52.48464999999999,13.39221
ROOFTOP,56584,"Wiener Straße 34, 10999 Berlin, Germany",ChIJv06QSrNPqEcR_GHUT1-rKPQ,"Wiener Straße 34, 10999",52.4960967,13.43508,1, Cortina Bob,10999,OK,premise,52.4960967,13.43508
ROOFTOP,77875,"Brunnenstraße 197-198, 10119 Berlin, Germany",ChIJLfZp9-RRqEcRf9NSzd-OqT0,Brunnenstrasse 197/198; 0119,52.52998299999999,13.4007594,1, Cosmic Kaspar,10119,OK,street_address,52.52998299999999,13.4007594
ROOFTOP,57853,"Revaler Str. 99, 10245 Berlin, Germany",ChIJsdkMp1lOqEcRq8YbzXSVlqI,Revaler Strasse 99; 10245 -Friedrichshain,52.5077221,13.4542457,1, Crack Bellmer,10245,OK,street_address,52.5077221,13.4542457
ROOFTOP,143495,"Rollbergstraße 26, 12053 Berlin, Germany",ChIJ7yZZUqNPqEcRe3Ogtaad424,"Rollbergstrasse 26, 12053",52.4795442,13.4329425,1, Crclr,12053,OK,street_address,52.4795442,13.4329425
ROOFTOP,96105,"Holzmarktstraße 32, 10243 Berlin, Germany",ChIJt4kOBjlOqEcRaq56ggSg588,"Holzmarktstraße 32, 10243",52.5108058,13.4282032,1, Culture Container,10243,OK,premise,52.5108058,13.4282032
ROOFTOP,150509,"Budapester Str. 50, 10787 Berlin, Germany",ChIJfbW6vP9QqEcREkQgIcC9BR8,Budapester Str. 50 10787,52.50557999999999,13.3356,1, Darwin's Lab im Bikini Berlin,10787,OK,street_address,52.50557999999999,13.3356
ROOFTOP,13398,"Görlitzer Str. 1, 10997 Berlin, Germany",ChIJjc74IU1OqEcRfWF3ax2bLs0,"Görlitzer Str. 1, 10997",52.4982105,13.4342003,1, Das Edelweiss,10997,OK,street_address,52.4982105,13.4342003
ROOFTOP,89075,"Wilhelmstraße 118, 10963 Berlin, Germany",ChIJ4WlNANNRqEcR5Prd5Xs5qrQ,"Wilhelmstraße 118, 10963",52.503893,13.386159,1, Das Foto Image Factory,10963,OK,street_address,52.503893,13.386159
ROOFTOP,45553,"Mariannenstraße 26A, 10999 Berlin, Germany",ChIJQwy0PctPqEcRMz6D_WEchEU,"Mariannenstraße 26A, 10999",52.49662360000001,13.4204083,1, Das Hotel,10999,OK,street_address,52.49662360000001,13.4204083
ROOFTOP,83501,"Rosenthaler Str. 9, 10119 Berlin, Germany",ChIJh4Ep9uNRqEcRCjZjfFOvUxw,Rosenthaler Str. 9,52.5279064,13.4024598,1, Dean,10119,OK,street_address,52.5279064,13.4024598
ROOFTOP,8651,"Klara, Prenzlauer Allee 242, 10405 Berlin, Germany",ChIJVaM6tBxOqEcRNfpvbbAn_W4,Prenzlauer Allee 242 -246; Mitte; 10405,52.53044999999999,13.41759,1, Deep Loft,10405,OK,street_address,52.53044999999999,13.41759
ROOFTOP,55765,"Auguststraße 5A, 10117 Berlin, Germany",ChIJM7xniehRqEcRsJDT9-SJPPw,"Auguststraße 5a, 10117",52.5255464,13.3925647,1, Department Club,10117,OK,street_address,52.5255464,13.3925647
ROOFTOP,51777,"Revaler Str. 99, 10245 Berlin, Germany",ChIJsdkMp1lOqEcRq8YbzXSVlqI,Revaler Str. 99 / Ecke Modersohnbrücke,52.5077221,13.4542457,1, Der Geheime Garten,10245,OK,street_address,52.5077221,13.4542457
ROOFTOP,60968,"Dorfstraße 2, 04936 Dahme/Mark, Germany",ChIJr9m2QDDkp0cRm9-wWxbTGDg,"Schöna-Kolpien, 04936, Dorfstrasse 2, Brandenburg",51.81276,13.4429599,1, Der Stall / Schöna-Kolpien,04936,OK,street_address,51.81276,13.4429599
ROOFTOP,107593,"Revaler Str. 99, 10245 Berlin, Germany",ChIJsdkMp1lOqEcRq8YbzXSVlqI,"Revaler Str 99, 10245",52.5077221,13.4542457,1, Der Weiße Hase,10245,OK,street_address,52.5077221,13.4542457
ROOFTOP,131251,"Mainzer Str. 23, 12053 Berlin, Germany",ChIJOdSgirtPqEcRdd7dW6r5G4Y,"Mainzer Str. 23, 12053",52.4807266,13.427628,1, Deriva,12053,OK,street_address,52.4807266,13.427628
ROOFTOP,148466,"Reichenberger Str. 47, 10999 Berlin, Germany",ChIJg29AV7VPqEcRBNn8Dwz0Xm8,"Reichenberger Str. 47, 10999",52.49657999999999,13.42608,1, Die Perle,10999,OK,street_address,52.49657999999999,13.42608
ROOFTOP,141952,"Brückenstraße 1, 10179 Berlin, Germany",ChIJA_8fLiVOqEcRXxzvNK-Q68w,Brückenstraße 1 - 10179 o,52.5111887,13.416781,1, Diskothek Melancholie 2,10179,OK,premise,52.5111887,13.416781
ROOFTOP,152857,"Bessemerstraße 2-14, 12103 Berlin, Germany",ChIJE2ddlKtPqEcRDJ7vT5ofJQA,"Bessemerstraße 2-14, 12103",52.4669474,13.36592,1, District Berlin,12103,OK,street_address,52.4669474,13.36592
ROOFTOP,103733,"Bessemerstraße 2-14, 12103 Berlin, Germany",ChIJE2ddlKtPqEcRDJ7vT5ofJQA,"Bessemerstraße 2-14, 12103",52.4669474,13.36592,1, DISTRICT Kunst- und Kulturförderung,12103,OK,street_address,52.4669474,13.36592
ROOFTOP,101911,"Donaustraße 115, 12043 Berlin, Germany",ChIJ58YCxbpPqEcRXGRCvG-I72s,"Donaustraße 115, 12043",52.48352,13.4336057,1, Donau115,12043,OK,premise,52.48352,13.4336057
ROOFTOP,155302,"Hafnarstræti 4, 101 Reykjavík, Iceland",ChIJ36n_GS0L1kgRfEYoPUNYOv8,"Hafnarstraeti 4, 101 Reykjavik Iceland",64.1481999,-21.9402552,1, The Dubliner,101,OK,street_address,64.1481999,-21.9402552
ROOFTOP,98549,"Eichhornstraße 4, 10785 Berlin, Germany",ChIJKRjvrstRqEcRS_H_-wSTf_M,"Eichhornstraße 4, 10785",52.5064275,13.3731988,1, E4 Club Berlin,10785,OK,street_address,52.5064275,13.3731988
ROOFTOP,80137,"Grüntaler Str. 9, 13357 Berlin, Germany",ChIJg_8DyiNSqEcRDSC_WaV3ris,"Grüntaler Str. 9, 13359",52.5519122,13.3867788,1, Echo Bücher,13357,OK,street_address,52.5519122,13.3867788
ROOFTOP,110015,"Gustav-Adolf-Straße 2, 13086 Berlin, Germany",ChIJWfhsvPBNqEcRr7y_LWiGuNs,"Gustav-Adolf-Straße 2, , 13086",52.5517769,13.4313991,1, ehemaliges Stummfilmkino Delphi,13086,OK,premise,52.5517769,13.4313991
ROOFTOP,156304,"Köpenicker Str. 40, 10179 Berlin, Germany",ChIJJZ395TlOqEcR5BE1K0i3ZYo,Köpenicker Str. 40,52.5087601,13.4254339,1, Eiswerk,10179,OK,street_address,52.5087601,13.4254339
ROOFTOP,79607,"An den Treptowers 10, 12435 Berlin, Germany",ChIJdbgXb_5OqEcRedYJg-R2_Q8,"An den Treptowers 10, 12435",52.4947386,13.462161,1, Else,12435,OK,street_address,52.4947386,13.462161
ROOFTOP,65793,"Fidicinstraße 40, 10965 Berlin, Germany",ChIJ08JhcidQqEcRkRy4vOoIT3s,"Fidicinstraße 40, 10965",52.4871936,13.3885053,1, English Theatre Berlin,10965,OK,street_address,52.4871936,13.3885053
ROOFTOP,15611,"Rosenthaler Str. 39, 13127 Berlin, Germany",ChIJ4bcUKOFRqEcRFlTZY4ZzZzU,"Rosenthaler Str. 39, 10178",52.5242848,13.4021617,1, Eschschloraque,13127,OK,street_address,52.5242848,13.4021617
ROOFTOP,120550,"Zossener Str. 65, 10961 Berlin, Germany",ChIJB3aK7NVPqEcRkx2j2gRxJEc,"Zossener Str. 65, 10961",52.4964325,13.396079,1, Ev. Kirchengemeinde Heilig Kreuz Passion,10961,OK,premise,52.4964325,13.396079
ROOFTOP,147118,"Schiffbauergasse 10, 14467 Potsdam, Germany",ChIJGQXKwuD1qEcReSnMpGG0u3s,"Schiffbauergasse 10, 14467 Potsdam",52.40283,13.07471,1, Fabrik Potsdam,14467,OK,street_address,52.40283,13.07471
ROOFTOP,146298,"Kurfürstenstraße 21-22, 10785 Berlin, Germany",ChIJxRHfC0pQqEcRpaq2CmzyjHw,Kurfürstenstrasse 21-22,52.49979,13.3650699,1, The Fact Finder,10785,OK,street_address,52.49979,13.3650699
ROOFTOP,98403,"Skalitzer Str. 133, 10999 Berlin, Germany",ChIJTUibXzNOqEcRUnvXhWai0wg,"Skalitzer Str. 133, 10999",52.499294,13.419727,1, Fahimi Bar,10999,OK,street_address,52.499294,13.419727
ROOFTOP,19481,"Skalitzer Str. 114, 10999 Berlin, Germany",ChIJp3oWEDVOqEcRmECMxHVLzEU,Skalitzer Strasse 114; Kreuzberg; 10999,52.4993653,13.424211,1, Farbfernseher,10999,OK,premise,52.4993653,13.424211
ROOFTOP,138998,"Friedrichstraße 180, 10117 Berlin, Germany",ChIJRw4sn9pRqEcR2IUzdvp77as,"Friedrichstraße 180–184, 10117",52.5125073,13.389306,1, Father Graham,10117,OK,street_address,52.5125073,13.389306
ROOFTOP,57135,"Veteranenstraße 26, 10119 Berlin, Germany",ChIJmQ-XzvpRqEcRBEfhRLj7dNE,"Veteranenstraße 26, 10119",52.5330027,13.3999193,1, Fc Magnet Bar,10119,OK,street_address,52.5330027,13.3999193
ROOFTOP,124713,"Revaler Str. 99, 10245 Berlin, Germany",ChIJsdkMp1lOqEcRq8YbzXSVlqI,Revalerstraße 99,52.5077221,13.4542457,1, F-Club,10245,OK,street_address,52.5077221,13.4542457
ROOFTOP,132060,"Am Flutgraben 2, 12435 Berlin, Germany",ChIJG3b6AVVOqEcRrWNHgaK0MYE,"Am Flutgraben 2, 12435",52.4965426,13.4528979,1, Festsaal Kreuzberg,12435,OK,premise,52.4965426,13.4528979
ROOFTOP,78250,"Str. zum FEZ 2, 12459 Berlin, Germany",ChIJ_QDLtPJIqEcRoecZC0EST1Y,"Straße zum FEZ 2, 12459",52.4612165,13.5490931,1, FEZ Berlin,12459,OK,street_address,52.4612165,13.5490931
ROOFTOP,27108,"Urbanstraße 70, 10967 Berlin, Germany",ChIJkSPe2rdPqEcRypuuBTlKY1M,"Urbanstraße 70, 10967",52.4886416,13.4226708,1, Ficken 3000,10967,OK,street_address,52.4886416,13.4226708
ROOFTOP,50067,"Köpenicker Str. 18, 10997 Berlin, Germany",ChIJ9ybxV0hOqEcRbiiPqZnF3B4,"Köpenicker Str. 18, 10997",52.5055647,13.4329611,1, Fiese Remise,10997,OK,street_address,52.5055647,13.4329611
ROOFTOP,95518,"Graefestraße 12, 10967 Berlin, Germany",ChIJnx1C7stPqEcRYyfOVyY7mYY,"Graefestraße12, 10967",52.493593,13.4176113,1, Filterhouse,10967,OK,street_address,52.493593,13.4176113
ROOFTOP,155453,"S-Bahn Bogen 46, Holzmarktstraße 15, 10179 Berlin, Germany",ChIJZ8150pBPqEcRsiASQoj0a-o,"S-Bahn Bogen 46, Holzmarktstraße 15, 10179",52.51286109999999,13.4232167,1, Fitzroy,10179,OK,"establishment,point_of_interest",52.51286109999999,13.4232167
GEOMETRIC_CENTER,151695,"Weteritzer Landstraße, 39638 Gardelegen, Germany",ChIJ_9B69usMr0cRu0kP8H95lTE,"Weteritzer Landstraße, 39638 Gardelegen",52.5245305,11.375474,1, Fliegerklub Gardelegen,39638,OK,route,52.5245305,11.375474
ROOFTOP,112473,"Mühlenstraße 73, 10243 Berlin, Germany",ChIJJ2SaM0ZOqEcRG93iWQNz25k,"Mühlenstraße 73, 10243",52.5033109,13.4443005,1, The Floating Lounge,10243,OK,street_address,52.5033109,13.4443005
ROOFTOP,117147,"Lüderitzstraße 74, 13351 Berlin, Germany",ChIJQX3gb9lTqEcR7FgpHtvJPXY,"Lüderitzstraße 74, 13351",52.5550951,13.3411718,1, Flop Bar,13351,OK,premise,52.5550951,13.3411718
ROOFTOP,87977,"Tucholskystraße 32, 10117 Berlin, Germany",ChIJYS6knehRqEcRsISyULNjsnw,Tucholskystr.32,52.52619559999999,13.3938608,1, Flowbar,10117,OK,street_address,52.52619559999999,13.3938608
ROOFTOP,136097,"Am Flutgraben 3, 12435 Berlin, Germany",ChIJ6ZQ3XTxPqEcR0tt9W9jwsmY,"Am Flutgraben 3, 12435",52.4970977,13.4516979,1, Flutgraben,12435,OK,street_address,52.4970977,13.4516979
ROOFTOP,69683,"Pfuelstraße 5, 10997 Berlin, Germany",ChIJcwSbWU5OqEcRoJbC1Vr-VcA,"Pfuelstraße 5, 10997",52.5028962,13.4408627,1, Fluxbau,10997,OK,premise,52.5028962,13.4408627
GEOMETRIC_CENTER,48132,"Fort Gorgast Haus 3, 15328 Küstriner Vorland, Germany",ChIJHRvNMyd0B0cRk7jBpxImeVA,"Fort Gorgast Haus 3, 15328 Küstriner Vorland",52.560314,14.546627,1, Fort Gorgast - Küstriner Vorland,15328,OK,"establishment,museum,point_of_interest",52.560314,14.546627
ROOFTOP,51292,"Besselstraße 13, 10969 Berlin, Germany",ChIJSV_rR9RRqEcRKN3SjF4m_hY,"Besselstrasse 13-14, 10969",52.5048359,13.3939272,1, Forum Factory,10969,OK,street_address,52.5048359,13.3939272
GEOMETRIC_CENTER,156138,"Forster Str., 10999 Berlin, Germany",ChIJJammYbNPqEcRP7AB2rzG8DI,Forster Str. 10999,52.4947969,13.4329101,1, Fountain of Youth,10999,OK,route,52.4947969,13.4329101
ROOFTOP,137261,"Oranienstraße 19A, 10999 Berlin, Germany",ChIJ15aDXjROqEcRD2kQgmjSRo4,"Oranienstraße 19A, 10999",52.5006218,13.4221798,1, Franken,10999,OK,street_address,52.5006218,13.4221798
ROOFTOP,42914,"Schönhauser Allee 36, 10435 Berlin, Germany",ChIJI1LmRf5RqEcRanabz7p0i50,"Schönhauser Allee 36, 10435",52.5386047,13.4130561,1, Frannz Club,10435,OK,street_address,52.5386047,13.4130561
ROOFTOP,91899,"Mehringdamm 61, 10961 Berlin, Germany",ChIJTYo9gChQqEcRH5Dj7rl9HLo,Mehringdamm 61. 10961,52.4908091,13.3871714,1, Freudenzimmer II,10961,OK,street_address,52.4908091,13.3871714
ROOFTOP,20577,"Nalepastraße 18, 12459 Berlin, Germany",ChIJZXscXC5PqEcRJm5vQzzgAlU,"Nalepastraße 18, 12459",52.4800665,13.5003142,1, Funkhaus Berlin,12459,OK,premise,52.4800665,13.5003142
ROOFTOP,126510,"Wilhelminenhofstraße 83-85, 12459 Berlin, Germany",ChIJ7dlk2rlIqEcRDgjpyCMoVA0,"Wilhelminenhofstraße 83-85, 12459",52.46143379999999,13.5174596,1, Fuseroom Recording Studio,12459,OK,premise,52.46143379999999,13.5174596
ROOFTOP,143600,"Große Präsidentenstraße 6, 10178 Berlin, Germany",ChIJV8XcyeBRqEcRZMqQLSU1RPQ,"Große Präsidentenstraße 6-7, 10178",52.5232018,13.4008476,1, G&T Bar,10178,OK,street_address,52.5232018,13.4008476
ROOFTOP,144302,"Mauerstraße 81-82, 10117 Berlin, Germany",ChIJ_TBUpNFRqEcREjWBeWcD1UU,"Mauerstraße 81-82, 10117",52.5089311,13.3881783,1, Gat Point Charlie,10117,OK,street_address,52.5089311,13.3881783
ROOFTOP,88368,"Weserstraße 50, 12045 Berlin, Germany",ChIJmWiAeaVPqEcRUB8TxERD_YI,"Weserstraße 50, 12045",52.4840426,13.4390016,1, Gelegenheiten,12045,OK,premise,52.4840426,13.4390016
ROOFTOP,147914,"Rosenthaler Str. 39, 10178 Berlin, Germany",ChIJ-5qPXuFRqEcRGea37w9UWG4,"(Above MBOW), Rosenthaler Strasse 39, 10178",52.5242853,13.4020682,1, Geyger Art Gallery,10178,OK,"establishment,museum,point_of_interest",52.5242853,13.4020682
ROOFTOP,141955,"Revaler Str. 99, 10245 Berlin, Germany",ChIJsdkMp1lOqEcRq8YbzXSVlqI,"Revaler Strasse 99, 10245",52.5077221,13.4542457,1, Gleishaus,10245,OK,street_address,52.5077221,13.4542457
ROOFTOP,54078,"Alexanderstraße 7, 10178 Berlin, Germany",ChIJQe1grhhOqEcRaQ3gJPyp0TE,"GMF @ House of Weekend, Alexanderstraße 7, 10178",52.5230592,13.4165104,2, GMF,10178,OK,"bar,establishment,night_club,point_of_interest",52.5230592,13.4165104
ROOFTOP,8009,"Dircksenstraße 78, 10178 Berlin, Germany",ChIJY7GCEiNOqEcRET166xEnk7Y,Dircksenstrasse 78; Mitte; 10178,52.51600999999999,13.41693,1, Golden Gate,10178,OK,street_address,52.51600999999999,13.41693
ROOFTOP,155649,"Kottbusser Damm 95, 10967 Berlin, Germany",ChIJxQ4RRMpPqEcRHoXckuTgyFM,Kottbusser Damm 95,52.4939877,13.4219165,1, Gotham Burgers,10967,OK,premise,52.4939877,13.4219165
ROOFTOP,134200,"Seestraße 49, 13347 Berlin, Germany",ChIJKacEx9VTqEcReq7lbH7Cb-I,"Seestrasse 49, 13347",52.5508122,13.3535504,1, Gr_und,13347,OK,premise,52.5508122,13.3535504
ROOFTOP,67118,"Hirtenstraße 4, 10178 Berlin, Germany",ChIJrzcnfB5OqEcROkRXu4b0zZQ,"Hirtenstraße 4, 10178",52.52561,13.4124124,1, The Grand,10178,OK,premise,52.52561,13.4124124
ROOFTOP,96053,"Gottlieb-Dunkel-Straße 44, 12099 Berlin, Germany",ChIJweiiaYpPqEcRhDOeqCknnAs,"Gottlieb-Dunkel-Straße 44, 12099",52.45668999999999,13.4111901,1, Greenhouse Berlin,12099,OK,street_address,52.45668999999999,13.4111901
ROOFTOP,151639,"Greifswalder Str. 208, 10405 Berlin, Germany",ChIJG2nCfQ9OqEcR0If_sGJVY3Q,Greifswalderstr. 208. HH Rechter Seitenflügel 1.OG,52.53260350000001,13.4283329,1, Greifs 208,10405,OK,premise,52.53260350000001,13.4283329
ROOFTOP,51972,"Obentrautstraße 19, 10963 Berlin, Germany",ChIJ0cJL4itQqEcRZuO4iC_aT7E,Obentrautstr.19-21; 10963 Kreuzberg,52.49599019999999,13.3877655,1, Gretchen,10963,OK,street_address,52.49599019999999,13.3877655
ROOFTOP,46960,"Sonnenallee 221, 12059 Berlin, Germany",ChIJfV8BVQxPqEcRS0LDphWa4C8,Sonnenallee 221; Neukölln; 12059,52.475295,13.4576128,1, Griessmuehle,12059,OK,street_address,52.475295,13.4576128
GEOMETRIC_CENTER,138916,"Anlegestelle Station Wannsee (Berlin), 14109 Berlin, Germany",ChIJnxNfvB5ZqEcRjLOoT_Bfx9E,"Anlegestelle Station Wannsee, 14109",52.4218984,13.1760668,1, Großer Wannsee,14109,OK,"establishment,point_of_interest,transit_station",52.4218984,13.1760668
ROOFTOP,16171,"Rosa-Luxemburg-Platz 2, 10178 Berlin, Germany",ChIJB-8M6R1OqEcRCpqam6s7a9c,Rosa-Luxemburg-Platz 2,52.52695000000001,13.4114,1, Grüner Salon Der Volksbühne,10178,OK,street_address,52.52695000000001,13.4114
ROOFTOP,158895,"Wildenbruchstraße 80, 12045 Berlin, Germany",ChIJby3pAKZPqEcRQikIe0dsQCQ,"Wildenbruchstraße 80, 12045 Deutschland",52.4842466,13.4431674,1, Guttemplerhaus Berlin,12045,OK,street_address,52.4842466,13.4431674
ROOFTOP,145780,"Joachimsthaler Str. 31-32, 10789 Berlin, Germany",ChIJISPiKPlQqEcRA3wxgD4TSos,"Joachimsthaler Str. 31-32, 10719",52.50210370000001,13.3314409,1, H10,10789,OK,street_address,52.50210370000001,13.3314409
ROOFTOP,147060,"Motzstraße 19, 10777 Berlin, Germany",ChIJZ1LDK1BQqEcRbN9YmWLmmQs,"Motzstr. 19, 10777",52.4979114,13.3492115,1, Hafen,10777,OK,premise,52.4979114,13.3492115
GEOMETRIC_CENTER,76295,"Am Wriezener Bahnhof, 10243 Berlin, Germany",ChIJ09DCrkZOqEcRrVPKlTBK49U,Am Wriezener Bahnhof; 10243,52.5110751,13.4414431,1, Halle am Berghain,10243,OK,route,52.5110751,13.4414431
ROOFTOP,22881,"Holzmarktstraße 15, 10179 Berlin, Germany",ChIJ34TAeDtOqEcRGTT_Qx6-TWU,Holzmarktstrasse 15-17; Mitte; 10179,52.51375729999999,13.4226856,1, Hangar 49,10179,OK,street_address,52.51375729999999,13.4226856
ROOFTOP,126360,"Hallesches Ufer 32, 10963 Berlin, Germany",ChIJ8UKriixQqEcRLGaGyWPuqxo,"Hallesches Ufer 32, 10963",52.499064,13.386289,1, HAU Hebbel am Ufer,10963,OK,premise,52.499064,13.386289
ROOFTOP,102361,"Revaler Str. 99, 10245 Berlin, Germany",ChIJsdkMp1lOqEcRq8YbzXSVlqI,"Revaler Str. 99, 10245",52.5077221,13.4542457,1, Haubentaucher,10245,OK,street_address,52.5077221,13.4542457
ROOFTOP,22572,"Schaperstraße 24, 10719 Berlin, Germany",ChIJz13OxflQqEcRr9tTmNXVYJ4,"Schaperstraße 24, 10719",52.49844280000001,13.3286455,1, Haus Der Berliner Festspiele,10719,OK,premise,52.49844280000001,13.3286455
ROOFTOP,7693,"John-Foster-Dulles-Allee 10, 10557 Berlin, Germany",ChIJMXTcuLtRqEcRj8htGEQD9Fw,John-Foster-Dulles-Allee 10; Mitte; 10557,52.5189052,13.3647888,1, Haus Der Kulturen Der Welt,10557,OK,premise,52.5189052,13.3647888
ROOFTOP,26789,"Karl-Marx-Straße 141, 12043 Berlin, Germany",ChIJm7gDfqFPqEcRY2WYYfUmzlw,"Karl-Marx-Straße 141, 12043",52.4769599,13.439366,1, Heimathafen Neukoelln Im Saalbau,12043,OK,premise,52.4769599,13.439366
ROOFTOP,61460,"Helenesee 2, 15236 Frankfurt (Oder), Germany",ChIJVfC6IjSWB0cRYES9mA1CtIs,"Helenesee 2, 15236 Frankfurt (Oder)",52.27625,14.5011999,1, Helenesee,15236,OK,street_address,52.27625,14.5011999
ROOFTOP,154265,"Hertzallee 41, 10787 Berlin, Germany",ChIJPULWkwFRqEcRfzfYnidq-I0,"Hertzallee 41, 10787 Deutschland",52.5090848,13.3330294,1, Hertzallee 41,10787,OK,street_address,52.5090848,13.3330294
ROOFTOP,152262,"10367, Am Containerbahnhof 1, 10367 Berlin, Germany",ChIJUQ-244xOqEcR79gRdrtEmxc,Am Containerbahnhof 1 10367 nähe S Frankfurter Allee,52.515356,13.4759432,2, Hier Am Containerbahnhof 1 (Ganz Hinten),10367,OK,"establishment,point_of_interest",52.515356,13.4759432
ROOFTOP,150360,"Eisenbahnstraße 102, 14542 Werder (Havel), Germany",ChIJm_ZX1a_zqEcRJV9BalshHU4,"Eisenbahnstr. 102, 14542 Werder (Havel)",52.3912232,12.9246774,1, Hofanlage,14542,OK,street_address,52.3912232,12.9246774
ROOFTOP,100068,"Holzmarktstraße 15, 10179 Berlin, Germany",ChIJ34TAeDtOqEcRGTT_Qx6-TWU,"Holzmarktstraße 15, 10179",52.51375729999999,13.4226856,1," Holzmarktstrasse, 15-18",10179,OK,street_address,52.51375729999999,13.4226856
ROOFTOP,153292,"Hertzallee 41, 10787 Berlin, Germany",ChIJPULWkwFRqEcRfzfYnidq-I0,"Hertzallee 41, 10787 Deutschland",52.5090848,13.3330294,1, Hometown.berlin,10787,OK,street_address,52.5090848,13.3330294
ROOFTOP,9585,"Eichenstraße 4, 12435 Berlin, Germany",ChIJoT4CElVOqEcRHxVOOvof1S4,Eichenstrasse 4; Treptow; 12435,52.4966473,13.4530078,1, Hoppetosse,12435,OK,street_address,52.4966473,13.4530078
ROOFTOP,143993,"Dunckerstraße 9, 10437 Berlin, Germany",ChIJYYvIzP9NqEcRfjsAF1gPdSI,"Dunckerstraße 9, 10437 10437",52.5421288,13.4208158,1, Höschen,10437,OK,premise,52.5421288,13.4208158
ROOFTOP,148760,"Stephanstraße 41, 10559 Berlin, Germany",ChIJ5zHPQXRRqEcRXKUHNUKL6pc,"Stephanstr. 41, 10559",52.5321502,13.3446765,1, Hotel Mercure MOA,10559,OK,street_address,52.5321502,13.3446765
ROOFTOP,156781,"Große Präsidentenstraße 6, 10178 Berlin, Germany",ChIJV8XcyeBRqEcRZMqQLSU1RPQ,"Große Präsidentenstr. 6-7, 10178",52.5232018,13.4008476,1, Hotel Zoe,10178,OK,street_address,52.5232018,13.4008476
ROOFTOP,145383,"Alexanderstraße 7, 10178 Berlin, Germany",ChIJzUBDKBlOqEcRiZcv2MLSNQo,"Alexanderstr. 7, 10178 -Mitte",52.5230361,13.4166955,1, House of Weekend,10178,OK,street_address,52.5230361,13.4166955
ROOFTOP,110570,"Auguststraße 2, 10117 Berlin, Germany",ChIJYRZ59-hRqEcREtwW-Z5p3dU,"Auguststraße 2, 10117",52.5258286,13.3907773,1, HRD Bar,10117,OK,street_address,52.5258286,13.3907773
ROOFTOP,133746,"Alexanderstraße 7, 10178 Berlin, Germany",ChIJzUBDKBlOqEcRiZcv2MLSNQo,"Alexanderstraße 7, 10178",52.5230361,13.4166955,1, Humana,10178,OK,street_address,52.5230361,13.4166955
ROOFTOP,140637,"Frankfurter Tor 3, 10243 Berlin, Germany",ChIJP4EymWdOqEcRj75z8ZN_K8U,"Frankfurter tor 3, 10243",52.5168305,13.4546185,1, Humana Second Hand Frankfurter Tor,10243,OK,street_address,52.5168305,13.4546185
ROOFTOP,143291,"Mehringdamm 35, 10961 Berlin, Germany",ChIJMd8S_ShQqEcRHiRxTMhcaEw,"Mehringdamm 35, Kreuzberg",52.4932466,13.3885574,1, Humana Second Hand Kreuzberg,10961,OK,premise,52.4932466,13.3885574
ROOFTOP,153134,"Karl-Marx-Straße 125, 12043 Berlin, Germany",ChIJm4Mvw6NPqEcR391k4C8cXmg,"Karl-Marx-Straße 125, 12043",52.4778877,13.4386767,1, Humana Second Hand Neukölln,12043,OK,premise,52.4778877,13.4386767
ROOFTOP,128594,"Schloßpl. 5, 10178 Berlin, Germany",ChIJZ19F3d5RqEcRrPmtKXKNLSE,"Schloßpl. 5, 10178",52.5176703,13.4004826,1, Humboldt Terrassen,10178,OK,street_address,52.5176703,13.4004826
ROOFTOP,78234,"Hochstraße 46, 13357 Berlin, Germany",ChIJd3Y_m4lRqEcRaFkMsEeLvKc,Hochstraße 46; 13357,52.5443387,13.3786257,1, Humboldthain Club,13357,OK,street_address,52.5443387,13.3786257
ROOFTOP,73149,"Hasenheide 107, 10967 Berlin, Germany",ChIJuYdwArhPqEcRcTgy4aiRZzE,"Hasenheide 107 - 113, Neukölln, 10967",52.4863497,13.4220621,1, Huxley's Neue Welt,10967,OK,street_address,52.4863497,13.4220621
ROOFTOP,4093,"Alt-Treptow 6, 12435 Berlin, Germany",ChIJh4_9Px9PqEcRxEdj_bjzt60,Alt-Treptow 6; Treptow; 12435,52.48678,13.4808,1, Insel der Jugend,12435,OK,street_address,52.48678,13.4808
ROOFTOP,151169,"Havelchaussee 1, 14193 Berlin, Germany",ChIJqRN8NUtYqEcRwydHnTTkJT8,"Havelchaussee 1, 14193",52.4675696,13.1964077,1, Insel Lindwerder,14193,OK,street_address,52.4675696,13.1964077
ROOFTOP,66688,"Alt-Tempelhof 17, 12099 Berlin, Germany",ChIJYUnwbvxPqEcRtZkwnC0C7fA,"Alt-Tempelhof 17-19, 12099",52.4653623,13.3862656,1, Insomnia,12099,OK,street_address,52.4653623,13.3862656
ROOFTOP,112943,"Karl-Marx-Straße 195, 12055 Berlin, Germany",ChIJpy4DnZ9PqEcR4LFubtdbQFQ,"Karl-Marx-Straße 195, 12055",52.4728735,13.4413329,1, IPA Bar,12055,OK,premise,52.4728735,13.4413329
ROOFTOP,141383,"Elsenstraße 48, 12059 Berlin, Germany",ChIJM1f_NKhPqEcRI393fAE2LLo,Elsenstrasse 48,52.4860792,13.4498329,1, IT,12059,OK,premise,52.4860792,13.4498329
ROOFTOP,137223,"Spreewaldpl. 14, 10999 Berlin, Germany",ChIJ88JVHktOqEcRN4MSVKolL7M,"Spreewaldpl. 14, 10999",52.4982,13.43061,1, It's a Bar,10999,OK,street_address,52.4982,13.43061
ROOFTOP,152938,"Revaler Str. 99, 10245 Berlin, Germany",ChIJsdkMp1lOqEcRq8YbzXSVlqI,"Revaler Straße 99, 10245",52.5077221,13.4542457,1, Jägerhütte,10245,OK,street_address,52.5077221,13.4542457
RANGE_INTERPOLATED,78735,"Karl-Marx-Allee 93, 10243 Berlin, Germany",EilLYXJsLU1hcngtQWxsZWUgOTMsIDEwMjQzIEJlcmxpbiwgR2VybWFueSIaEhgKFAoSCWcrcgpqTqhHES-2R2RtzI8OEF0,"Karl-Marx-Allee 93, 10243",52.5170956,13.441836,2, James June,10243,OK,street_address,52.5170956,13.441836
ROOFTOP,149910,"Börnestraße 14, 13086 Berlin, Germany",ChIJ2Sb21OdNqEcRj0Nx3AjXd9k,"Boernerstrasse 14, Weisensee, 13086",52.5487464,13.4479169,1, Jerry's House,13086,OK,premise,52.5487464,13.4479169
ROOFTOP,150103,"Gartenfelder Str. 14, 13599 Berlin, Germany",ChIJq3qwoo9WqEcR5EXNtEJAStM,Gartenfelder Straße 14-28,52.5484194,13.2474116,1, Kabelwerk Berlin,13599,OK,street_address,52.5484194,13.2474116
ROOFTOP,86240,"Torstraße 60, 10119 Berlin, Germany",ChIJHzjOXeJRqEcRsv5JnIX0hIo,"Torstraße 60, 10119",52.5287809,13.4085682,1, Kaffee Burger,10119,OK,street_address,52.5287809,13.4085682
ROOFTOP,142820,"Libauer Str. 23, 10245 Berlin, Germany",ChIJEYbp_ltOqEcREBYW3ym2Rxc,"Libauer Str. 23, 10245",52.50987920000001,13.455155,1, Kaia,10245,OK,street_address,52.50987920000001,13.455155
RANGE_INTERPOLATED,8742,"Am Wriezener Bahnhof 70, 10243 Berlin, Germany",Ei5BbSBXcmllemVuZXIgQmFobmhvZiA3MCwgMTAyNDMgQmVybGluLCBHZXJtYW55IhoSGAoUChIJGfXprEZOqEcRrLJpuzi-6ioQRg,70 Am Wriezener Bahnhof; Friedrichshain; 10243,52.5116457,13.4404548,1, Kantine am Berghain,10243,OK,street_address,52.5116457,13.4404548
ROOFTOP,149951,"Skalitzer Str. 64, 10997 Berlin, Germany",ChIJryeGM0xOqEcRKhLbHHADlPs,"Skalitzer Str. 64, 10997",52.500134,13.4388596,1, Kantine Kohlmann,10997,OK,street_address,52.500134,13.4388596
ROOFTOP,141464,"Großgörschenstraße 12-14, 10829 Berlin, Germany",ChIJJU-BlzlQqEcR-j3Umry5XxQ,Großgörschenstr. 12-14; 10829 ; Deutschland,52.49108,13.36714,1, Kapelle Alter St.-Matthäus-Kirchhof,10829,OK,street_address,52.49108,13.36714
ROOFTOP,99161,"Holzmarktstraße 25, 10243 Berlin, Germany",ChIJY1wYbDlOqEcRSRXkkq9B_14,"Holzmarktstrasse 25, 10243",52.5117851,13.4258816,1, Kater Blau,10243,OK,street_address,52.5117851,13.4258816
ROOFTOP,125751,"Schillerpromenade 2, 12049 Berlin, Germany",ChIJfeiiUb5PqEcRs8Z9azv188M,"Schillerpromenade 2, 12049",52.4781944,13.4209427,1, Keith Bar,12049,OK,premise,52.4781944,13.4209427
ROOFTOP,12641,"Knaackstraße 97, 10435 Berlin, Germany",ChIJkUpouP9RqEcRRmXpm84fHzI,"Knaackstraße 97, 10435",52.5403087,13.4142478,1, Kesselhaus,10435,OK,street_address,52.5403087,13.4142478
RANGE_INTERPOLATED,2755,"Karl-Marx-Allee 33, 10178 Berlin, Germany",EilLYXJsLU1hcngtQWxsZWUgMzMsIDEwMTc4IEJlcmxpbiwgR2VybWFueSIaEhgKFAoSCW2R9fYXTqhHEeBQppjWEqlFECE,"Karl-Marx-Allee 33, 10178",52.5202677,13.4226618,1, Kino International,10178,OK,street_address,52.5202677,13.4226618
ROOFTOP,10546,"Köpenicker Str. 76, 10179 Berlin, Germany",ChIJXdBoMiVOqEcR00oMjCjHye8,Köpenicker Strasse 76; Mitte; 10179,52.5110688,13.4170846,1, KitKatClub,10179,OK,premise,52.5110688,13.4170846
ROOFTOP,157516,"Niemetzstraße 24, 12055 Berlin, Germany",ChIJMx6rpHRPqEcRiCq8YqJ_Feo,"Niemetzstr. 24, 12055",52.47157,13.45106,1, Kleinoid,12055,OK,street_address,52.47157,13.45106
ROOFTOP,77598,"Karl-Marx-Straße 66, 12043 Berlin, Germany",ChIJh1TYJrtPqEcRqGQhhDqGF5o,"Karl-Marx-Straße 66, 12043",52.4820247,13.4327194,1, Klunkerkranich,12043,OK,street_address,52.4820247,13.4327194
ROOFTOP,137371,"Bodestraße 1-3, 10178 Berlin, Germany",ChIJ-ZB2ft5RqEcR2IrhQvwDjQ8,"Bodestr. 1-3, 10178",52.5194665,13.3987445,1, Kolonnadenhof der Museumsinsel Berlin,10178,OK,premise,52.5194665,13.3987445
ROOFTOP,149474,"Am Sudhaus 3, 12053 Berlin, Germany",ChIJ7SnnwLxPqEcRS90G938qEBE,"12053, Am Sudhaus 3",52.47883789999999,13.4308228,1, König Otto,12053,OK,street_address,52.47883789999999,13.4308228
ROOFTOP,154873,"Hardenbergstraße 33, 10623 Berlin, Germany",ChIJdTS8fwJRqEcRe3SJHfdWUhM,"Hardenbergstrasse 33, 10623",52.5090178,13.3268642,1, Konzertsaal der UdK Berlin,10623,OK,street_address,52.5090178,13.3268642
ROOFTOP,150907,"Köpenicker Str. 18, 10997 Berlin, Germany",ChIJ9ybxV0hOqEcRbiiPqZnF3B4,"Köpenicker Strasse 18, 10997",52.5055647,13.4329611,1, Köpenicker Strasse 18,10997,OK,street_address,52.5055647,13.4329611
ROOFTOP,13390,"Köpenicker Str. 137, 10179 Berlin, Germany",ChIJgbWBYzdOqEcRO46021sEtg4,Köpenicker Str. 137,52.507634,13.4262722,1, Köpi,10179,OK,premise,52.507634,13.4262722
ROOFTOP,77908,"Köpenicker Str. 70, 10179 Berlin, Germany",ChIJ2RpH5TpOqEcRWK0z_M__z18,"Köpenicker Str. 70, 10179",52.5110009,13.4195187,1, Kraftwerk Berlin,10179,OK,premise,52.5110009,13.4195187
ROOFTOP,146396,"Kurfürstendamm 206, 10719 Berlin, Germany",ChIJqRfZDvtQqEcRXj3eabqXync,"Kurfürstendamm 206, 10719",52.501986,13.323509,1, Ku'damm Karree,10719,OK,street_address,52.501986,13.323509
ROOFTOP,74553,"Grüntaler Str. 51, 13359 Berlin, Germany",ChIJj5MithdSqEcRMU3oQUTzkdg,"Grüntaler Str. 51, 13359",52.55727539999999,13.3957143,1, Kugelbahn Wedding,13359,OK,premise,52.55727539999999,13.3957143
ROOFTOP,110817,"Karl-Marx-Straße 52, 12043 Berlin, Germany",ChIJC63WBbtPqEcR_DFJoo3WOtM,"Karl-Marx-Straße 52, 12043",52.4824334,13.4308927,1, Kultstätte Keller,12043,OK,premise,52.4824334,13.4308927
ROOFTOP,7234,"Schönhauser Allee 36-39, 10435 Berlin, Germany",ChIJgSHqQ_5RqEcR_wusuJS-XW4,Schönhauser Allee 36-39; Prenzlauer Berg; 10435,52.5383033,13.4127523,1, Kulturbrauerei,10435,OK,premise,52.5383033,13.4127523
ROOFTOP,106684,"Wiesenweg 5-9, 10365 Berlin, Germany",ChIJYymK9vFOqEcRZYL-XZNUqNk,"Wiesenweg 5-9, 10365",52.5074322,13.4763332,1, Kulturhaus Kili,10365,OK,street_address,52.5074322,13.4763332
GEOMETRIC_CENTER,11289,"Rechlin-Lärz Airfield, Am Flugpl., 17248 Lärz, Germany",ChIJJZIuhshQqUcRLlBfbDOwJ0A,"Flugplatz Lärz, 17248 Lärz",53.3051075,12.7514235,1, Kulturkosmos Müritz e.V.,17248,OK,"airport,establishment,point_of_interest",53.3051075,12.7514235
GEOMETRIC_CENTER,138365,"Strausberg, Kulturpark, 15344 Strausberg, Germany",ChIJexDVOi_NqUcRnuHH24MTkbw,"Kulturpark Strausberg, 15344 Strausberg",52.58296,13.882604,1, Kulturpark Strausberg,15344,OK,"bus_station,establishment,point_of_interest,transit_station",52.58296,13.882604
ROOFTOP,110668,"Rotherstraße 3, 10245 Berlin, Germany",ChIJJSccP1dOqEcRM9paaf26eDE,"Rotherstraße 3, 10245",52.5032613,13.4538668,1, Kulturraum Zwingli Kirche e.V.,10245,OK,premise,52.5032613,13.4538668
ROOFTOP,143338,"Boddinstraße 10, 12053 Berlin, Germany",ChIJqdS5Z7tPqEcRM4AmS_bO9eI,Boddinstraße 10 12053,52.4807712,13.4315199,1, Kunstbar,12053,OK,street_address,52.4807712,13.4315199
ROOFTOP,29567,"Mariannenpl. 2, 10997 Berlin, Germany",ChIJ1d-WlzZOqEcRY7INApzm9y8,Mariannenplatz 2,52.50390040000001,13.424064,1, Kunstquartier Bethanien,10997,OK,premise,52.50390040000001,13.424064
ROOFTOP,14587,"Schlesische Str. 41, 10997 Berlin, Germany",ChIJ58ZQAlJOqEcR0_UxmTbyU74,Schlesische Strasse 41; Kreuzberg; 10997,52.5004104,13.4438358,1, L.U.X.,10997,OK,premise,52.5004104,13.4438358
ROOFTOP,22306,"Rigaer Str. 103, 10247 Berlin, Germany",ChIJ0SxuVGZOqEcRzE_nINQvJKA,Rigaer Strasse 103; Friedrichshain; 10247,52.5184819,13.4552656,1, Lauschangriff,10247,OK,premise,52.5184819,13.4552656
ROOFTOP,110183,"Augsburger Str. 41, 10789 Berlin, Germany",ChIJcVwt1f5QqEcRDbUDi_GPF0o,"Augsburger Str. 41, 10789",52.5024885,13.3318377,1, Le Faubourg Lounge,10789,OK,premise,52.5024885,13.3318377
ROOFTOP,118086,"Holzmarktstraße 16, 10179 Berlin, Germany",ChIJG7_BzjxOqEcRal8vR9ldXaA,"Holzmarktstraße 16, 10179",52.51589999999999,13.4204,1, Libertine Club,10179,OK,street_address,52.51589999999999,13.4204
ROOFTOP,159857,"Kastanienallee 77, 10435 Berlin, Germany",ChIJQwXOFvxRqEcR3jUS8exySbg,"Kastanienallee 77, 10435",52.53637,13.40814,1, Lichtblick-Kino,10435,OK,street_address,52.53637,13.40814
ROOFTOP,7235,"Cuvrystraße 7, 10997 Berlin, Germany",ChIJ6e3BOFJOqEcRmOCdfXsbTsI,Cuvrystrasse 7; Kreuzberg; 10997,52.49917,13.445,1, Lido Berlin,10997,OK,street_address,52.49917,13.445
ROOFTOP,112947,"Nostitzstraße 12, 10961 Berlin, Germany",ChIJKwo6QChQqEcRTDB0iUVseE4,"Nostitzstraße 12, 10961 -Kreuzberg",52.49184,13.3904619,1, Limonadier,10961,OK,premise,52.49184,13.3904619
ROOFTOP,63780,"Mehringdamm 61, 10961 Berlin, Germany",ChIJTYo9gChQqEcRH5Dj7rl9HLo,"Mehringdamm 61, 10961",52.4908091,13.3871714,1, Liquid Sky Berlin - #LSB02,10961,OK,street_address,52.4908091,13.3871714
ROOFTOP,40378,"Möckernstraße 10, 10963 Berlin, Germany",ChIJWaWSpTJQqEcRu84KBTesmow,"Möckernstraße 10, 10963",52.50158390000001,13.3811564,1, Liquidrom,10963,OK,premise,52.50158390000001,13.3811564
ROOFTOP,52449,"Maybachufer 48, 12045 Berlin, Germany",ChIJkxVE9bFPqEcRER4eG6CzEQA,Maybachufer 48; Neukölln; 12045,52.4904869,13.435771,1, Loftus Hall,12045,OK,street_address,52.4904869,13.435771
ROOFTOP,16367,"Boddinstraße 60, 12053 Berlin, Germany",ChIJXcCvVrtPqEcR5GNd0ENkAZo,Boddinstrasse 60; Neukölln; 12053,52.4806591,13.4330371,1, Loophole,12053,OK,premise,52.4806591,13.4330371
ROOFTOP,98526,"Torstraße 225, 10115 Berlin, Germany",ChIJp-OPWulRqEcRAQnWL_ijfdQ,"Torstraße 225, 10115",52.527542,13.388054,1, Lustbar,10115,OK,street_address,52.527542,13.388054
ROOFTOP,15418,"Oranienstraße 34, 10999 Berlin, Germany",ChIJe-IgvDNOqEcRqmCBEabyBJ8,Oranienstrasse 34; Kreutzberg; 10999,52.501742,13.418312,1, Luzia,10999,OK,street_address,52.501742,13.418312
ROOFTOP,28667,"Lübbener Str. 19, 10997 Berlin, Germany",ChIJOQNYQUxOqEcRwEBXa3BF-K4,"Lübbener Str. 19, 10997",52.4996325,13.4373429,1, Madame Claude,10997,OK,premise,52.4996325,13.4373429
ROOFTOP,37540,"Holzmarktstraße 15, 10179 Berlin, Germany",ChIJ34TAeDtOqEcRGTT_Qx6-TWU,"Holzmarktstraße 15, 10179",52.51375729999999,13.4226856,1, Marie Antoinette,10179,OK,street_address,52.51375729999999,13.4226856
ROOFTOP,139384,"Ziegrastraße 1, 12057 Berlin, Germany",ChIJ-8rPew5PqEcRt1RLqdAAzAk,"Ziegrastrasse 1, 12057",52.47742299999999,13.459496,1, Marin Fischrestaurant,12057,OK,premise,52.47742299999999,13.459496
ROOFTOP,146612,"Niederkirchnerstraße 7, 10117 Berlin, Germany",ChIJM55ewc1RqEcR0P27nGRFgKw,"Niederkirchnerstraße 7, 10963",52.5066485,13.3819377,1, Martin-Gropius-Bau,10117,OK,street_address,52.5066485,13.3819377
ROOFTOP,158776,"Am Falkpl. 1, 10437 Berlin, Germany",ChIJs5CUGwNSqEcR2sxK5lXPngI,"Am Falkpl. 1, 10437",52.5459436,13.4061159,1, Max-Schmeling-Halle,10437,OK,premise,52.5459436,13.4061159
ROOFTOP,106915,"Mehringdamm 61, 10961 Berlin, Germany",ChIJTYo9gChQqEcRH5Dj7rl9HLo,"Mehringdamm 61, 10961",52.4908091,13.3871714,1, Maze,10961,OK,street_address,52.4908091,13.3871714
GEOMETRIC_CENTER,18924,"Dircksenstraße, Berlin, Germany",ChIJXWn7yyFOqEcRR1r743v9SJM,Dircksenstrasse; Mitte; 10178,52.5198711,13.4140388,1, M-Bia,,OK,route,52.5198711,13.4140388
ROOFTOP,32136,"Brunnenstraße 197-198, 10119 Berlin, Germany",ChIJLfZp9-RRqEcRf9NSzd-OqT0,Brunnenstrasse 197-198; Mitte; 10119,52.52998299999999,13.4007594,1, Mein Haus Am See,10119,OK,street_address,52.52998299999999,13.4007594
ROOFTOP,150248,"Münchener Str. 21, 90478 Nürnberg, Germany",ChIJucA27XtXn0cREIYRwlYkN74,"Münchener Str. 21, 90478 Nürnberg",49.4373145,11.1042448,1, Meistersingerhalle,90478,OK,street_address,49.4373145,11.1042448
ROOFTOP,147372,"Greifswalder Str. 218, 10405 Berlin, Germany",ChIJw91eZwVOqEcRBp4bTYBFg4A,"Greifswalder Str. 218, 10405",52.53128,13.42626,1, Melloch Bar,10405,OK,street_address,52.53128,13.42626
ROOFTOP,81430,"An der Wuhlheide 250, 12459 Berlin, Germany",ChIJNZ3_t2FIqEcRfNv63LvjUmw,"An der Wuhlheide 250-256, D-12555",52.4558695,13.5635956,1, Mellowpark,12459,OK,street_address,52.4558695,13.5635956
ROOFTOP,103373,"Storkower Str. 121, 10407 Berlin, Germany",ChIJ5WHC1XVOqEcR5LvAgTpV0xU,"Storkower Str. 121, 10407",52.5351784,13.4523689,1, Mensch Meier,10407,OK,premise,52.5351784,13.4523689
ROOFTOP,14245,"Warschauer Str. 39-40, 10243 Berlin, Germany",ChIJGcZbblBOqEcRSMYtolOO4BI,"Warschauer Str. 39/40, 10243",52.50471,13.44779,1, Michelberger Hotel,10243,OK,street_address,52.50471,13.44779
APPROXIMATE,46327,"14913 Niedergörsdorf, Germany",ChIJ46EdVQfVp0cRwJleW0YgIQQ,14913 Niedergörsdorf - Land Brandenburg,51.9807948,12.9884985,1, Militärflugplatz,14913,OK,"locality,political",51.9807948,12.9884985
ROOFTOP,23370,"Rigaer Str. 31, 10247 Berlin, Germany",ChIJtWjVRWBOqEcRU8oT1wtgWm4,Rigaer Strasse 31; Friedrichshain; 10247,52.51638999999999,13.46406,1, Minimal Bar,10247,OK,street_address,52.51638999999999,13.46406
ROOFTOP,51949,"Reichenberger Str. 177, 10999 Berlin, Germany",ChIJ59TOEzNOqEcRBqTuXq4l3gg,"Reichenberger Str. 177, 10999",52.50004500000001,13.417503,1, Möbel-Olfe,10999,OK,street_address,52.50004500000001,13.417503
ROOFTOP,133475,"Gottlieb-Dunkel-Straße 43-44, 12099 Berlin, Germany",ChIJfaaqbopPqEcRJR25Wi-sVFo,"Gottlieb-Dunkel-Straße 43/44, 12099",52.45643579999999,13.41133,1, Modular+,12099,OK,street_address,52.45643579999999,13.41133
ROOFTOP,158661,"Danziger Str. 56, 10435 Berlin, Germany",ChIJSb5s7gBOqEcRZoVI-HvqC2k,"Danziger Str. 56, 10435",52.5394705,13.4209011,1, Mokum Berlin,10435,OK,street_address,52.5394705,13.4209011
ROOFTOP,19219,"Skalitzer Str. 134, 10999 Berlin, Germany",ChIJYTCanzROqEcRu13myLXodFg,Skalitzer Strasse 134; Kreuzberg; 10999,52.49937250000001,13.4187919,1, Monarch,10999,OK,street_address,52.49937250000001,13.4187919
ROOFTOP,144489,"Nalepastraße 18, 12459 Berlin, Germany",ChIJZXscXC5PqEcRJm5vQzzgAlU,"Nalepastraße 18, 12459",52.4800665,13.5003142,1, MONOM,12459,OK,premise,52.4800665,13.5003142
ROOFTOP,9391,"Warschauer Str. 34, 10243 Berlin, Germany",ChIJZWgpeFBOqEcRnupP4xMZ44o,"Warschauer Str. 34, 10243",52.50524480000001,13.4483818,1, Monster Ronson's Ichiban Karaoke,10243,OK,street_address,52.50524480000001,13.4483818
ROOFTOP,155727,"Simon-Dach-Straße 3, 10245 Berlin, Germany",ChIJjzOBgV5OqEcRVRJZ1q8WuCc,"Simon-Dach-Straße 3, 10245",52.51251689999999,13.4567581,1, Monti,10245,OK,premise,52.51251689999999,13.4567581
ROOFTOP,130861,"Schönhauser Allee 36, 10435 Berlin, Germany",ChIJI1LmRf5RqEcRanabz7p0i50,"Schönhauser Allee 36, 10435",52.5386047,13.4130561,1, Moon Club Berlin,10435,OK,street_address,52.5386047,13.4130561
ROOFTOP,138432,"Weserstraße 189, 12045 Berlin, Germany",ChIJTX6jF7BPqEcRY4isnoLR_B8,Weserstr. 189 12045,52.4863294,13.4353576,1, Motif Wein,12045,OK,street_address,52.4863294,13.4353576
ROOFTOP,136536,"Andreasstraße 76, 10243 Berlin, Germany",ChIJk5nF7zhOqEcRrC1bC4sbuFI,"Andreasstraße 76-78, 10243",52.5110221,13.4301186,1, Moxy Berlin Ostbahnhof,10243,OK,street_address,52.5110221,13.4301186
ROOFTOP,153107,"Heinitzstraße 41, 15562 Rüdersdorf bei Berlin, Germany",ChIJZS0RNkExqEcR3mHgT3thoi0,"Heinitzstr. 41, 15562, Rüdersdorf bei",52.4811631,13.7832618,1, Museumspark Rüdersdorf,15562,OK,premise,52.4811631,13.7832618
ROOFTOP,113631,"Falckensteinstraße 48, 10997 Berlin, Germany",ChIJfYps9FFOqEcR3aVtAz10R7g,"Falckensteinstraße 48, 10997",52.5007405,13.4449256,1, Musik & Frieden,10997,OK,street_address,52.5007405,13.4449256
ROOFTOP,103538,"Greifswalder Str. 23A, 10405 Berlin, Germany",ChIJHVN_7g9OqEcRgl53UKlzf3I,Greifswalder Str.23A,52.5312181,13.4278374,1, Musikbrauerei,10405,OK,street_address,52.5312181,13.4278374
ROOFTOP,127151,"Blücherstraße 22, 10961 Berlin, Germany",ChIJm0H0kdZPqEcROmAPBjPQeKc,"Blücherstrasse 22, 10961",52.4938702,13.3984408,1, Muting The Noise,10961,OK,premise,52.4938702,13.3984408
ROOFTOP,117176,"Schlesische Str. 35, 10997 Berlin, Germany",ChIJIY78OlJOqEcRcN24qOIv_Vg,"Schlesische Str. 35, 10997",52.4995529,13.4452059,1, Mysliwska,10997,OK,street_address,52.4995529,13.4452059
ROOFTOP,146565,"Oranienburger Str. 4, 10178 Berlin, Germany",ChIJt8_f0eBRqEcRXBF7NwwLd2E,"Oranienburger Straße 4, 10178 Deutschland",52.5237949,13.4010827,1, N3 Club,10178,OK,premise,52.5237949,13.4010827
ROOFTOP,82056,"Pappelallee 21A, 10437 Berlin, Germany",ChIJQV1PXgBSqEcRCTjQmybcf_Q,Pappelallee 21a 10437,52.5442984,13.4161679,1, Nachbeben,10437,OK,premise,52.5442984,13.4161679
ROOFTOP,126445,"Budapester Str. 40, 10787 Berlin, Germany",ChIJ-RAVYVVQqEcR7BN7HG1zkwk,"Budapester Str. 40, 10787",52.50561949999999,13.3379602,1, NENI Berlin / Monkey Bar,10787,OK,street_address,52.50561949999999,13.3379602
ROOFTOP,146516,"Lützner Str. 29, 04177 Leipzig, Germany",ChIJ--IxWqL3pkcRQnBz8uZ8BWg,"Lützner Str.29, 04177 Leipzig, Sachsen",51.3357951,12.3340342,1, Neues Schauspiel Leipzig,04177,OK,premise,51.3357951,12.3340342
APPROXIMATE,47404,"10965 Berlin, Germany",ChIJLWVmFdlPqEcR8OM9lUkgIRw,"Neukölln, 10965",52.4853765,13.3989037,1, Neuköllner Hasenheide,10965,OK,postal_code,52.4853765,13.3989037
ROOFTOP,60681,"nhow Berlin, Stralauer Allee 3, 10245 Berlin, Germany",ChIJQUmQNVFOqEcRzqNBfDUFdBs,"Stralauer Allee 3, 10245",52.50119189999999,13.4508457,1, Nhow Hotel,10245,OK,premise,52.50119189999999,13.4508457
ROOFTOP,123071,"Helsingforser Str. 11, 10243 Berlin, Germany",ChIJffRik0ROqEcRHzGBhZXS0co,"Helsingsforser Str. 11-13, 10243",52.51018260000001,13.4454731,1, Nirgendwo,10243,OK,street_address,52.51018260000001,13.4454731
ROOFTOP,142616,"Oranienburger Str. 4, 10178 Berlin, Germany",ChIJS2wxHMVRqEcR3pk62Y-6w0s,N3 Club Oranienburger str 4 10178,52.5237949,13.4010827,1, Nordwind Clubnight,10178,OK,"establishment,point_of_interest",52.5237949,13.4010827
ROOFTOP,147686,"Schönhauser Allee 52, 10437 Berlin, Germany",ChIJi7MxzgFSqEcRZDvKI1uPGFE,"Schönhauser Allee 52, 10437",52.54289139999999,13.4127189,1, OAK & ICE,10437,OK,street_address,52.54289139999999,13.4127189
ROOFTOP,127014,"Revaler Str. 99, 10245 Berlin, Germany",ChIJsdkMp1lOqEcRq8YbzXSVlqI,"Revaler Str. 99, 10245",52.5077221,13.4542457,1, The Off,10245,OK,street_address,52.5077221,13.4542457
ROOFTOP,75457,"Köpenicker Str. 70, 10179 Berlin, Germany",ChIJ2RpH5TpOqEcRWK0z_M__z18,"Köpenicker Str. 70, 10179",52.5110009,13.4195187,1, OHM,10179,OK,premise,52.5110009,13.4195187
ROOFTOP,155709,"Weichselstraße 49, 12045 Berlin, Germany",ChIJxzVKIbBPqEcRn8szPHCIwd0,Weichselstr. 49 D-12045 -Neukölln,52.4868216,13.4360544,1, Ohrenhoch,12045,OK,premise,52.4868216,13.4360544
ROOFTOP,146334,"Weichselstraße 49, 12045 Berlin, Germany",ChIJxzVKIbBPqEcRn8szPHCIwd0,"Weichselstraße 49, 12045",52.4868216,13.4360544,1," Ohrenhoch, der Geräuschladen",12045,OK,premise,52.4868216,13.4360544
ROOFTOP,135008,"Torstraße 58, 10119 Berlin, Germany",ChIJnY82Z-JRqEcRhj1I9DQhqts,"Torstraße 58, 10119",52.52868309999999,13.4087578,1, Old CCCP,10119,OK,premise,52.52868309999999,13.4087578
ROOFTOP,13603,"Olympischer Platz 3, 14053 Berlin, Germany",ChIJ00RwPxxXqEcR4VGYKwG-Itk,"Olympischer Platz 3, 14053",52.5153057,13.2395208,1, Olympic Stadium,14053,OK,premise,52.5153057,13.2395208
ROOFTOP,153098,"Oranienpl. 17, 10999 Berlin, Germany",ChIJhVPKSjJOqEcRGjqtPYxNP8M,"Oranienplatz 17, 10999",52.5022169,13.4168669,1, Orania.Berlin,10999,OK,street_address,52.5022169,13.4168669
ROOFTOP,126273,"Möckernstraße 120, 10963 Berlin, Germany",ChIJT6a39i1QqEcRJdwBo6eyNiM,"Möckernstraße 120, 10963",52.4979926,13.3802938,1, Orenstein & Koppel Lofts,10963,OK,premise,52.4979926,13.3802938
ROOFTOP,157432,"Rheinstraße 18, 12159 Berlin, Germany",ChIJL_EVjnlQqEcRryxMnZMD9M0,Rheinstraße 18 12159,52.469294,13.3325069,1, Original Cut Masters,12159,OK,premise,52.469294,13.3325069
ROOFTOP,149002,"Frank-Zappa-Straße 19, 12681 Berlin, Germany",ChIJzQT9yAVMqEcR3FpEUJU4fcc,"Frank-Zappa-Straße 19, 12681 Berli",52.53733,13.52953,1, Orwo Haus,12681,OK,street_address,52.53733,13.52953
ROOFTOP,141987,"Alt-Stralau 1-2, 10245 Berlin, Germany",ChIJIZI7HPxOqEcRgEsN8Bf9A2g,"Alt-Stralau, 1-2 Friedrichshain 10245",52.49715,13.46502,1, OST,10245,OK,street_address,52.49715,13.46502
ROOFTOP,153312,"Alt-Stralau 1-2, 10245 Berlin, Germany",ChIJIZI7HPxOqEcRgEsN8Bf9A2g,Alt Stralau 1-2,52.49715,13.46502,1, Osthafen,10245,OK,street_address,52.49715,13.46502
ROOFTOP,80808,"Friedelstraße 49, 12047 Berlin, Germany",ChIJVV3w77ZPqEcRgdb14UJjbIY,"Friedelstr. 49, 12047",52.48953849999999,13.4273941,1, OYE Kreuzkoelln,12047,OK,street_address,52.48953849999999,13.4273941
ROOFTOP,8957,"Skalitzer Str. 135, 10999 Berlin, Germany",ChIJ03wjXjNOqEcRhimG1ZkndGw,"Skalitzer Str. 135, 10999",52.4993177,13.4189874,1, Paloma,10999,OK,street_address,52.4993177,13.4189874
ROOFTOP,136646,"Am Flutgraben 2, 12435 Berlin, Germany",ChIJZ_q0lzROqEcRLmty9qmUZcI,"Festsaal Kreuzberg Biergarten, Am Flutgraben 2, 12435",52.4967039,13.4515843,2, Paloma Sommerlager,12435,OK,"establishment,food,point_of_interest,restaurant",52.4967039,13.4515843
ROOFTOP,41485,"Gerichtstraße 23, 13347 Berlin, Germany",ChIJGwOte4hRqEcRt65DQT5lWYs,"Gerichtstraße 23, 13347",52.5445587,13.372549,1, Panke,13347,OK,premise,52.5445587,13.372549
ROOFTOP,56022,"Marheinekepl. 1, 10961 Berlin, Germany",ChIJNTlg4NlPqEcR26oPi0jSpoM,"Marheinekepl. 1, 10961",52.4895235,13.3971431,1, Passionskirche,10961,OK,premise,52.4895235,13.3971431
ROOFTOP,36288,"Friedenstraße 101, 10249 Berlin, Germany",ChIJrZnkYBFOqEcRflaOLc77SEo,"Friedenstraße 101, 10249",52.52509,13.43176,1, Pavillon,10249,OK,street_address,52.52509,13.43176
ROOFTOP,137909,"Kaiserin-Augusta-Allee 101, 10553 Berlin, Germany",ChIJQ5TvfhZRqEcRMLJe3xqJq0s,"Kaiserin-Augusta-Allee 101, 10553",52.5255149,13.3198546,1, Petersburg Art Space,10553,OK,premise,52.5255149,13.3198546
ROOFTOP,144096,"Schönhauser Allee 176, 10119 Berlin, Germany",ChIJcZlRq-JRqEcRFXQP8EdnU_c,"Schönhauser Allee 176, 10119",52.5317112,13.4120256,1, Pfefferberg Theater,10119,OK,street_address,52.5317112,13.4120256
ROOFTOP,62426,"Herbert-von-Karajan-Straße 1, 10785 Berlin, Germany",ChIJK_QFBbZRqEcRPESmErAyNSg,Herbert-von-Karajan-Straße 1,52.5098485,13.3699181,1, Philharmonie Berlin,10785,OK,street_address,52.5098485,13.3699181
ROOFTOP,101044,"Pappelallee 65, 10437 Berlin, Germany",ChIJladm6wBSqEcR9rznkWfOCQU,"Pappelallee 65, 10437",52.5454632,13.4167434,1, Phonoclub,10437,OK,premise,52.5454632,13.4167434
ROOFTOP,68176,"Wiesenweg 1-4, 10365 Berlin, Germany",ChIJsesPiPFOqEcR7X5DCZ2vGtg,Wiesenweg 1-4; Friedrichshain; 10365,52.5074565,13.4742189,1, Polygon Club,10365,OK,street_address,52.5074565,13.4742189
ROOFTOP,157019,"Potsdamer Straße 180, 10783 Berlin, Germany",ChIJ03WpCkhQqEcRsTEp-SRLqlk,"Potsdamer Str. 180, 10783",52.49386,13.3606,1, Potse,10783,OK,street_address,52.49386,13.3606
ROOFTOP,91909,"Ganghoferstraße 2, 12043 Berlin, Germany",ChIJFzJE8aNPqEcRsl1pQsQSgMk,"Ganghoferstraße 2, 12043",52.4790697,13.4388571,1, Prachtwerk Berlin,12043,OK,street_address,52.4790697,13.4388571
ROOFTOP,105050,"Schliemannstraße 5, 10437 Berlin, Germany",ChIJK5c4DwBOqEcRN0II9Fw5nW4,"Schliemannstraße 5, 10437",52.54118,13.41787,1, Praegewerk,10437,OK,street_address,52.54118,13.41787
ROOFTOP,58686,"Colbestraße 26, 10247 Berlin, Germany",ChIJ8bEMm19OqEcRD5PyOujsOGI,"Colbestraße 26, 10247",52.5123409,13.4632369,1, Pride,10247,OK,premise,52.5123409,13.4632369
ROOFTOP,52395,"Prinzenstraße 85, 10969 Berlin, Germany",ChIJUVwutC1OqEcRGPAvblEBPSM,Prinzenstrasse 85; Friedrichshain-Kreuzberg; 10969,52.5031115,13.4099611,1, Prince Charles,10969,OK,street_address,52.5031115,13.4099611
ROOFTOP,12752,"Skalitzer Str. 85-86, 10997 Berlin, Germany",ChIJ-T40EkxOqEcRb6yDfpqzT6w,"Skalitzer Straße 85-86, 10997",52.50031999999999,13.4364801,1, Privatclub,10997,OK,street_address,52.50031999999999,13.4364801
ROOFTOP,88900,"Schillerpromenade 11, 12049 Berlin, Germany",ChIJI2LL95VPqEcRz3NG6GKfymI,"Schillerpromenade 11, 12049",52.475866,13.4220073,1, Promenaden Eck,12049,OK,street_address,52.475866,13.4220073
ROOFTOP,17219,"Tauentzienstraße 11, 10789 Berlin, Germany",ChIJ7ymLh1VQqEcRtaHeZpVM1as,Tauentzienstrasse 11; Kreuzberg; 10789,52.50452970000001,13.3377401,2, Puro,10789,OK,street_address,52.50452970000001,13.3377401
ROOFTOP,149553,"Kirchstraße 25, 10557 Berlin, Germany",ChIJycnG5KBRqEcRP9CGgxPmdmg,"Kirchstraße 25, 10557",52.5241708,13.349763,1, R_1992,10557,OK,premise,52.5241708,13.349763
ROOFTOP,7231,"Holzmarktstraße 33, 10243 Berlin, Germany",ChIJhz8mADlOqEcR2lw7-iNCoDM,"Holzmarktstraße 33, 10243",52.51056999999999,13.42873,1, Radialsystem,10243,OK,street_address,52.51056999999999,13.42873
ROOFTOP,116529,"Frankfurter Allee 23, 10247 Berlin, Germany",ChIJYbu8sWBOqEcR6M_TS2gM5kk,Frankfurter Allee 23,52.5158894,13.459121,1, Radio The Label Bar,10247,OK,street_address,52.5158894,13.459121
ROOFTOP,157018,"Schönhauser Allee 36-39, 10435 Berlin, Germany",ChIJgSHqQ_5RqEcR_wusuJS-XW4,"Schönhauser Allee 36-39, 10435",52.5383033,13.4127523,1, Rambazamba Theater (Kulturbrauerei),10435,OK,premise,52.5383033,13.4127523
ROOFTOP,138911,"Markgrafendamm 24c, 10245 Berlin, Germany",ChIJE3PM7_lOqEcRx7NIgXOdQVA,Markgrafendamm 24c 10245 -Friedrichshain,52.50255900000001,13.4663169,1, Raumerweiterungshalle,10245,OK,street_address,52.50255900000001,13.4663169
ROOFTOP,3301,"Libauer Str. 1, 10245 Berlin, Germany",ChIJNWgt_1tOqEcRO7jmhsl4DA4,Libauer Strasse 1; Friedrichshain; 10245,52.5099472,13.4547588,1, Raumklang,10245,OK,street_address,52.5099472,13.4547588
ROOFTOP,83893,"Revaler Str. 99, 10245 Berlin, Germany",ChIJsdkMp1lOqEcRq8YbzXSVlqI,Revaler Strasse 99; Friedrichshain; 10245,52.5077221,13.4542457,1, RAW Club,10245,OK,street_address,52.5077221,13.4542457
ROOFTOP,7302,"Revaler Str. 99, 10245 Berlin, Germany",ChIJsdkMp1lOqEcRq8YbzXSVlqI,"Revaler Str. 99, 10245",52.5077221,13.4542457,1, Raw Tempel,10245,OK,street_address,52.5077221,13.4542457
ROOFTOP,145826,"Ohlauer Str. 43, 10999 Berlin, Germany",ChIJ1d0Y-LRPqEcRgcl4FkbMzxk,"Ohlauer Str. 43, 10999",52.49406639999999,13.4292826,1, Red Bull Music Studios,10999,OK,street_address,52.49406639999999,13.4292826
ROOFTOP,150187,"Karl-Liebknecht-Str. 13, 10178 Berlin, Germany",ChIJB5Ur4B9OqEcRCJxlCbhOxdk,"Karl-Liebknecht-Str. 13, 10178",52.5220352,13.4077372,1, The Reed,10178,OK,street_address,52.5220352,13.4077372
ROOFTOP,151890,"Am Hamburger Bahnhof 4, 10557 Berlin, Germany",ChIJm8_D2ZBRqEcRL6slqc2-xY0,"Am Hamburger Bahnhof 4, 10557",52.5316215,13.3691311,1, Reinhard Bär Restaurant und Café,10557,OK,street_address,52.5316215,13.3691311
ROOFTOP,103425,"Lausitzer Str. 1, 10999 Berlin, Germany",ChIJycdJ-kpOqEcRsD7Kh188tE0,"Lausitzer Str. 1, 10999",52.4989316,13.4301189,1, Repeat,10999,OK,street_address,52.4989316,13.4301189
ROOFTOP,155292,"Rhinower Str. 3, 10437 Berlin, Germany",ChIJTeUfdQRSqEcRE46iIzDobGo,"Rhinower Str. 3, 10437",52.5480145,13.4104374,1, Rhinoçéros,10437,OK,premise,52.5480145,13.4104374
ROOFTOP,6950,"Ritterstraße 26, 10969 Berlin, Germany",ChIJu8m_QyxOqEcRu_JZRCm9ec4,Ritterstrasse 26; Kreuzberg; 10969,52.50291,13.40791,1, Ritter Butzke,10969,OK,street_address,52.50291,13.40791
ROOFTOP,152304,"Weinbergsweg 13, 10119 Berlin, Germany",ChIJtUczrORRqEcRDP3Ji4yQcsE,"Weinbergsweg 13, 10119",52.53205,13.4038,1, Rosengarten Berlin,10119,OK,street_address,52.53205,13.4038
ROOFTOP,3708,"Revaler Str. 29, 10245 Berlin, Germany",ChIJqzlo6vdOqEcRm3j6pherS0w,Revaler Strasse 29; Friedrichshain; 10245,52.50512699999999,13.4625051,1, Rosi's,10245,OK,premise,52.50512699999999,13.4625051
GEOMETRIC_CENTER,13368,"Rosa-Luxemburg-Platz, 10178 Berlin, Germany",ChIJe6Vo3R1OqEcRxo0PyQzHMeI,"Rosa-Luxemburg-Platz, 10178",52.5266977,13.4113305,1, Roter Salon,10178,OK,route,52.5266977,13.4113305
ROOFTOP,147587,"Holzmarktstraße 25, 10243 Berlin, Germany",ChIJY1wYbDlOqEcRSRXkkq9B_14,"Holzmarktstraße 25, 10243",52.5117851,13.4258816,1, Säälchen,10243,OK,street_address,52.5117851,13.4258816
ROOFTOP,147855,"Cuvrystraße 4, 10997 Berlin, Germany",ChIJnZtLL1JOqEcREvNc9_HGAy4,"Cuvrystraße 4, 10997",52.49997339999999,13.4458621,1, SAE Institute,10997,OK,street_address,52.49997339999999,13.4458621
ROOFTOP,47291,"Köpenicker Str. 18-20, 10997 Berlin, Germany",ChIJsXtbQ0hOqEcR1LQOi4_qOnY,Köpenicker Str. 18-20 10997,52.50557999999999,13.43297,1, Sage Beach Berlin,10997,OK,street_address,52.50557999999999,13.43297
ROOFTOP,8556,"Alt-Stralau 70, 10245 Berlin, Germany",ChIJ-YtXA_xOqEcRYk6AIyQ3l60,Alt Stralau 70; Friedrichshain; 10245,52.49744,13.46531,1, Salon Zur Wilden Renate,10245,OK,street_address,52.49744,13.46531
ROOFTOP,34420,"Richardstraße 10, 12043 Berlin, Germany",ChIJSdb53qNPqEcRiDK1secNyuE,Richardstrasse 10; Neukölln; 12043,52.4778181,13.4390955,1, Sameheads,12043,OK,premise,52.4778181,13.4390955
ROOFTOP,151313,"Mittenwalder Str. 15, 10961 Berlin, Germany",ChIJ7yUkq9dPqEcRDD2Ast4K2Wo,"Mittenwalder Strasse 15, 10961",52.49239619999999,13.3965055,1, Sankt Studio,10961,OK,premise,52.49239619999999,13.3965055
ROOFTOP,126817,"Forster Str. 46, 10999 Berlin, Germany",ChIJ04JuY7NPqEcRsMqneJlCYEk,"Forster Str. 46, 10999",52.49448,13.4327999,1, Sauer Mutter,10999,OK,street_address,52.49448,13.4327999
ROOFTOP,113791,"Weisestraße 35, 12049 Berlin, Germany",ChIJHYFHOJZPqEcRWtrolugRc0w,"Weisestraße 35, 12049",52.474162,13.4250744,1, Savo Bar Café,12049,OK,street_address,52.474162,13.4250744
ROOFTOP,119761,"Plantagenstraße 31, 13347 Berlin, Germany",ChIJ07-6RodRqEcRu-5KLLHCq9o,"Plantagenstraße 31, 13347, Wedding",52.54622860000001,13.3665865,1, Savvy Contemporary,13347,OK,street_address,52.54622860000001,13.3665865
ROOFTOP,116594,"Karl-Liebknecht-Straße 20, 03046 Cottbus, Germany",ChIJGZzXdGZ0CEcRuL4l825m0CM,"Karl-Liebknecht-Straße 20, 03046 Cottbus",51.7567834,14.3268552,1, Scandale - Le Locale Fatale,03046,OK,premise,51.7567834,14.3268552
ROOFTOP,145306,"Revaler Str. 99, 10245 Berlin, Germany",ChIJsdkMp1lOqEcRq8YbzXSVlqI,"Revaler Str. 99, 10245",52.5077221,13.4542457,1, Scape,10245,OK,street_address,52.5077221,13.4542457
ROOFTOP,152522,"Heinitzstraße 43, 15562 Rüdersdorf bei Berlin, Germany",ChIJYTJxJUIxqEcRoKxrAhkCunw,"Heinitzstraße 43, 15562 Rüdersdorf bei",52.4825177,13.7883163,1, Schachtofenbatterie,15562,OK,street_address,52.4825177,13.7883163
GEOMETRIC_CENTER,145852,"Wilhelmstraße, 10963 Berlin, Germany",EiVXaWxoZWxtc3RyYXNzZSwgMTA5NjMgQmVybGluLCBHZXJtYW55IkgqRgoUChIJNxVUHM5RqEcR0jVOpHKa_-gSFAoSCTHRtF8yUKhHEaD1P5VJICEcGhgKCg0PfUofFYpB-gcSCg2hZkwfFYMJ-wc,"10963, Wilhelmstraße, 10963",52.5038943,13.3873775,1, Schicksaal-Tommyhaus,10963,OK,route,52.5038943,13.3873775
ROOFTOP,21027,"Weserstraße 9, 12047 Berlin, Germany",ChIJDWlTLrdPqEcRIWilFa6gHVo,"Weserstraße 9, 12047",52.4882094,13.4285893,1, Schillingbar,12047,OK,street_address,52.4882094,13.4285893
ROOFTOP,112222,"Saarbrücker Str. 23, 10405 Berlin, Germany",ChIJOXMaSB1OqEcRnl9CXsN20RU,Saarbrücker Straße 23 10405,52.53060139999999,13.4134281,1, Schlagwerk,10405,OK,street_address,52.53060139999999,13.4134281
ROOFTOP,137022,"Lohmühlenstraße 1, 12435 Berlin, Germany",ChIJja_9YlNOqEcRuxDlxOFU_Dg,"Lohmühlenstraße 1, 12435",52.49647,13.44864,1, Schlesischer Busch,12435,OK,street_address,52.49647,13.44864
ROOFTOP,143822,"Skalitzer Str. 135A, 10999 Berlin, Germany",ChIJTRKDYDNOqEcR2_TcTOWJQ_s,"Skalitzer Str. 135A, 10999",52.49936,13.41905,1, SchneidersLaden,10999,OK,street_address,52.49936,13.41905
ROOFTOP,6503,"Bernauer Str. 63, 13355 Berlin, Germany",ChIJxaD33_dRqEcRXqtize_Xagk,"Bernauer Str. 63, 13355",52.5419243,13.4018956,1, Schoenwetter,13355,OK,street_address,52.5419243,13.4018956
ROOFTOP,6503,"Bernauer Str. 63, 13355 Berlin, Germany",ChIJxaD33_dRqEcRXqtize_Xagk,"Bernauer Str. 63, 13355",52.5419243,13.4018956,1, Schoenwetter,13355,OK,street_address,52.5419243,13.4018956
ROOFTOP,34193,"Rollbergstraße 26, 12053 Berlin, Germany",ChIJ7yZZUqNPqEcRe3Ogtaad424,"Rollbergstraße 26, 12053",52.4795442,13.4329425,1, Schwuz,12053,OK,street_address,52.4795442,13.4329425
ROOFTOP,135944,"Columbiadamm 160, 10965 Berlin, Germany",ChIJhadej8BPqEcRKlV3PMRUoFs,"Columbiadamm 160, 10965",52.4797,13.41637,1, Scube Park Columbia,10965,OK,street_address,52.4797,13.41637
ROOFTOP,143982,"Gormannstraße 7, 10119 Berlin, Germany",ChIJWTEV2eNRqEcRrxK_lFKp-FU,"Gormannstraße 7, 10119",52.5270586,13.4046083,1, Seven Star Gallery,10119,OK,street_address,52.5270586,13.4046083
ROOFTOP,28975,"Sieversufer 22, 12359 Berlin, Germany",ChIJu92tu3pPqEcRbF_w69LUs50,"Sieversufer 22, 12359",52.46060199999999,13.4530862,1, Sieversufer 22,12359,OK,street_address,52.46060199999999,13.4530862
ROOFTOP,114471,"Gerichtstraße 35, 13347 Berlin, Germany",ChIJ_4cWH4dRqEcRsErX4RuEdkg,"Gerichtstraße 35, 13347",52.5450039,13.3665422,1, Silent Green Kulturquartier,13347,OK,street_address,52.5450039,13.3665422
ROOFTOP,140747,"Am Flutgraben 3, 12435 Berlin, Germany",ChIJ6ZQ3XTxPqEcR0tt9W9jwsmY,Am Flutgraben 3,52.4970977,13.4516979,1, Sinneslust-Oase,12435,OK,street_address,52.4970977,13.4516979
ROOFTOP,17118,"Hauptstraße 15, 10317 Berlin, Germany",ChIJwx7Ew95OqEcRyORk9R9VIxY,Hauptstrasse 15; Rummelsburg; 10317,52.4932172,13.4919033,1, Sisyphos,10317,OK,premise,52.4932172,13.4919033
ROOFTOP,147221,"Oranienstraße 142, 10969 Berlin, Germany",ChIJyzMqLCxOqEcR6FhOoGQwvQo,"Oranienstraße 142, 10969",52.5040188,13.4095659,1, Skyliveclub,10969,OK,street_address,52.5040188,13.4095659
ROOFTOP,84807,"Lehrter Str. 35, 10557 Berlin, Germany",ChIJ_UlhgZtRqEcRWfJQQbDFCQU,"Lehrter Str. 35, 10557",52.53425379999999,13.3593443,1, Slaughterhouse am Kulturfabrik Moabit,10557,OK,street_address,52.53425379999999,13.3593443
ROOFTOP,15179,"Oranienstraße 190, 10999 Berlin, Germany",ChIJG3xlXzROqEcRBFp2Cv9PSws,"Oranienstraße 190, 10999",52.50038439999999,13.4219941,1, So36,10999,OK,street_address,52.50038439999999,13.4219941
ROOFTOP,55558,"Knaackstraße 97, 10435 Berlin, Germany",ChIJkUpouP9RqEcRyhx26L9_1js,"KulturBrauerei, Knaackstraße 97, 10435",52.5393856,13.4137106,1, Soda Club,10435,OK,"establishment,point_of_interest",52.5393856,13.4137106
ROOFTOP,145124,"Torstraße 164, 10115 Berlin, Germany",ChIJgSEQ7uVRqEcR8yp6N97R6F8,"Torstr. 164, 10115",52.5288576,13.3959902,1, Sodom & Gomorra Ultra Lounge,10115,OK,premise,52.5288576,13.3959902
ROOFTOP,150445,"Augsburger Str. 41, 10789 Berlin, Germany",ChIJcVwt1f5QqEcRDbUDi_GPF0o,"Augsburger Straße 41, 10789",52.5024885,13.3318377,1, Sofitel Kurfürstendamm,10789,OK,premise,52.5024885,13.3318377
ROOFTOP,11809,"Stresemannstraße 76, 10963 Berlin, Germany",ChIJ2WSje81RqEcRHPYSzH3n4uc,"Stresemannstraße 76, 10963",52.50430799999999,13.383744,1, Solar,10963,OK,street_address,52.50430799999999,13.383744
ROOFTOP,156267,"Edisonstraße 63, 12459 Berlin, Germany",ChIJ8QnpA7dIqEcRhlzkQO0-4cs,"Edisonstr. 63, 12459",52.4623187,13.5136291,1, Sonnendeck Berlin,12459,OK,premise,52.4623187,13.5136291
ROOFTOP,131525,"Große Hamburger Str. 29-30, 10115 Berlin, Germany",ChIJrbyS5-ZRqEcR71AwwMPyz70,"Große Hamburger Straße 29-30, 10115",52.5253025,13.399192,1, Sophienkirche,10115,OK,street_address,52.5253025,13.399192
ROOFTOP,138508,"Revaler Str. 99, 10245 Berlin, Germany",ChIJsdkMp1lOqEcRq8YbzXSVlqI,"Revalerstr.99, 10245",52.5077221,13.4542457,1, Sound Kitchen Emma Pea,10245,OK,street_address,52.5077221,13.4542457
ROOFTOP,114070,"Reichenberger Str. 152, 10999 Berlin, Germany",ChIJ87hfSjVOqEcRjuvQJIACc88,"Reichenberger Str. 152, 10999",52.49742,13.4245647,1, Sound Metaphors,10999,OK,street_address,52.49742,13.4245647
ROOFTOP,152773,"Ziegrastraße 11, 12057 Berlin, Germany",ChIJH4zU5g1PqEcRT5yaMWF4hjY,"Ziegrastr. 11, 12057",52.4764363,13.459215,1, Sounds,12057,OK,street_address,52.4764363,13.459215
ROOFTOP,80194,"Zossener Str. 33, 10961 Berlin, Germany",ChIJ76-KjtdPqEcRc7fCpP00-eM,"Zossener Strasse 33, 10961",52.4904807,13.3945702,1, Spacehall Record Store,10961,OK,premise,52.4904807,13.3945702
ROOFTOP,68304,"Friedrich-Engels-Straße 22, 14473 Potsdam, Germany",ChIJ0U82y-31qEcRq6vq5eOrStI,"Friedrich-Engels-Straße 22, 14473 Potsdam",52.38937,13.07694,1, Spartacus Potsdam,14473,OK,street_address,52.38937,13.07694
ROOFTOP,110181,"Bürknerstraße 12, 12047 Berlin, Germany",ChIJo_NVEspPqEcR55W2aEhMjlk,Bürknerstraße 12 12047,52.4931978,13.4230399,1, Spektrum,12047,OK,street_address,52.4931978,13.4230399
ROOFTOP,3394,"Köpenicker Str. 16-17, 10997 Berlin, Germany",ChIJUR9LjUhOqEcRs6PoclGkkJc,"Köpenicker Str. 16-17, 10997",52.505555,13.435102,1, Spindler & Klatt,10997,OK,premise,52.505555,13.435102
ROOFTOP,152121,"Weichselstraße 38, 12045 Berlin, Germany",ChIJ87m1Oq5PqEcRdhN7DHEE4zI,"Weichselstraße 38, 12045",52.488431,13.438231,1, Sprachsalon Berlin,12045,OK,street_address,52.488431,13.438231
ROOFTOP,124506,"Wilhelmine-Gemberg-Weg 10, 10179 Berlin, Germany",ChIJ7e_uKTpOqEcRAKwBZFjoeq0,"Wilhelmine-Gemberg-Weg 10/12/14, 10179",52.51053289999999,13.4246814,1, Spreefeld Bootshaus,10179,OK,premise,52.51053289999999,13.4246814
ROOFTOP,104707,"Gubener Str. 41, 10243 Berlin, Germany",ChIJ90utoFxOqEcRfPUfc0W8Im0,"Gubener Straße 41, 10243",52.5107729,13.4496315,1, Spud Bencer,10243,OK,premise,52.5107729,13.4496315
ROOFTOP,117216,"Invalidenstraße 3, 10115 Berlin, Germany",ChIJHSYfAPBRqEcRj4xV9A1z1_c,Invalidenstr. 3 10115,52.5331265,13.3972492,1, St. Elisabeth Kirche,10115,OK,premise,52.5331265,13.3972492
ROOFTOP,159152,"Mariannenpl. 28, 10997 Berlin, Germany",ChIJx1xBrDdOqEcRPI1vDMep-ME,"Mariannenpl. 28, 10997",52.50546869999999,13.4268587,1, St. Thomas Kirche,10997,OK,street_address,52.50546869999999,13.4268587
ROOFTOP,22518,"Ritterstraße 26, 10969 Berlin, Germany",ChIJu8m_QyxOqEcRu_JZRCm9ec4,Ritterstrasse 26; Kreuzberg; 10969 Mitte,52.50291,13.40791,1, st.Georg,10969,OK,street_address,52.50291,13.40791
ROOFTOP,11753,"Krossener Str. 24, 10245 Berlin, Germany",ChIJXyJeL19OqEcRW6aZpMWeygU,Krossener Strasse 24; Friedrichshain; 10245,52.5101525,13.4603374,1, Stereo 33,10245,OK,street_address,52.5101525,13.4603374
ROOFTOP,155142,"An der Wuhlheide 197, 12459 Berlin, Germany",ChIJK7fkNI1IqEcRri5XBf4G_Cw,"An der Wuhlheide 197, 12459",52.46102,13.54962,1, Strandbad FEZ,12459,OK,street_address,52.46102,13.54962
ROOFTOP,19899,"Sportpromenade 9, 12527 Berlin, Germany",ChIJyY5nhnQ4qEcRSv3BCGXY8Sc,"Sportpromenade 9, 12527",52.4087255,13.6056755,1, Strandbad Grünau,12527,OK,street_address,52.4087255,13.6056755
ROOFTOP,34226,"Jungfernheideweg 60, 13629 Berlin, Germany",ChIJ70gbrrtWqEcRuWRjAzetEFw,"Jungfernheideweg 60, 13629",52.54378,13.27435,1, Strandbad Jungfernheide,13629,OK,street_address,52.54378,13.27435
ROOFTOP,121019,"Am Klostersee 13B, 14797 Kloster Lehnin, Germany",ChIJV8SDChqTqEcR-S-zt-qYQQQ,Am Klostersee 13b 14797 Kloster Lehnin,52.32850999999999,12.74631,1, Strandbad Lehnin,14797,OK,street_address,52.32850999999999,12.74631
APPROXIMATE,151589,"Alfred-Scholz-Platz, 12043 Berlin, Germany",ChIJlQSWiKNPqEcR1Je6Isn1RUg,Alfred-Scholz-Platz 12043 Neukölln,52.4793239,13.4374919,2, Strassen Bühne,12043,OK,,52.4793239,13.4374919
ROOFTOP,151186,"Brunnenstraße 183, 10119 Berlin, Germany",ChIJw2rYF-VRqEcRYekwyez6vh4,"Brunnenstrasse 183, 10119",52.5314612,13.3989984,1, Studio 183,10119,OK,premise,52.5314612,13.3989984
ROOFTOP,143430,"Uferstraße 8-11, 13357 Berlin, Germany",ChIJccyEDb9TqEcR4VBvdaaG524,"Studio dB - Uferstrasse 8-11, Studio A14 - 13357",52.5518203,13.374371,1, Studio dB,13357,OK,"establishment,night_club,point_of_interest",52.5518203,13.374371
ROOFTOP,104473,"Köpenicker Str. 55, 10179 Berlin, Germany",ChIJIRL6ajpOqEcRSmd66q-4YTI,"Köpenicker Str. 55, 10179",52.5097,13.42231,1, Studio r°,10179,OK,street_address,52.5097,13.42231
ROOFTOP,43297,"Admiralstraße 1-2, 10999 Berlin, Germany",ChIJwadaNTNOqEcRT6SwAstQw7Y,"Admiralstraße 1-2, 10999",52.498287,13.4168212,1, Südblock,10999,OK,street_address,52.498287,13.4168212
ROOFTOP,17071,"Revaler Str. 99, 10245 Berlin, Germany",ChIJsdkMp1lOqEcRq8YbzXSVlqI,Revaler Strasse 99; Friedrichshain; 10245,52.5077221,13.4542457,1, Suicide Circus,10245,OK,street_address,52.5077221,13.4542457
GEOMETRIC_CENTER,26014,"Jessnerstraße, 10247 Berlin, Germany",ChIJJybAg_ROqEcR5RPfo_fj4x8,"Jessnerstraße, 10247",52.511072,13.4717041,1, Supamolly,10247,OK,route,52.511072,13.4717041
ROOFTOP,11554,"Wühlischstraße 43, 10245 Berlin, Germany",ChIJk6eluVhOqEcRLmDO8mD8PYA,"Wühlischstraße 43, 10245",52.5086064,13.4610066,1, Süss War Gestern,10245,OK,street_address,52.5086064,13.4610066
ROOFTOP,150609,"Veteranenstraße 16, 10119 Berlin, Germany",ChIJbUtlI_tRqEcRYOSc4ujKjgE,"Veteranenstrasse 16, 10119 Deutschland",52.5335535,13.4022086,1, Suzie Mambo,10119,OK,premise,52.5335535,13.4022086
ROOFTOP,13913,"Schiffbauerdamm 11, 10117 Berlin, Germany",ChIJI8NDzcNRqEcRAQHLUW6_7pA,Schiffbauerdamm 11; Mitte; 10117,52.52088999999999,13.38459,1, Tausend,10117,OK,street_address,52.52088999999999,13.38459
ROOFTOP,18934,"Platz der Luftbrücke 5, 12101 Berlin, Germany",ChIJmzoVxehPqEcRB6YzEZWqGuM,Flughafen Tempelhof; Tempelhof; 12101,52.48244649999999,13.3892026,1, Tempelhof Airport,12101,OK,"establishment,point_of_interest",52.48244649999999,13.3892026
ROOFTOP,63458,"Möckernstraße 10, 10963 Berlin, Germany",ChIJWaWSpTJQqEcRu84KBTesmow,"Möckernstraße 10, 10963",52.50158390000001,13.3811564,1, Tempodrom,10963,OK,premise,52.50158390000001,13.3811564
ROOFTOP,152761,"Grolmanstraße 28, 10623 Berlin, Germany",ChIJu4vkl_xQqEcRd8H24Hog8R0,"Grolmanstrasse 28, 10623",52.5045219,13.3231664,1, Terzo Mondo,10623,OK,street_address,52.5045219,13.3231664
ROOFTOP,66322,"Teufelsseechaussee 10, 14193 Berlin, Germany",ChIJdStNO2pXqEcROUoHi3QuMOg,"Teufelseechaussee 10, Grunewald, 14193",52.4961334,13.2392013,1, Teufelsberg,14193,OK,street_address,52.4961334,13.2392013
ROOFTOP,104545,"Kleine Präsidentenstraße 4, 10178 Berlin, Germany",ChIJSx-jsuBRqEcRoORYgXDZSGE,"Kleine Präsidentenstraße 4, 10178",52.5226225,13.3999726,1, The Liberate,10178,OK,street_address,52.5226225,13.3999726
ROOFTOP,149981,"Danziger Str. 1, 10435 Berlin, Germany",ChIJHRwLdv9RqEcRGkNca7jEgpk,"Danziger Str. 1, 10435",52.5411559,13.4127789,1, Toast Hawaii,10435,OK,street_address,52.5411559,13.4127789
ROOFTOP,146986,"Möckernstraße 26, 10963 Berlin, Germany",ChIJxY8l4DFQqEcRTLPVTQ0gR7k,"Möckernstraße 26, 10963",52.49519180000001,13.377439,1, Tor Eins,10963,OK,street_address,52.49519180000001,13.377439
ROOFTOP,135694,"Treskowallee 129, 10318 Berlin, Germany",ChIJs2D2GtBIqEcRV1tV0XgWTts,"Treskowallee 129, 10318",52.4781929,13.5246451,1, Trabrennbahn Karlshorst,10318,OK,street_address,52.4781929,13.5246451
ROOFTOP,87128,"Alexanderstraße 7, 10178 Berlin, Germany",ChIJzUBDKBlOqEcRiZcv2MLSNQo,"Alexanderstr. 7, 10178",52.5230361,13.4166955,1, Traffic Club Berlin,10178,OK,street_address,52.5230361,13.4166955
ROOFTOP,12508,"Schlesische Str. 35A, 10997 Berlin, Germany",ChIJqYMTO1JOqEcR5ixNnM8qs_I,"Schlesische Straße 35 a, Kreuzberg",52.49961,13.44524,1, Transit Bar,10997,OK,street_address,52.49961,13.44524
ROOFTOP,157011,"Heidestraße 50, 10557 Berlin, Germany",ChIJPYgROJdRqEcRreA6YNh7l8g,"Heidestrasse 50, 10557",52.5303114,13.3670772,1, Trauma Bar und Kino,10557,OK,premise,52.5303114,13.3670772
ROOFTOP,156777,"Revaler Str. 99, 10245 Berlin, Germany",ChIJsdkMp1lOqEcRq8YbzXSVlqI,"Revaler Str. 99, 10245",52.5077221,13.4542457,1, Treehouse,10245,OK,street_address,52.5077221,13.4542457
GEOMETRIC_CENTER,18571,"Treptower Park, Alt-Treptow, 12435 Berlin, Germany",ChIJWVbXxhhPqEcR3OZE5GXI9I4,Treptower Park,52.4884599,13.4697445,2, Treptower Park,12435,OK,"establishment,park,point_of_interest",52.4884599,13.4697445
ROOFTOP,5494,"Köpenicker Str. 70, 10179 Berlin, Germany",ChIJ2RpH5TpOqEcRWK0z_M__z18,Köpenickerstrasse 70; Mitte; 10179,52.5110009,13.4195187,1, Tresor,10179,OK,premise,52.5110009,13.4195187
ROOFTOP,70817,"Wilhelmstraße 44, 10117 Berlin, Germany",ChIJu8AAvc9RqEcRrt-4rS51eVs,"Wilhelmstraße 44, 10117",52.51138,13.38392,1, Tschechisches Zentrum,10117,OK,street_address,52.51138,13.38392
ROOFTOP,93514,"Boddinstraße 57A, 12053 Berlin, Germany",ChIJu-gCX7tPqEcRfKsQ9PtZ6Ko,"Boddinstraße 57a, 12053",52.4804299,13.4315446,1, Twinpigs,12053,OK,street_address,52.4804299,13.4315446
ROOFTOP,121856,"Viktoriastraße 10-18, 12105 Berlin, Germany",ChIJhdT8HlRFqEcRA2rIxGLjdi0,"Viktoriastraße 10-18, 12105",52.4544783,13.381799,1, ufaFabrik - Internationales Kultur Centrum,12105,OK,street_address,52.4544783,13.381799
ROOFTOP,103395,"Fürbringerstraße 20A, 10961 Berlin, Germany",ChIJcV5p8tZPqEcRrBPN56AzDIY,"Fürbringerstrasse 20a, DE10961",52.493104,13.3979118,1, Unterrock Berlin,10961,OK,street_address,52.493104,13.3979118
ROOFTOP,136723,"Mehringdamm 32, 10961 Berlin, Germany",ChIJYUr6IilQqEcR4nrhX5xmkK4,"Mehringdamm 32, 10961",52.4938254,13.3879279,1, Untertage Berlin,10961,OK,street_address,52.4938254,13.3879279
ROOFTOP,68748,"Revaler Str. 99, 10245 Berlin, Germany",ChIJsdkMp1lOqEcRq8YbzXSVlqI,"Revaler Str. 99, 10245",52.5077221,13.4542457,1, Urban Spree,10245,OK,street_address,52.5077221,13.4542457
ROOFTOP,2629,"Paul-Heyse-Straße 26, 10407 Berlin, Germany",ChIJQyMZ33NOqEcRnZhf1WMm4hM,"Paul-Heyse-Straße 26, 10407",52.530817,13.450184,1, Velodrom Berlin,10407,OK,street_address,52.530817,13.450184
GEOMETRIC_CENTER,129980,"Herzbergstraße, Berlin, Germany",ChIJIWw-kptOqEcR6L814FBQEbA,"Herzbergstrasse, 10365",52.5265268,13.4926147,1, Velvet Monkeys - Club Berlin,,OK,route,52.5265268,13.4926147
ROOFTOP,144604,"Fehmarner Str. 4, 13353 Berlin, Germany",ChIJI8rZl3lRqEcRc6iSl2agSUQ,"Fehmarner Straße 4, 13353",52.54057,13.3487101,1, Venus des Westens,13353,OK,street_address,52.54057,13.3487101
GEOMETRIC_CENTER,156872,"Mercedes Platz, 10243 Berlin, Germany",ChIJvzZlpTxOqEcR4gXqLVxcuv4,"Verti Music Hall, Mercedes-Platz 1, 10243",52.5051145,13.4433182,1, Verti Music Hall,10243,OK,"establishment,point_of_interest",52.5051145,13.4433182
ROOFTOP,155861,"Scheffelstraße 21, 10367 Berlin, Germany",ChIJzXKqcolOqEcRlgJaAK-Zx2s,"Scheffelstraße 21, 10367",52.5201536,13.473208,1, Villa Kuriosum,10367,OK,street_address,52.5201536,13.473208
ROOFTOP,144145,"Müllerstraße 55, 13349 Berlin, Germany",ChIJr0Wxa9dTqEcRrFDK_faEJhg,Müllerstrasse 55,52.5535899,13.3470586,1, Vodoo55,13349,OK,street_address,52.5535899,13.3470586
ROOFTOP,106495,"Wiesenweg 5, 10365 Berlin, Germany",ChIJG90S8_FOqEcRcLK4spARRwA,"Wiesenweg 5, 10365",52.5076153,13.4757216,1, Void Club,10365,OK,street_address,52.5076153,13.4757216
GEOMETRIC_CENTER,8701,"Rosa-Luxemburg-Platz, 10178 Berlin, Germany",ChIJe6Vo3R1OqEcRxo0PyQzHMeI,"Rosa-Luxemburg-Platz, 10178",52.5266977,13.4113305,1, Volksbühne,10178,OK,route,52.5266977,13.4113305
GEOMETRIC_CENTER,66201,"Volkspark Friedrichshain, 10249 Berlin, Germany",ChIJ_S5uaxJOqEcRdg-gu1fEgcI,Volkspark Friedrichshain,52.5280353,13.4363934,1, Volkspark Friedrichshain,10249,OK,"establishment,park,point_of_interest",52.5280353,13.4363934
GEOMETRIC_CENTER,18678,"Hasenheide, 10967 Berlin, Germany",EiFIYXNlbmhlaWRlLCAxMDk2NyBCZXJsaW4sIEdlcm1hbnkiSCpGChQKEgkLCUecyE-oRxE-cOBb55adxRIUChIJX_eNMslPqEcRANQ9lUkgIRwaGAoKDdrFSB8V0Nr9BxIKDZwzSR8VVGMACA,Hasenheide; Kreuzberg; 10967,52.4878886,13.4160823,1, Volkspark Hasenheide,10967,OK,route,52.4878886,13.4160823
ROOFTOP,146673,"Müllerstraße 55, 13349 Berlin, Germany",ChIJr0Wxa9dTqEcRrFDK_faEJhg,"Müllerstraße 55, 13349",52.5535899,13.3470586,1, Voodoo55,13349,OK,street_address,52.5535899,13.3470586
ROOFTOP,156723,"Max-Brauer-Allee 204, 22769 Hamburg, Germany",ChIJyVq1Yl2PsUcRpsMStQnrTxg,Max-Brauer-Allee 204,53.5615325,9.9557332,1, Waagenbau,22769,OK,street_address,53.5615325,9.9557332
ROOFTOP,51522,"Danziger Str. 101, 10405 Berlin, Germany",ChIJ0TpHfghOqEcRK2cwTG2DKbA,"Danziger Str. 101, 10405",52.537467,13.4307639,1, Wabe,10405,OK,street_address,52.537467,13.4307639
GEOMETRIC_CENTER,151737,"Hauptstraße, 95709 Tröstau, Germany",ChIJJ-eMYK6roUcR90nh0UvbjdE,"Hauptstraße, 95709 Tröstau",50.0155633,11.9464464,1, Waldbad Tröstau,95709,OK,route,50.0155633,11.9464464
ROOFTOP,59581,"Wrangelstraße 83, 10997 Berlin, Germany",ChIJtZyxiE1OqEcRc6Xor4a6w2A,"Wrangelstraße 83, 10997",52.4987934,13.4418563,1, Walther Bar,10997,OK,premise,52.4987934,13.4418563
ROOFTOP,60753,"Sonnenallee 27, 12047 Berlin, Germany",ChIJa6H_r7BPqEcRgS4xCsYNU7g,"Sonnenallee 27, 12047",52.486573,13.4295323,1, Warschau,12047,OK,premise,52.486573,13.4295323
ROOFTOP,127375,"Schiffbauergasse 4, 14467 Potsdam, Germany",ChIJc4-LueD1qEcRmkykYR7kw_M,"Schiffbauergasse 4, 14467 Potsdam",52.4025105,13.0731726,1, Waschhaus,14467,OK,street_address,52.4025105,13.0731726
ROOFTOP,3213,"Falckensteinstraße 49, 10997 Berlin, Germany",ChIJK68FjVFOqEcRuXy-g00QYzQ,Falckensteinstrasse 49; Kreuzberg; 10997,52.501026,13.445226,1, Watergate,10997,OK,street_address,52.501026,13.445226
ROOFTOP,21186,"Hallesches Ufer 32, 10963 Berlin, Germany",ChIJ8UKriixQqEcRLGaGyWPuqxo,Hallesches Ufer 32; Kreuzberg; 10693,52.499064,13.386289,1, WAU (Wirtshaus Am Ufer),10963,OK,premise,52.499064,13.386289
APPROXIMATE,97533,"13189 Berlin, Germany",ChIJryM4lHNSqEcR4PQ_lUkgIRw,"er Str., 13189",52.5600917,13.4222482,1, Wbb Willner Brauerei,13189,OK,postal_code,52.5600917,13.4222482
ROOFTOP,3067,"Alexanderstraße 7, 10178 Berlin, Germany",ChIJzUBDKBlOqEcRiZcv2MLSNQo,Alexanderstrasse 7; Mitte; 10178,52.5230361,13.4166955,1, Weekend,10178,OK,street_address,52.5230361,13.4166955
ROOFTOP,17924,"Schlesische Str. 42, 10997 Berlin, Germany",ChIJESZQAFJOqEcR8_j_5jN2rNs,Schlesische Strasse 42; Kreuzberg; 10997,52.500543,13.443569,1, Wendel,10997,OK,street_address,52.500543,13.443569
ROOFTOP,60330,"Emser Str. 124, 12051 Berlin, Germany",ChIJN9SMqJ5PqEcRykXLQ-KoPow,"Emser Str. 124, 12051",52.4690073,13.4360672,1, Werkstadt Kulturverein,12051,OK,street_address,52.4690073,13.4360672
ROOFTOP,21423,"Skalitzer Str. 133, 10999 Berlin, Germany",ChIJTUibXzNOqEcRUnvXhWai0wg,Skalitzer Strasse 133; Kreuzberg; 10999,52.499294,13.419727,1, West Germany,10999,OK,street_address,52.499294,13.419727
ROOFTOP,119767,"Wiener Straße 20, 10999 Berlin, Germany",ChIJ5xsyJUtOqEcRpCFN7LcBETM,"Wiener Straße 20, 10999",52.4975324,13.4310199,1, Wild At Heart,10999,OK,street_address,52.4975324,13.4310199
ROOFTOP,149771,"Spreewaldpl. 5, 10999 Berlin, Germany",ChIJXeyMD0tOqEcRA8Q3-xxJDaE,"Spreewaldplatz 5, 10999",52.4986816,13.431612,1, Wildeküche,10999,OK,premise,52.4986816,13.431612
ROOFTOP,149588,"Wildenbruchstraße 68, 12045 Berlin, Germany",ChIJU2j23ahPqEcRbSJcAlSZDCk,"Wildenbruchstrasse 68 (Ecke Harzerstraße), 12045 Neukölln",52.486379,13.44612,1, Wildenbruch Bar,12045,OK,street_address,52.486379,13.44612
ROOFTOP,150697,"Landsberger Allee 268, 10367 Berlin, Germany",ChIJDQ_ngCdMqEcRi_MNCFkMOKk,"Landsberger Allee 268, 10367",52.532953,13.4937347,1, Windobona Indoor Skydiving Berlin,10367,OK,street_address,52.532953,13.4937347
GEOMETRIC_CENTER,82173,"Wittenbergpl., 10789 Berlin, Germany",ChIJDd5oBlRQqEcRwK27kxOsiU4,"Wittenbergplatz, 10789",52.501638,13.3426468,1, Wittenbergplatz,10789,OK,route,52.501638,13.3426468
ROOFTOP,123746,"Prinzenstraße 1, 10969 Berlin, Germany",ChIJPfXUjNJPqEcRnjmFjb1eXEs,"Prinzenstraße 1, 10969",52.49698,13.40851,1, Wonder Ballroom,10969,OK,street_address,52.49698,13.40851
ROOFTOP,47644,"Skalitzer Str. 67, 10997 Berlin, Germany",ChIJYdO5zk1OqEcRq5BGZGUbtw4,Skalitzerstrasse.67 - 10997,52.50007,13.43963,1, X-Lab,10997,OK,street_address,52.50007,13.43963
ROOFTOP,93297,"An der Schillingbrücke 3, 10243 Berlin, Germany",ChIJJWdfRDhOqEcRaImccyUdyv8,"An der Schillingbrücke 3, 10243",52.5092548,13.4305315,1, Yaam,10243,OK,street_address,52.5092548,13.4305315
ROOFTOP,8822,"Prenzlauer Allee 80, 10405 Berlin, Germany",ChIJcXMpM_xNqEcRfr_uheSTOE8,Prenzlauer Allee 80; Prenzlauer Berg; 10405,52.54294,13.42784,1, Zeiss Grossplanetarium,10405,OK,street_address,52.54294,13.42784
ROOFTOP,158589,"Ziegrastraße 11, 12057 Berlin, Germany",ChIJH4zU5g1PqEcRT5yaMWF4hjY,"Ziegrastraße 11, 12057",52.4764363,13.459215,1, Ziegrastraße 11,12057,OK,street_address,52.4764363,13.459215
ROOFTOP,157913,"Ziegrastraße 13, 12057 Berlin, Germany",ChIJf25lxA1PqEcRwruxHJTSt_s,"Ziegrastraße 13, 12057",52.476398,13.4596611,1, Ziegrastraße 13,12057,OK,street_address,52.476398,13.4596611
ROOFTOP,58535,"Ziegrastraße 15, 12057 Berlin, Germany",ChIJ_0bPwQ1PqEcRHSDvFIKsrfI,"Ziegrastraße 15, 12057",52.4762688,13.4591095,1, Ziegrastraße 15,12057,OK,street_address,52.4762688,13.4591095
ROOFTOP,95798,"Siemensstraße 27, 10551 Berlin, Germany",ChIJM0fIUWxRqEcRqWLX_-Qybvk,"Siemensstraße 27, 10551",52.533799,13.336468,1, ZK/U (Zentrum für Kunst und Urbanistik),10551,OK,street_address,52.533799,13.336468
ROOFTOP,27908,"Lychener Str. 15, 10437 Berlin, Germany",ChIJFRRRIABSqEcRTSUXE2iGyNg,"Lychener Str. 15, 10437",52.542096,13.4150192,1, Zu Mir Oder Zu Dir,10437,OK,premise,52.542096,13.4150192
ROOFTOP,137711,"Markgrafendamm 24c, 10245 Berlin, Germany",ChIJE3PM7_lOqEcRx7NIgXOdQVA,"Markgrafendamm 24c, 10245",52.50255900000001,13.4663169,1, Zuckerzauber,10245,OK,street_address,52.50255900000001,13.4663169
ROOFTOP,78165,"Laskerstraße 5, 10245 Berlin, Germany",ChIJEQTch_lOqEcRNPwRrr9mxhA,"Laskerstraße 5, 10245",52.50130000000001,13.4666,1, Zukunft am Ostkreuz,10245,OK,street_address,52.50130000000001,13.4666
ROOFTOP,146817,"Türrschmidtstraße 36, 10317 Berlin, Germany",ChIJx8W7E-9OqEcRI69TodDElKw,"Türrschmidtstrasse 36, 10317",52.50332,13.48066,1, Zum Alten Rathaus Berlin,10317,OK,street_address,52.50332,13.48066
ROOFTOP,99790,"Sanderstraße 11, 12047 Berlin, Germany",ChIJm6SQ3LVPqEcRmJnmJS-aYls,"Sanderstraße 11, 12047",52.4923839,13.4261443,1, Zum Böhmischen Dorf,12047,OK,street_address,52.4923839,13.4261443
ROOFTOP,147082,"Yorckstraße 56a, 10965 Berlin, Germany",ChIJkWkxdDpQqEcRRaqyx6bqwC4,"Yorckstraße 56A, 10965 Deutschland",52.492366,13.371824,1, Zum Umsteiger,10965,OK,street_address,52.492366,13.371824
ROOFTOP,61296,"Schlesische Str. 16, 10997 Berlin, Germany",ChIJkW4pNlJOqEcRh2ZMu2NVBgM,"Schlesische Str. 16, 10997",52.4990152,13.4455698,1, Zur Fetten Ecke,10997,OK,street_address,52.4990152,13.4455698
GEOMETRIC_CENTER,146008,"Yorckstraße, 10965 Berlin, Germany",EiNZb3Jja3N0cmHDn2UsIDEwOTY1IEJlcmxpbiwgR2VybWFueSJIKkYKFAoSCaXrwOIvUKhHERtZIQiUCw8uEhQKEgktZWYV2U-oRxHw4z2VSSAhHBoYCgoNGpBJHxV4vPcHEgoNP-tJHxVy0voH,"Yorckstrasse 0, 10965",52.4922289,13.3784711,1, Zur Klappe,10965,OK,route,52.4922289,13.3784711
ROOFTOP,118967,"Gitschiner Str. 20, 10969 Berlin, Germany",ChIJcQTRntRPqEcRRcr9xYEbpiw,"Gitschiner Str. 20, 10969",52.49824750000001,13.4036207,1, Zwei Drei Raum,10969,OK,street_address,52.49824750000001,13.4036207
ROOFTOP,28354,"Markgrafendamm 24c, 10245 Berlin, Germany",ChIJE3PM7_lOqEcRx7NIgXOdQVA,Markgrafendamm 24c; Friedrichshain; 10245,52.50255900000001,13.4663169,1, ://about blank,10245,OK,street_address,52.50255900000001,13.4663169
ROOFTOP,142467,"Skalitzer Str. 41, 10997 Berlin, Germany",ChIJxRLajEpOqEcRgSuyC2cQILo,"Skalitzer Strasse 41, 10997",52.4990937,13.4288184,1, :Vorwien,10997,OK,street_address,52.4990937,13.4288184
ROOFTOP,45446,"Frankfurter Allee 187, 10365 Berlin, Germany",ChIJGdvwWJNOqEcR9jTzPww1EOg,"187 Frankfurter Allee, Friedrichshain, 10247",52.5126711,13.4877049,1, [F.U.C] Ministerium,10365,OK,premise,52.5126711,13.4877049
ROOFTOP,90981,"Vor dem Schlesischen Tor 2, 10997 Berlin, Germany",ChIJeUvOfVROqEcR3sMDhUfpjBU,Vor dem Schlesischen Tor 2a; Kreuzberg; 10997,52.4973043,13.4501604,1, [ipsə],10997,OK,street_address,52.4973043,13.4501604
ROOFTOP,136975,"Alt-Stralau 1, 10245 Berlin, Germany",ChIJIZI7HPxOqEcRTfbLQ0t63Tw,"Alt-Stralau 1, 10245",52.49715,13.46502,1, 1 Stralau,10245,OK,street_address,52.49715,13.46502
ROOFTOP,138531,"Altenbraker Str. 3, 12053 Berlin, Germany",ChIJpTcRrZlPqEcRfSfwKQLxefU,"Altenbraker strasse 3, 12053, Berlín",52.47193559999999,13.4320904,1, 19:28 Tattoo Club,12053,OK,premise,52.47193559999999,13.4320904
ROOFTOP,41940,"nhow Berlin, Stralauer Allee 3, 10245 Berlin, Germany",ChIJQUmQNVFOqEcRzqNBfDUFdBs,"Stralauer Allee 3, 10245",52.50119189999999,13.4508457,1, 1st Floor,10245,OK,premise,52.50119189999999,13.4508457
ROOFTOP,141849,"Alt-Stralau 1, 10245 Berlin, Germany",ChIJIZI7HPxOqEcRTfbLQ0t63Tw,Alt Stralau 1,52.49715,13.46502,1, 1stralau,10245,OK,street_address,52.49715,13.46502
ROOFTOP,144924,"Budapester Str. 40, 10787 Berlin, Germany",ChIJ-RAVYVVQqEcR7BN7HG1zkwk,"Budapester Straße 40, 10787",52.50561949999999,13.3379602,1," 25hours Hotel Bikini Berlin, 3. Etage",10787,OK,street_address,52.50561949999999,13.3379602
GEOMETRIC_CENTER,88929,"Waldemarstraße, 10997 Berlin, Germany",EiZXYWxkZW1hcnN0cmHDn2UsIDEwOTk3IEJlcmxpbiwgR2VybWFueSJIKkYKFAoSCc32ZBw0TqhHEbttNOJgYIQFEhQKEgmnTxmqTk6oRxGQ0z2VSSAhHBoYCgoNjfZKHxUci_8HEgoNEnFLHxXXNgEI,"Waldemarstraße, 10997",52.5022904,13.4241162,1, 60 Hz,10997,OK,route,52.5022904,13.4241162
ROOFTOP,153709,"Budapester Str. 38, 10787 Berlin, Germany",ChIJO2UEZVVQqEcRs6YRTG4XSoc,"Budapester Straße 38-40, 10787",52.505429,13.3382338,1, 808 Berlin,10787,OK,street_address,52.505429,13.3382338
ROOFTOP,154724,"Alexanderstraße 7, 10178 Berlin, Germany",ChIJzUBDKBlOqEcRiZcv2MLSNQo,"Alexanderstr. 7, 10178 -Mitte",52.5230361,13.4166955,1, A Seven,10178,OK,street_address,52.5230361,13.4166955
ROOFTOP,111027,"Veteranenstraße 21, 10119 Berlin, Germany",ChIJbZnT2_pRqEcRmGbapIsAjV4,Veteranenstraße 21,52.533432,13.4009334,1, Acud Macht NEU,10119,OK,street_address,52.533432,13.4009334
ROOFTOP,113971,"Pannierstraße 56, 12047 Berlin, Germany",ChIJPU_BwLBPqEcRKDWSulyeXdE,Pannierstrasse 56 12047,52.4872162,13.4305756,1, AETHER:bar,12047,OK,premise,52.4872162,13.4305756
GEOMETRIC_CENTER,17860,"10178 Berlin, Germany",ChIJbygR2x5OqEcRbhbkZsMB_DA,"Alexanderplatz, 10178",52.5219184,13.4132147,1, Alexanderplatz,10178,OK,"establishment,point_of_interest",52.5219184,13.4132147
ROOFTOP,150129,"An der Wuhlheide 256, 12555 Berlin, Germany",ChIJs9gooGFIqEcRzy1X0C_bLAw,"An der Wuhlheide 256, 12555",52.45544,13.56379,1, All Club,12555,OK,street_address,52.45544,13.56379
ROOFTOP,23260,"Molkenmarkt 2, 10179 Berlin, Germany",ChIJmzReJSFOqEcR0L2bMybiyCM,Molkenmarkt 2; Mitte; 10179,52.5161129,13.4091198,1, Alte Münze,10179,OK,street_address,52.5161129,13.4091198
ROOFTOP,109845,"Richardstraße 31-32, 12043 Berlin, Germany",ChIJO63UUaBPqEcRwyS4-gD7y3Q,"Richardstraße 31-32, 12043",52.47555,13.4431099,1, Alter Roter Löwe Rein,12043,OK,street_address,52.47555,13.4431099
ROOFTOP,89613,"Auguststraße 43, 10119 Berlin, Germany",ChIJmQ8X9eNRqEcRfNDEqG3-OQI,"Auguststraße 43, 10119",52.5282414,13.4028234,1, Amano,10119,OK,premise,52.5282414,13.4028234
ROOFTOP,142637,"Heidestraße 62, 10557 Berlin, Germany",ChIJifkdY5ZRqEcRf9PgCWuL8P0,"Heidestraße 62, 10557",52.5278532,13.370368,1, Amano Grand Central,10557,OK,street_address,52.5278532,13.370368
ROOFTOP,56988,"Kastanienallee 103, 10435 Berlin, Germany",ChIJ48E6G_9RqEcRnJ4yA-iGxuQ,"Kastanienallee 103, 10435",52.5400404,13.4116738,1, An Einem Sonntag Im August,10435,OK,street_address,52.5400404,13.4116738
ROOFTOP,84382,"Gerichtstraße 23, 13347 Berlin, Germany",ChIJGwOte4hRqEcRt65DQT5lWYs,"Gerichtstraße 23, 13347",52.5445587,13.372549,1, Anita Berber,13347,OK,premise,52.5445587,13.372549
ROOFTOP,121816,"Storkower Str. 123, 10407 Berlin, Germany",ChIJG13qeXZOqEcRhAuM5lyTwUI,"Storkower Str. 123, 10407",52.5353532,13.453061,1, Anomalie Art Club,10407,OK,premise,52.5353532,13.453061
ROOFTOP,144555,"Kurfürstenstraße 97, 12105 Berlin, Germany",ChIJBXE2OE1FqEcRej4Ri-O8Jn0,"Kurfürstenstraße 97, 12105 -Mariendorf",52.44765,13.3717401,1, Apartment A,12105,OK,street_address,52.44765,13.3717401
ROOFTOP,129944,"Heidestraße 62, 10557 Berlin, Germany",ChIJifkdY5ZRqEcRf9PgCWuL8P0,"Heidestraße 62, 10557",52.5278532,13.370368,1, Apartment Bar,10557,OK,street_address,52.5278532,13.370368
ROOFTOP,149142,"Leipziger Str. 60, 14473 Potsdam, Germany",ChIJeTYu78D1qEcRI8n1MpejJTY,"Leipziger Straße 60, 14473 Potsdam",52.3888481,13.0597659,1, Archiv Potsdam,14473,OK,street_address,52.3888481,13.0597659
ROOFTOP,5828,"Eichenstraße 4, 12435 Berlin, Germany",ChIJoT4CElVOqEcRHxVOOvof1S4,Eichenstrasse 4; Treptow; 12435,52.4966473,13.4530078,1, Arena Club,12435,OK,street_address,52.4966473,13.4530078
ROOFTOP,145577,"Karl-Marx-Platz 16, 12043 Berlin, Germany",ChIJdT1vJqBPqEcR9DgmQl5aiwk,Karl-Marx Platz 16 12043,52.4738267,13.4426702,1, arkaoda Berlin,12043,OK,street_address,52.4738267,13.4426702
ROOFTOP,137621,"Alexanderstraße 7, 10178 Berlin, Germany",ChIJzUBDKBlOqEcRiZcv2MLSNQo,"Alexanderstrasse 7, 10178",52.5230361,13.4166955,1, Aseven,10178,OK,street_address,52.5230361,13.4166955
ROOFTOP,16793,"Revaler Str. 99, 10245 Berlin, Germany",ChIJsdkMp1lOqEcRq8YbzXSVlqI,Revaler Strasse 99; Friedrichshain; 10245,52.5077221,13.4542457,1, Astra Kulturhaus,10245,OK,street_address,52.5077221,13.4542457
ROOFTOP,17243,"Prinzenstraße 85d/OG 3, 10969 Berlin, Germany",Ei9PRyAzLCBQcmluemVuc3RyYcOfZSA4NWQsIDEwOTY5IEJlcmxpbiwgR2VybWFueSIgGh4KFgoUChIJkXT2si1OqEcRIXN-COyO6BESBE9HIDM,Prinzenstraße 85 D 1 (OG 3) 10969,52.502686,13.4095928,1, Aufbau Haus,10969,OK,subpremise,52.502686,13.4095928
ROOFTOP,21511,"Lychener Str. 60, 10437 Berlin, Germany",ChIJkTeSb_9NqEcRMU_mB9-iPYY,Lychener Strasse 60; Prenzlauer Berg; 10437,52.54484120000001,13.4197262,1, Ausland,10437,OK,street_address,52.54484120000001,13.4197262
ROOFTOP,85008,"Pücklerstraße 34, 10997 Berlin, Germany",ChIJ3zU6jElOqEcRg3E-mYrQPhc,"Pücklerstraße 34, 10997",52.50242739999999,13.4311086,1, Auster Club,10997,OK,street_address,52.50242739999999,13.4311086
ROOFTOP,157095,"Gehrenseestraße 42a, 13053 Berlin, Germany",ChIJxzB9MGxMqEcRcR57yRpaxMg,"Gehrenseestraße 42A, 13053",52.5551771,13.5275198,1, Autoverwertung Berk Gmbh,13053,OK,premise,52.5551771,13.5275198
ROOFTOP,71065,"Carmerstraße 12, 10623 Berlin, Germany",ChIJYytHPP1QqEcRdCFlJlknSYo,"Carmerstraße 12, 10623",52.50708299999999,13.3242218,1, AV Hütte,10623,OK,street_address,52.50708299999999,13.3242218
ROOFTOP,73618,"Warschauer Pl. 18, 10245 Berlin, Germany",ChIJrQotU1BOqEcR5bLN2_6M4eY,"Warschauer Pl. 18, 10245",52.502892,13.4475138,1, AVA Club,10245,OK,premise,52.502892,13.4475138
ROOFTOP,55843,"Revaler Str. 99, 10245 Berlin, Germany",ChIJsdkMp1lOqEcRq8YbzXSVlqI,Revalerstrasse 99; Friedrichshain; 10245,52.5077221,13.4542457,1, Badehaus Berlin,10245,OK,street_address,52.5077221,13.4542457
ROOFTOP,11355,"Eichenstraße 4, 12435 Berlin, Germany",ChIJoT4CElVOqEcRHxVOOvof1S4,Eichenstrasse 4; Treptow; 12435,52.4966473,13.4530078,1, Badeschiff,12435,OK,street_address,52.4966473,13.4530078
ROOFTOP,90875,"Kottbusser Damm 76, 10967 Berlin, Germany",ChIJH7ksGLZPqEcRz6hmhDVq7oA,"Kottbusser Damm 76, 10967",52.4907727,13.4238637,1, Ballhaus Rixdorf,10967,OK,street_address,52.4907727,13.4238637
ROOFTOP,51255,"Falckensteinstraße 1, 10997 Berlin, Germany",ChIJcRtRHVJOqEcRvs_pTwvoXww,"Falckensteinstraße 1-2, 10997",52.500496,13.444133,1, Banja Luka,10997,OK,street_address,52.500496,13.444133
ROOFTOP,152439,"Schönhauser Allee 36-39, 10435 Berlin, Germany",ChIJgSHqQ_5RqEcR_wusuJS-XW4,"Schönhauser allee 36-39, 10435",52.5383033,13.4127523,1, Bar 21,10435,OK,premise,52.5383033,13.4127523
ROOFTOP,124146,"Karl-Marx-Allee 36, 10178 Berlin, Germany",ChIJofjJ4BdOqEcR0Itjfc343DM,"Karl-Marx-Allee 36, 10178",52.51953,13.42338,1, Bar Babette,10178,OK,street_address,52.51953,13.42338
ROOFTOP,123412,"Müggelstraße 9, 10247 Berlin, Germany",ChIJGySslfROqEcRtoJvYwHi3nM,"Müggelstraße 9, 10247",52.5120029,13.4707601,1, Bar Bobu,10247,OK,street_address,52.5120029,13.4707601
ROOFTOP,143374,"Mariannenstraße 29, 10999 Berlin, Germany",ChIJD12oO8tPqEcRB25YnPCEVq8,"Mariannenstraße 29, 10999",52.49692,13.420766,1, Bar In A Jar,10999,OK,premise,52.49692,13.420766
ROOFTOP,98358,"Czeminskistraße 10, 10829 Berlin, Germany",ChIJw9LFLDlQqEcRErvtpBTHq9I,"Czeminskistraße 10, 10829",52.4880765,13.36415,1, Barkett,10829,OK,premise,52.4880765,13.36415
ROOFTOP,150761,"Schleiermacherstraße 18, 10961 Berlin, Germany",ChIJLfStF9dPqEcR4yrd9ZP04OA,"Schleiermacherstraße 18, 10961 Deutschland",52.4914596,13.3978259,1, Basement of the Pandora Art Gallery,10961,OK,premise,52.4914596,13.3978259
ROOFTOP,145173,"Forster Str. 46, 10999 Berlin, Germany",ChIJ04JuY7NPqEcRsMqneJlCYEk,Forster Strasse 46 10999,52.49448,13.4327999,1, The Basement Records,10999,OK,street_address,52.49448,13.4327999
ROOFTOP,16629,"Schönhauser Allee 176A, 10119 Berlin, Germany",ChIJV1QbVP1RqEcRJ5KqIAep-es,"Schönhauser Allee 176A, 10119",52.531517,13.4117905,1, Bassy,10119,OK,street_address,52.531517,13.4117905
GEOMETRIC_CENTER,146931,"Schinkelpl., 10117 Berlin, Germany",ChIJucYSpd5RqEcR3-I5FkgBY3g,Schinkelplatz 10117,52.5165967,13.3983836,1, Bauakademie,10117,OK,route,52.5165967,13.3983836
ROOFTOP,143180,"Falckensteinstraße 47, 10997 Berlin, Germany",ChIJc7s_9FFOqEcRfEzd3bcwcvc,"Falckensteinstraße 47, 10997",52.5006966,13.4447841,1, Baumhaus Bar,10997,OK,street_address,52.5006966,13.4447841
ROOFTOP,98993,"Schillingstraße 31, 10179 Berlin, Germany",ChIJGQyj2yJOqEcRiXTjCnANyRk,"Schillingstr. 31, 10179",52.5174427,13.4190838,1, Beate Uwe,10179,OK,street_address,52.5174427,13.4190838
RANGE_INTERPOLATED,5031,"Am Wriezener Bahnhof 70, 10243 Berlin, Germany",Ei5BbSBXcmllemVuZXIgQmFobmhvZiA3MCwgMTAyNDMgQmVybGluLCBHZXJtYW55IhoSGAoUChIJGfXprEZOqEcRrLJpuzi-6ioQRg,70 Am Wriezener Bahnhof; Friedrichshain; 10243,52.5116457,13.4404548,1, Berghain | Panorama Bar | Säule,10243,OK,street_address,52.5116457,13.4404548
ROOFTOP,148196,"Mengerzeile 14, 12435 Berlin, Germany",ChIJ0z2r6q5PqEcRhZdg0VcDR5Y,"Mengerzeile 14, 12435",52.488336,13.4428336,1, Berliner Vinylwerk,12435,OK,street_address,52.488336,13.4428336
ROOFTOP,21776,"Prinzessinnenstraße 19, 10969 Berlin, Germany",ChIJR3SNjS1OqEcRhiQPXpQ28hU,"Prinzessinnenstraße 19-20, 10969",52.5023728,13.4119609,1, Betahaus,10969,OK,street_address,52.5023728,13.4119609
GEOMETRIC_CENTER,58532,"U-Bahnhof Schlesisches Tor, 10997 Berlin, Germany",ChIJx-KTCk5OqEcRed3d5Z0uW1A,Im U-Bhf. Schlesisches Tor; 10997,52.500711,13.441273,2, Bi Nuu,10997,OK,"establishment,night_club,point_of_interest",52.500711,13.441273
ROOFTOP,104289,"Schleusenufer 3, 10997 Berlin, Germany",ChIJ80-meVROqEcRtzuQZMC6bNI,"Schleusenufer 3, 10997",52.49768479999999,13.4498045,1, Birgit,10997,OK,premise,52.49768479999999,13.4498045
ROOFTOP,82455,"Silvio-Meier-Straße 8, 10247 Berlin, Germany",ChIJ9R47RGBOqEcRDmwbpMkRh1A,"Silvio-Meier-Str. 8, 10247 Friedrichshain",52.51634,13.46397,1, Bitte & Danke,10247,OK,street_address,52.51634,13.46397
ROOFTOP,30250,"Kaskelstraße 55, 10317 Berlin, Germany",ChIJzbs6z-5OqEcR8Z3p7RQEcDE,Kaskelstrasse 55; ; 10317,52.5050734,13.4837782,1, BLO-Ateliers,10317,OK,street_address,52.5050734,13.4837782
GEOMETRIC_CENTER,136060,"May-Ayim-Ufer, 10997 Berlin, Germany",ChIJN3QNGE5OqEcRR7_2_HTLdn0,May Ayim Ufer,52.5020576,13.4428975,1, Boat - MS Rhein,10997,OK,route,52.5020576,13.4428975
ROOFTOP,13344,"Reichenberger Str. 153, 10999 Berlin, Germany",ChIJ54BjSjVOqEcRFrtHn8BQwj4,"Reichenberger Str. 153, 10999",52.4975806,13.4242358,1, Bohnengold,10999,OK,premise,52.4975806,13.4242358
RANGE_INTERPOLATED,149865,"Falckensteinstraße 19, 10997 Berlin, Germany",Ei1GYWxja2Vuc3RlaW5zdHJhw59lIDE5LCAxMDk5NyBCZXJsaW4sIEdlcm1hbnkiGhIYChQKEgmBv8N8TU6oRxFBfhtHekDI_hAT,"Falckensteinstraße 19, 10997",52.4973171,13.4411111,1, Bolzplatz Falckensteinstraße Kreuzberg,10997,OK,street_address,52.4973171,13.4411111
ROOFTOP,95818,"Torstraße 133, 10119 Berlin, Germany",ChIJZ0F8U-RRqEcRJDxAPWt24UU,"Torstraße 133, 10119",52.52972380000001,13.3997139,1, Bonbon Bar,10119,OK,premise,52.52972380000001,13.3997139
ROOFTOP,145243,"Gneisenaustraße 9, 10961 Berlin, Germany",ChIJo27wQChQqEcRoe9sJJoDgxI,"Gneisenaustraße 9, 10961 Berlín",52.49207999999999,13.3904015,1, Bonnie & Kleid,10961,OK,street_address,52.49207999999999,13.3904015
ROOFTOP,157285,"Torstraße 230, 10115 Berlin, Germany",ChIJ6XCwaelRqEcRkQb9FTn7CfE,"Torstraße 230, 10115",52.5270535,13.3878739,1, Bravo Bar,10115,OK,street_address,52.5270535,13.3878739
ROOFTOP,112226,"Mohrenstraße 30, 10117 Berlin, Germany",ChIJbb1wp9BRqEcR_wp3oJGAT0s,"Mohrenstraße 30, 10117",52.51177,13.39327,1, Bricks Berlin,10117,OK,street_address,52.51177,13.39327
ROOFTOP,150252,"Friedrich-Breuer-Straße 17, 53225 Bonn, Germany",ChIJ4YEXCQ7hvkcRD4QZ0Dr4u6g,"Friedrich-Breuer-Str. 17, 53225 Bonn",50.7385175,7.1152839,1, Brückenforum,53225,OK,street_address,50.7385175,7.1152839
ROOFTOP,112987,"Schleusenufer 3, 10997 Berlin, Germany",ChIJ80-meVROqEcRtzuQZMC6bNI,"Schleusenufer 3, 10997",52.49768479999999,13.4498045,1, Burg Schnabel,10997,OK,premise,52.49768479999999,13.4498045
ROOFTOP,116419,"Pannierstraße 12, 12047 Berlin, Germany",ChIJ0QJ3-bBPqEcRRi7eMU2BEF8,"Pannierstraße 12, 12047",52.4878189,13.4325581,1, Cafe Futuro,12047,OK,premise,52.4878189,13.4325581
ROOFTOP,128237,"Kastanienallee 85, 10435 Berlin, Germany",ChIJCxDQo_5RqEcRVjEt6B-ZuN8,"Kastanienallee 85, 10435",52.5375872,13.4089405,1, Café Morgenrot,10435,OK,street_address,52.5375872,13.4089405
ROOFTOP,109421,"Schlesische Str. 32, 10997 Berlin, Germany",ChIJy_oOy1NOqEcREasuKRoiKvY,"Schlesische Str. 32, 10997",52.4991576,13.4466025,1, Cake,10997,OK,premise,52.4991576,13.4466025
ROOFTOP,13013,"Revaler Str. 99, 10245 Berlin, Germany",ChIJsdkMp1lOqEcRq8YbzXSVlqI,"Revaler Str. 99, 10245",52.5077221,13.4542457,1, Cassiopeia,10245,OK,street_address,52.5077221,13.4542457
ROOFTOP,65654,"Vor dem Schlesischen Tor 3, 10997 Berlin, Germany",ChIJqezgf1ROqEcRmuWEkHEYLIw,Vor dem Schlesischen Tor 3; Kreuzberg; 10997,52.4972296,13.4493373,1, Chalet,10997,OK,premise,52.4972296,13.4493373
ROOFTOP,152749,"Chausseestraße 131, 10115 Berlin, Germany",ChIJj_Vp3OtRqEcRL4DzN_zV4Ow,"Chausseestrasse 131, 10115",52.5272479,13.3863671,1, Chausseestrasse 131,10115,OK,street_address,52.5272479,13.3863671
ROOFTOP,44572,"Dorotheenstraße 12, 10117 Berlin, Germany",ChIJl5MeVtxRqEcR4k5H8C91Ca0,"Dorotheenstraße 12, 10117",52.5193832,13.394617,1, CHB - Collegium Hungaricum Berlin,10117,OK,street_address,52.5193832,13.394617
ROOFTOP,20497,"An der Schillingbrücke 3, 10243 Berlin, Germany",ChIJS1MAKr8jZUERkWFDbesy7dk,An Der Schilling Brücke; Ostbahnhof; 10243,52.5092548,13.4305315,1, Chez Jacki,10243,OK,"establishment,night_club,point_of_interest",52.5092548,13.4305315
ROOFTOP,146792,"Brückenstraße 1, 10179 Berlin, Germany",ChIJA_8fLiVOqEcRXxzvNK-Q68w,"Brückenstr. 1, 10179",52.5111887,13.416781,1, Clinic Basement,10179,OK,premise,52.5111887,13.416781
ROOFTOP,31119,"Ackerstraße 168, 10115 Berlin, Germany",ChIJIfjHm-VRqEcR3LDKq5qh4rg,"Ackerstraße 168, 10115",52.5299397,13.3970986,1, Club Der Polnischen Versager,10115,OK,premise,52.5299397,13.3970986
ROOFTOP,6949,"Am Flutgraben 1, 12435 Berlin, Germany",ChIJY7pZiVROqEcR9S0E-uegHtQ,"Am Flutgraben 1, 12435",52.4967917,13.450466,1, Club der Visionaere,12435,OK,premise,52.4967917,13.450466
ROOFTOP,76284,"Wasgenstraße 75, 14129 Berlin, Germany",ChIJbaPuNXFZqEcRd-Y3JHA7gy4,"Wasgenstraße 75, 14129",52.42857309999999,13.2168849,1, Club-A18,14129,OK,"establishment,premise",52.42857309999999,13.2168849
ROOFTOP,82368,"Skalitzer Str. 68, 10997 Berlin, Germany",ChIJPRRGzk1OqEcR0DyoQgXHB7A,"Skalitzer Str. 68, 10997",52.5002443,13.4397621,1, CoBa Bar,10997,OK,premise,52.5002443,13.4397621
ROOFTOP,115854,"Columbiadamm 9-11, 10965 Berlin, Germany",ChIJJ-mYM99PqEcRzLlnPm6Vfv4,"Columbiadamm 9-11, 10965",52.484674,13.3913695,1, Columbia Theater,10965,OK,premise,52.484674,13.3913695
ROOFTOP,2636,"Columbiadamm 13-21, 10965 Berlin, Germany",ChIJ2ZiFLN9PqEcRRqdJQS89nM8,"Columbiadamm 13-21, 10965",52.48464999999999,13.39221,1, Columbiahalle,10965,OK,street_address,52.48464999999999,13.39221
ROOFTOP,56584,"Wiener Straße 34, 10999 Berlin, Germany",ChIJv06QSrNPqEcR_GHUT1-rKPQ,"Wiener Straße 34, 10999",52.4960967,13.43508,1, Cortina Bob,10999,OK,premise,52.4960967,13.43508
ROOFTOP,77875,"Brunnenstraße 197-198, 10119 Berlin, Germany",ChIJLfZp9-RRqEcRf9NSzd-OqT0,Brunnenstrasse 197/198; 0119,52.52998299999999,13.4007594,1, Cosmic Kaspar,10119,OK,street_address,52.52998299999999,13.4007594
ROOFTOP,57853,"Revaler Str. 99, 10245 Berlin, Germany",ChIJsdkMp1lOqEcRq8YbzXSVlqI,Revaler Strasse 99; 10245 -Friedrichshain,52.5077221,13.4542457,1, Crack Bellmer,10245,OK,street_address,52.5077221,13.4542457
ROOFTOP,143495,"Rollbergstraße 26, 12053 Berlin, Germany",ChIJ7yZZUqNPqEcRe3Ogtaad424,"Rollbergstrasse 26, 12053",52.4795442,13.4329425,1, Crclr,12053,OK,street_address,52.4795442,13.4329425
ROOFTOP,96105,"Holzmarktstraße 32, 10243 Berlin, Germany",ChIJt4kOBjlOqEcRaq56ggSg588,"Holzmarktstraße 32, 10243",52.5108058,13.4282032,1, Culture Container,10243,OK,premise,52.5108058,13.4282032
ROOFTOP,150509,"Budapester Str. 50, 10787 Berlin, Germany",ChIJfbW6vP9QqEcREkQgIcC9BR8,Budapester Str. 50 10787,52.50557999999999,13.3356,1, Darwin's Lab im Bikini Berlin,10787,OK,street_address,52.50557999999999,13.3356
ROOFTOP,13398,"Görlitzer Str. 1, 10997 Berlin, Germany",ChIJjc74IU1OqEcRfWF3ax2bLs0,"Görlitzer Str. 1, 10997",52.4982105,13.4342003,1, Das Edelweiss,10997,OK,street_address,52.4982105,13.4342003
ROOFTOP,89075,"Wilhelmstraße 118, 10963 Berlin, Germany",ChIJ4WlNANNRqEcR5Prd5Xs5qrQ,"Wilhelmstraße 118, 10963",52.503893,13.386159,1, Das Foto Image Factory,10963,OK,street_address,52.503893,13.386159
ROOFTOP,45553,"Mariannenstraße 26A, 10999 Berlin, Germany",ChIJQwy0PctPqEcRMz6D_WEchEU,"Mariannenstraße 26A, 10999",52.49662360000001,13.4204083,1, Das Hotel,10999,OK,street_address,52.49662360000001,13.4204083
ROOFTOP,83501,"Rosenthaler Str. 9, 10119 Berlin, Germany",ChIJh4Ep9uNRqEcRCjZjfFOvUxw,Rosenthaler Str. 9,52.5279064,13.4024598,1, Dean,10119,OK,street_address,52.5279064,13.4024598
ROOFTOP,8651,"Klara, Prenzlauer Allee 242, 10405 Berlin, Germany",ChIJVaM6tBxOqEcRNfpvbbAn_W4,Prenzlauer Allee 242 -246; Mitte; 10405,52.53044999999999,13.41759,1, Deep Loft,10405,OK,street_address,52.53044999999999,13.41759
ROOFTOP,55765,"Auguststraße 5A, 10117 Berlin, Germany",ChIJM7xniehRqEcRsJDT9-SJPPw,"Auguststraße 5a, 10117",52.5255464,13.3925647,1, Department Club,10117,OK,street_address,52.5255464,13.3925647
ROOFTOP,51777,"Revaler Str. 99, 10245 Berlin, Germany",ChIJsdkMp1lOqEcRq8YbzXSVlqI,Revaler Str. 99 / Ecke Modersohnbrücke,52.5077221,13.4542457,1, Der Geheime Garten,10245,OK,street_address,52.5077221,13.4542457
ROOFTOP,60968,"Dorfstraße 2, 04936 Dahme/Mark, Germany",ChIJr9m2QDDkp0cRm9-wWxbTGDg,"Schöna-Kolpien, 04936, Dorfstrasse 2, Brandenburg",51.81276,13.4429599,1, Der Stall / Schöna-Kolpien,04936,OK,street_address,51.81276,13.4429599
ROOFTOP,107593,"Revaler Str. 99, 10245 Berlin, Germany",ChIJsdkMp1lOqEcRq8YbzXSVlqI,"Revaler Str 99, 10245",52.5077221,13.4542457,1, Der Weiße Hase,10245,OK,street_address,52.5077221,13.4542457
ROOFTOP,131251,"Mainzer Str. 23, 12053 Berlin, Germany",ChIJOdSgirtPqEcRdd7dW6r5G4Y,"Mainzer Str. 23, 12053",52.4807266,13.427628,1, Deriva,12053,OK,street_address,52.4807266,13.427628
ROOFTOP,148466,"Reichenberger Str. 47, 10999 Berlin, Germany",ChIJg29AV7VPqEcRBNn8Dwz0Xm8,"Reichenberger Str. 47, 10999",52.49657999999999,13.42608,1, Die Perle,10999,OK,street_address,52.49657999999999,13.42608
ROOFTOP,141952,"Brückenstraße 1, 10179 Berlin, Germany",ChIJA_8fLiVOqEcRXxzvNK-Q68w,Brückenstraße 1 - 10179 o,52.5111887,13.416781,1, Diskothek Melancholie 2,10179,OK,premise,52.5111887,13.416781
ROOFTOP,152857,"Bessemerstraße 2-14, 12103 Berlin, Germany",ChIJE2ddlKtPqEcRDJ7vT5ofJQA,"Bessemerstraße 2-14, 12103",52.4669474,13.36592,1, District Berlin,12103,OK,street_address,52.4669474,13.36592
ROOFTOP,103733,"Bessemerstraße 2-14, 12103 Berlin, Germany",ChIJE2ddlKtPqEcRDJ7vT5ofJQA,"Bessemerstraße 2-14, 12103",52.4669474,13.36592,1, DISTRICT Kunst- und Kulturförderung,12103,OK,street_address,52.4669474,13.36592
ROOFTOP,101911,"Donaustraße 115, 12043 Berlin, Germany",ChIJ58YCxbpPqEcRXGRCvG-I72s,"Donaustraße 115, 12043",52.48352,13.4336057,1, Donau115,12043,OK,premise,52.48352,13.4336057
ROOFTOP,155302,"Hafnarstræti 4, 101 Reykjavík, Iceland",ChIJ36n_GS0L1kgRfEYoPUNYOv8,"Hafnarstraeti 4, 101 Reykjavik Iceland",64.1481999,-21.9402552,1, The Dubliner,101,OK,street_address,64.1481999,-21.9402552
ROOFTOP,98549,"Eichhornstraße 4, 10785 Berlin, Germany",ChIJKRjvrstRqEcRS_H_-wSTf_M,"Eichhornstraße 4, 10785",52.5064275,13.3731988,1, E4 Club Berlin,10785,OK,street_address,52.5064275,13.3731988
ROOFTOP,80137,"Grüntaler Str. 9, 13357 Berlin, Germany",ChIJg_8DyiNSqEcRDSC_WaV3ris,"Grüntaler Str. 9, 13359",52.5519122,13.3867788,1, Echo Bücher,13357,OK,street_address,52.5519122,13.3867788
ROOFTOP,110015,"Gustav-Adolf-Straße 2, 13086 Berlin, Germany",ChIJWfhsvPBNqEcRr7y_LWiGuNs,"Gustav-Adolf-Straße 2, , 13086",52.5517769,13.4313991,1, ehemaliges Stummfilmkino Delphi,13086,OK,premise,52.5517769,13.4313991
ROOFTOP,156304,"Köpenicker Str. 40, 10179 Berlin, Germany",ChIJJZ395TlOqEcR5BE1K0i3ZYo,Köpenicker Str. 40,52.5087601,13.4254339,1, Eiswerk,10179,OK,street_address,52.5087601,13.4254339
ROOFTOP,79607,"An den Treptowers 10, 12435 Berlin, Germany",ChIJdbgXb_5OqEcRedYJg-R2_Q8,"An den Treptowers 10, 12435",52.4947386,13.462161,1, Else,12435,OK,street_address,52.4947386,13.462161
ROOFTOP,65793,"Fidicinstraße 40, 10965 Berlin, Germany",ChIJ08JhcidQqEcRkRy4vOoIT3s,"Fidicinstraße 40, 10965",52.4871936,13.3885053,1, English Theatre Berlin,10965,OK,street_address,52.4871936,13.3885053
ROOFTOP,15611,"Rosenthaler Str. 39, 13127 Berlin, Germany",ChIJ4bcUKOFRqEcRFlTZY4ZzZzU,"Rosenthaler Str. 39, 10178",52.5242848,13.4021617,1, Eschschloraque,13127,OK,street_address,52.5242848,13.4021617
ROOFTOP,120550,"Zossener Str. 65, 10961 Berlin, Germany",ChIJB3aK7NVPqEcRkx2j2gRxJEc,"Zossener Str. 65, 10961",52.4964325,13.396079,1, Ev. Kirchengemeinde Heilig Kreuz Passion,10961,OK,premise,52.4964325,13.396079
ROOFTOP,147118,"Schiffbauergasse 10, 14467 Potsdam, Germany",ChIJGQXKwuD1qEcReSnMpGG0u3s,"Schiffbauergasse 10, 14467 Potsdam",52.40283,13.07471,1, Fabrik Potsdam,14467,OK,street_address,52.40283,13.07471
ROOFTOP,146298,"Kurfürstenstraße 21-22, 10785 Berlin, Germany",ChIJxRHfC0pQqEcRpaq2CmzyjHw,Kurfürstenstrasse 21-22,52.49979,13.3650699,1, The Fact Finder,10785,OK,street_address,52.49979,13.3650699
ROOFTOP,98403,"Skalitzer Str. 133, 10999 Berlin, Germany",ChIJTUibXzNOqEcRUnvXhWai0wg,"Skalitzer Str. 133, 10999",52.499294,13.419727,1, Fahimi Bar,10999,OK,street_address,52.499294,13.419727
ROOFTOP,19481,"Skalitzer Str. 114, 10999 Berlin, Germany",ChIJp3oWEDVOqEcRmECMxHVLzEU,Skalitzer Strasse 114; Kreuzberg; 10999,52.4993653,13.424211,1, Farbfernseher,10999,OK,premise,52.4993653,13.424211
ROOFTOP,138998,"Friedrichstraße 180, 10117 Berlin, Germany",ChIJRw4sn9pRqEcR2IUzdvp77as,"Friedrichstraße 180–184, 10117",52.5125073,13.389306,1, Father Graham,10117,OK,street_address,52.5125073,13.389306
ROOFTOP,57135,"Veteranenstraße 26, 10119 Berlin, Germany",ChIJmQ-XzvpRqEcRBEfhRLj7dNE,"Veteranenstraße 26, 10119",52.5330027,13.3999193,1, Fc Magnet Bar,10119,OK,street_address,52.5330027,13.3999193
ROOFTOP,124713,"Revaler Str. 99, 10245 Berlin, Germany",ChIJsdkMp1lOqEcRq8YbzXSVlqI,Revalerstraße 99,52.5077221,13.4542457,1, F-Club,10245,OK,street_address,52.5077221,13.4542457
ROOFTOP,132060,"Am Flutgraben 2, 12435 Berlin, Germany",ChIJG3b6AVVOqEcRrWNHgaK0MYE,"Am Flutgraben 2, 12435",52.4965426,13.4528979,1, Festsaal Kreuzberg,12435,OK,premise,52.4965426,13.4528979
ROOFTOP,78250,"Str. zum FEZ 2, 12459 Berlin, Germany",ChIJ_QDLtPJIqEcRoecZC0EST1Y,"Straße zum FEZ 2, 12459",52.4612165,13.5490931,1, FEZ Berlin,12459,OK,street_address,52.4612165,13.5490931
ROOFTOP,27108,"Urbanstraße 70, 10967 Berlin, Germany",ChIJkSPe2rdPqEcRypuuBTlKY1M,"Urbanstraße 70, 10967",52.4886416,13.4226708,1, Ficken 3000,10967,OK,street_address,52.4886416,13.4226708
ROOFTOP,50067,"Köpenicker Str. 18, 10997 Berlin, Germany",ChIJ9ybxV0hOqEcRbiiPqZnF3B4,"Köpenicker Str. 18, 10997",52.5055647,13.4329611,1, Fiese Remise,10997,OK,street_address,52.5055647,13.4329611
ROOFTOP,95518,"Graefestraße 12, 10967 Berlin, Germany",ChIJnx1C7stPqEcRYyfOVyY7mYY,"Graefestraße12, 10967",52.493593,13.4176113,1, Filterhouse,10967,OK,street_address,52.493593,13.4176113
ROOFTOP,155453,"S-Bahn Bogen 46, Holzmarktstraße 15, 10179 Berlin, Germany",ChIJZ8150pBPqEcRsiASQoj0a-o,"S-Bahn Bogen 46, Holzmarktstraße 15, 10179",52.51286109999999,13.4232167,1, Fitzroy,10179,OK,"establishment,point_of_interest",52.51286109999999,13.4232167
GEOMETRIC_CENTER,151695,"Weteritzer Landstraße, 39638 Gardelegen, Germany",ChIJ_9B69usMr0cRu0kP8H95lTE,"Weteritzer Landstraße, 39638 Gardelegen",52.5245305,11.375474,1, Fliegerklub Gardelegen,39638,OK,route,52.5245305,11.375474
ROOFTOP,112473,"Mühlenstraße 73, 10243 Berlin, Germany",ChIJJ2SaM0ZOqEcRG93iWQNz25k,"Mühlenstraße 73, 10243",52.5033109,13.4443005,1, The Floating Lounge,10243,OK,street_address,52.5033109,13.4443005
ROOFTOP,117147,"Lüderitzstraße 74, 13351 Berlin, Germany",ChIJQX3gb9lTqEcR7FgpHtvJPXY,"Lüderitzstraße 74, 13351",52.5550951,13.3411718,1, Flop Bar,13351,OK,premise,52.5550951,13.3411718
ROOFTOP,87977,"Tucholskystraße 32, 10117 Berlin, Germany",ChIJYS6knehRqEcRsISyULNjsnw,Tucholskystr.32,52.52619559999999,13.3938608,1, Flowbar,10117,OK,street_address,52.52619559999999,13.3938608
ROOFTOP,136097,"Am Flutgraben 3, 12435 Berlin, Germany",ChIJ6ZQ3XTxPqEcR0tt9W9jwsmY,"Am Flutgraben 3, 12435",52.4970977,13.4516979,1, Flutgraben,12435,OK,street_address,52.4970977,13.4516979
ROOFTOP,69683,"Pfuelstraße 5, 10997 Berlin, Germany",ChIJcwSbWU5OqEcRoJbC1Vr-VcA,"Pfuelstraße 5, 10997",52.5028962,13.4408627,1, Fluxbau,10997,OK,premise,52.5028962,13.4408627
GEOMETRIC_CENTER,48132,"Fort Gorgast Haus 3, 15328 Küstriner Vorland, Germany",ChIJHRvNMyd0B0cRk7jBpxImeVA,"Fort Gorgast Haus 3, 15328 Küstriner Vorland",52.560314,14.546627,1, Fort Gorgast - Küstriner Vorland,15328,OK,"establishment,museum,point_of_interest",52.560314,14.546627
ROOFTOP,51292,"Besselstraße 13, 10969 Berlin, Germany",ChIJSV_rR9RRqEcRKN3SjF4m_hY,"Besselstrasse 13-14, 10969",52.5048359,13.3939272,1, Forum Factory,10969,OK,street_address,52.5048359,13.3939272
GEOMETRIC_CENTER,156138,"Forster Str., 10999 Berlin, Germany",ChIJJammYbNPqEcRP7AB2rzG8DI,Forster Str. 10999,52.4947969,13.4329101,1, Fountain of Youth,10999,OK,route,52.4947969,13.4329101
ROOFTOP,137261,"Oranienstraße 19A, 10999 Berlin, Germany",ChIJ15aDXjROqEcRD2kQgmjSRo4,"Oranienstraße 19A, 10999",52.5006218,13.4221798,1, Franken,10999,OK,street_address,52.5006218,13.4221798
ROOFTOP,42914,"Schönhauser Allee 36, 10435 Berlin, Germany",ChIJI1LmRf5RqEcRanabz7p0i50,"Schönhauser Allee 36, 10435",52.5386047,13.4130561,1, Frannz Club,10435,OK,street_address,52.5386047,13.4130561
ROOFTOP,91899,"Mehringdamm 61, 10961 Berlin, Germany",ChIJTYo9gChQqEcRH5Dj7rl9HLo,Mehringdamm 61. 10961,52.4908091,13.3871714,1, Freudenzimmer II,10961,OK,street_address,52.4908091,13.3871714
ROOFTOP,20577,"Nalepastraße 18, 12459 Berlin, Germany",ChIJZXscXC5PqEcRJm5vQzzgAlU,"Nalepastraße 18, 12459",52.4800665,13.5003142,1, Funkhaus Berlin,12459,OK,premise,52.4800665,13.5003142
ROOFTOP,126510,"Wilhelminenhofstraße 83-85, 12459 Berlin, Germany",ChIJ7dlk2rlIqEcRDgjpyCMoVA0,"Wilhelminenhofstraße 83-85, 12459",52.46143379999999,13.5174596,1, Fuseroom Recording Studio,12459,OK,premise,52.46143379999999,13.5174596
ROOFTOP,143600,"Große Präsidentenstraße 6, 10178 Berlin, Germany",ChIJV8XcyeBRqEcRZMqQLSU1RPQ,"Große Präsidentenstraße 6-7, 10178",52.5232018,13.4008476,1, G&T Bar,10178,OK,street_address,52.5232018,13.4008476
ROOFTOP,144302,"Mauerstraße 81-82, 10117 Berlin, Germany",ChIJ_TBUpNFRqEcREjWBeWcD1UU,"Mauerstraße 81-82, 10117",52.5089311,13.3881783,1, Gat Point Charlie,10117,OK,street_address,52.5089311,13.3881783
ROOFTOP,88368,"Weserstraße 50, 12045 Berlin, Germany",ChIJmWiAeaVPqEcRUB8TxERD_YI,"Weserstraße 50, 12045",52.4840426,13.4390016,1, Gelegenheiten,12045,OK,premise,52.4840426,13.4390016
ROOFTOP,147914,"Rosenthaler Str. 39, 10178 Berlin, Germany",ChIJ-5qPXuFRqEcRGea37w9UWG4,"(Above MBOW), Rosenthaler Strasse 39, 10178",52.5242853,13.4020682,1, Geyger Art Gallery,10178,OK,"establishment,museum,point_of_interest",52.5242853,13.4020682
ROOFTOP,141955,"Revaler Str. 99, 10245 Berlin, Germany",ChIJsdkMp1lOqEcRq8YbzXSVlqI,"Revaler Strasse 99, 10245",52.5077221,13.4542457,1, Gleishaus,10245,OK,street_address,52.5077221,13.4542457
ROOFTOP,54078,"Alexanderstraße 7, 10178 Berlin, Germany",ChIJQe1grhhOqEcRaQ3gJPyp0TE,"GMF @ House of Weekend, Alexanderstraße 7, 10178",52.5230592,13.4165104,2, GMF,10178,OK,"bar,establishment,night_club,point_of_interest",52.5230592,13.4165104
ROOFTOP,8009,"Dircksenstraße 78, 10178 Berlin, Germany",ChIJY7GCEiNOqEcRET166xEnk7Y,Dircksenstrasse 78; Mitte; 10178,52.51600999999999,13.41693,1, Golden Gate,10178,OK,street_address,52.51600999999999,13.41693
ROOFTOP,155649,"Kottbusser Damm 95, 10967 Berlin, Germany",ChIJxQ4RRMpPqEcRHoXckuTgyFM,Kottbusser Damm 95,52.4939877,13.4219165,1, Gotham Burgers,10967,OK,premise,52.4939877,13.4219165
ROOFTOP,134200,"Seestraße 49, 13347 Berlin, Germany",ChIJKacEx9VTqEcReq7lbH7Cb-I,"Seestrasse 49, 13347",52.5508122,13.3535504,1, Gr_und,13347,OK,premise,52.5508122,13.3535504
ROOFTOP,67118,"Hirtenstraße 4, 10178 Berlin, Germany",ChIJrzcnfB5OqEcROkRXu4b0zZQ,"Hirtenstraße 4, 10178",52.52561,13.4124124,1, The Grand,10178,OK,premise,52.52561,13.4124124
ROOFTOP,96053,"Gottlieb-Dunkel-Straße 44, 12099 Berlin, Germany",ChIJweiiaYpPqEcRhDOeqCknnAs,"Gottlieb-Dunkel-Straße 44, 12099",52.45668999999999,13.4111901,1, Greenhouse Berlin,12099,OK,street_address,52.45668999999999,13.4111901
ROOFTOP,151639,"Greifswalder Str. 208, 10405 Berlin, Germany",ChIJG2nCfQ9OqEcR0If_sGJVY3Q,Greifswalderstr. 208. HH Rechter Seitenflügel 1.OG,52.53260350000001,13.4283329,1, Greifs 208,10405,OK,premise,52.53260350000001,13.4283329
ROOFTOP,51972,"Obentrautstraße 19, 10963 Berlin, Germany",ChIJ0cJL4itQqEcRZuO4iC_aT7E,Obentrautstr.19-21; 10963 Kreuzberg,52.49599019999999,13.3877655,1, Gretchen,10963,OK,street_address,52.49599019999999,13.3877655
ROOFTOP,46960,"Sonnenallee 221, 12059 Berlin, Germany",ChIJfV8BVQxPqEcRS0LDphWa4C8,Sonnenallee 221; Neukölln; 12059,52.475295,13.4576128,1, Griessmuehle,12059,OK,street_address,52.475295,13.4576128
GEOMETRIC_CENTER,138916,"Anlegestelle Station Wannsee (Berlin), 14109 Berlin, Germany",ChIJnxNfvB5ZqEcRjLOoT_Bfx9E,"Anlegestelle Station Wannsee, 14109",52.4218984,13.1760668,1, Großer Wannsee,14109,OK,"establishment,point_of_interest,transit_station",52.4218984,13.1760668
ROOFTOP,16171,"Rosa-Luxemburg-Platz 2, 10178 Berlin, Germany",ChIJB-8M6R1OqEcRCpqam6s7a9c,Rosa-Luxemburg-Platz 2,52.52695000000001,13.4114,1, Grüner Salon Der Volksbühne,10178,OK,street_address,52.52695000000001,13.4114
ROOFTOP,158895,"Wildenbruchstraße 80, 12045 Berlin, Germany",ChIJby3pAKZPqEcRQikIe0dsQCQ,"Wildenbruchstraße 80, 12045 Deutschland",52.4842466,13.4431674,1, Guttemplerhaus Berlin,12045,OK,street_address,52.4842466,13.4431674
ROOFTOP,145780,"Joachimsthaler Str. 31-32, 10789 Berlin, Germany",ChIJISPiKPlQqEcRA3wxgD4TSos,"Joachimsthaler Str. 31-32, 10719",52.50210370000001,13.3314409,1, H10,10789,OK,street_address,52.50210370000001,13.3314409
ROOFTOP,147060,"Motzstraße 19, 10777 Berlin, Germany",ChIJZ1LDK1BQqEcRbN9YmWLmmQs,"Motzstr. 19, 10777",52.4979114,13.3492115,1, Hafen,10777,OK,premise,52.4979114,13.3492115
GEOMETRIC_CENTER,76295,"Am Wriezener Bahnhof, 10243 Berlin, Germany",ChIJ09DCrkZOqEcRrVPKlTBK49U,Am Wriezener Bahnhof; 10243,52.5110751,13.4414431,1, Halle am Berghain,10243,OK,route,52.5110751,13.4414431
ROOFTOP,22881,"Holzmarktstraße 15, 10179 Berlin, Germany",ChIJ34TAeDtOqEcRGTT_Qx6-TWU,Holzmarktstrasse 15-17; Mitte; 10179,52.51375729999999,13.4226856,1, Hangar 49,10179,OK,street_address,52.51375729999999,13.4226856
ROOFTOP,126360,"Hallesches Ufer 32, 10963 Berlin, Germany",ChIJ8UKriixQqEcRLGaGyWPuqxo,"Hallesches Ufer 32, 10963",52.499064,13.386289,1, HAU Hebbel am Ufer,10963,OK,premise,52.499064,13.386289
ROOFTOP,102361,"Revaler Str. 99, 10245 Berlin, Germany",ChIJsdkMp1lOqEcRq8YbzXSVlqI,"Revaler Str. 99, 10245",52.5077221,13.4542457,1, Haubentaucher,10245,OK,street_address,52.5077221,13.4542457
ROOFTOP,22572,"Schaperstraße 24, 10719 Berlin, Germany",ChIJz13OxflQqEcRr9tTmNXVYJ4,"Schaperstraße 24, 10719",52.49844280000001,13.3286455,1, Haus Der Berliner Festspiele,10719,OK,premise,52.49844280000001,13.3286455
ROOFTOP,7693,"John-Foster-Dulles-Allee 10, 10557 Berlin, Germany",ChIJMXTcuLtRqEcRj8htGEQD9Fw,John-Foster-Dulles-Allee 10; Mitte; 10557,52.5189052,13.3647888,1, Haus Der Kulturen Der Welt,10557,OK,premise,52.5189052,13.3647888
ROOFTOP,26789,"Karl-Marx-Straße 141, 12043 Berlin, Germany",ChIJm7gDfqFPqEcRY2WYYfUmzlw,"Karl-Marx-Straße 141, 12043",52.4769599,13.439366,1, Heimathafen Neukoelln Im Saalbau,12043,OK,premise,52.4769599,13.439366
ROOFTOP,61460,"Helenesee 2, 15236 Frankfurt (Oder), Germany",ChIJVfC6IjSWB0cRYES9mA1CtIs,"Helenesee 2, 15236 Frankfurt (Oder)",52.27625,14.5011999,1, Helenesee,15236,OK,street_address,52.27625,14.5011999
ROOFTOP,154265,"Hertzallee 41, 10787 Berlin, Germany",ChIJPULWkwFRqEcRfzfYnidq-I0,"Hertzallee 41, 10787 Deutschland",52.5090848,13.3330294,1, Hertzallee 41,10787,OK,street_address,52.5090848,13.3330294
ROOFTOP,152262,"10367, Am Containerbahnhof 1, 10367 Berlin, Germany",ChIJUQ-244xOqEcR79gRdrtEmxc,Am Containerbahnhof 1 10367 nähe S Frankfurter Allee,52.515356,13.4759432,2, Hier Am Containerbahnhof 1 (Ganz Hinten),10367,OK,"establishment,point_of_interest",52.515356,13.4759432
ROOFTOP,150360,"Eisenbahnstraße 102, 14542 Werder (Havel), Germany",ChIJm_ZX1a_zqEcRJV9BalshHU4,"Eisenbahnstr. 102, 14542 Werder (Havel)",52.3912232,12.9246774,1, Hofanlage,14542,OK,street_address,52.3912232,12.9246774
ROOFTOP,100068,"Holzmarktstraße 15, 10179 Berlin, Germany",ChIJ34TAeDtOqEcRGTT_Qx6-TWU,"Holzmarktstraße 15, 10179",52.51375729999999,13.4226856,1," Holzmarktstrasse, 15-18",10179,OK,street_address,52.51375729999999,13.4226856
ROOFTOP,153292,"Hertzallee 41, 10787 Berlin, Germany",ChIJPULWkwFRqEcRfzfYnidq-I0,"Hertzallee 41, 10787 Deutschland",52.5090848,13.3330294,1, Hometown.berlin,10787,OK,street_address,52.5090848,13.3330294
ROOFTOP,9585,"Eichenstraße 4, 12435 Berlin, Germany",ChIJoT4CElVOqEcRHxVOOvof1S4,Eichenstrasse 4; Treptow; 12435,52.4966473,13.4530078,1, Hoppetosse,12435,OK,street_address,52.4966473,13.4530078
ROOFTOP,143993,"Dunckerstraße 9, 10437 Berlin, Germany",ChIJYYvIzP9NqEcRfjsAF1gPdSI,"Dunckerstraße 9, 10437 10437",52.5421288,13.4208158,1, Höschen,10437,OK,premise,52.5421288,13.4208158
ROOFTOP,148760,"Stephanstraße 41, 10559 Berlin, Germany",ChIJ5zHPQXRRqEcRXKUHNUKL6pc,"Stephanstr. 41, 10559",52.5321502,13.3446765,1, Hotel Mercure MOA,10559,OK,street_address,52.5321502,13.3446765
ROOFTOP,156781,"Große Präsidentenstraße 6, 10178 Berlin, Germany",ChIJV8XcyeBRqEcRZMqQLSU1RPQ,"Große Präsidentenstr. 6-7, 10178",52.5232018,13.4008476,1, Hotel Zoe,10178,OK,street_address,52.5232018,13.4008476
ROOFTOP,145383,"Alexanderstraße 7, 10178 Berlin, Germany",ChIJzUBDKBlOqEcRiZcv2MLSNQo,"Alexanderstr. 7, 10178 -Mitte",52.5230361,13.4166955,1, House of Weekend,10178,OK,street_address,52.5230361,13.4166955
ROOFTOP,110570,"Auguststraße 2, 10117 Berlin, Germany",ChIJYRZ59-hRqEcREtwW-Z5p3dU,"Auguststraße 2, 10117",52.5258286,13.3907773,1, HRD Bar,10117,OK,street_address,52.5258286,13.3907773
ROOFTOP,133746,"Alexanderstraße 7, 10178 Berlin, Germany",ChIJzUBDKBlOqEcRiZcv2MLSNQo,"Alexanderstraße 7, 10178",52.5230361,13.4166955,1, Humana,10178,OK,street_address,52.5230361,13.4166955
ROOFTOP,140637,"Frankfurter Tor 3, 10243 Berlin, Germany",ChIJP4EymWdOqEcRj75z8ZN_K8U,"Frankfurter tor 3, 10243",52.5168305,13.4546185,1, Humana Second Hand Frankfurter Tor,10243,OK,street_address,52.5168305,13.4546185
ROOFTOP,143291,"Mehringdamm 35, 10961 Berlin, Germany",ChIJMd8S_ShQqEcRHiRxTMhcaEw,"Mehringdamm 35, Kreuzberg",52.4932466,13.3885574,1, Humana Second Hand Kreuzberg,10961,OK,premise,52.4932466,13.3885574
ROOFTOP,153134,"Karl-Marx-Straße 125, 12043 Berlin, Germany",ChIJm4Mvw6NPqEcR391k4C8cXmg,"Karl-Marx-Straße 125, 12043",52.4778877,13.4386767,1, Humana Second Hand Neukölln,12043,OK,premise,52.4778877,13.4386767
ROOFTOP,128594,"Schloßpl. 5, 10178 Berlin, Germany",ChIJZ19F3d5RqEcRrPmtKXKNLSE,"Schloßpl. 5, 10178",52.5176703,13.4004826,1, Humboldt Terrassen,10178,OK,street_address,52.5176703,13.4004826
ROOFTOP,78234,"Hochstraße 46, 13357 Berlin, Germany",ChIJd3Y_m4lRqEcRaFkMsEeLvKc,Hochstraße 46; 13357,52.5443387,13.3786257,1, Humboldthain Club,13357,OK,street_address,52.5443387,13.3786257
ROOFTOP,73149,"Hasenheide 107, 10967 Berlin, Germany",ChIJuYdwArhPqEcRcTgy4aiRZzE,"Hasenheide 107 - 113, Neukölln, 10967",52.4863497,13.4220621,1, Huxley's Neue Welt,10967,OK,street_address,52.4863497,13.4220621
ROOFTOP,4093,"Alt-Treptow 6, 12435 Berlin, Germany",ChIJh4_9Px9PqEcRxEdj_bjzt60,Alt-Treptow 6; Treptow; 12435,52.48678,13.4808,1, Insel der Jugend,12435,OK,street_address,52.48678,13.4808
ROOFTOP,151169,"Havelchaussee 1, 14193 Berlin, Germany",ChIJqRN8NUtYqEcRwydHnTTkJT8,"Havelchaussee 1, 14193",52.4675696,13.1964077,1, Insel Lindwerder,14193,OK,street_address,52.4675696,13.1964077
ROOFTOP,66688,"Alt-Tempelhof 17, 12099 Berlin, Germany",ChIJYUnwbvxPqEcRtZkwnC0C7fA,"Alt-Tempelhof 17-19, 12099",52.4653623,13.3862656,1, Insomnia,12099,OK,street_address,52.4653623,13.3862656
ROOFTOP,112943,"Karl-Marx-Straße 195, 12055 Berlin, Germany",ChIJpy4DnZ9PqEcR4LFubtdbQFQ,"Karl-Marx-Straße 195, 12055",52.4728735,13.4413329,1, IPA Bar,12055,OK,premise,52.4728735,13.4413329
ROOFTOP,141383,"Elsenstraße 48, 12059 Berlin, Germany",ChIJM1f_NKhPqEcRI393fAE2LLo,Elsenstrasse 48,52.4860792,13.4498329,1, IT,12059,OK,premise,52.4860792,13.4498329
ROOFTOP,137223,"Spreewaldpl. 14, 10999 Berlin, Germany",ChIJ88JVHktOqEcRN4MSVKolL7M,"Spreewaldpl. 14, 10999",52.4982,13.43061,1, It's a Bar,10999,OK,street_address,52.4982,13.43061
ROOFTOP,152938,"Revaler Str. 99, 10245 Berlin, Germany",ChIJsdkMp1lOqEcRq8YbzXSVlqI,"Revaler Straße 99, 10245",52.5077221,13.4542457,1, Jägerhütte,10245,OK,street_address,52.5077221,13.4542457
RANGE_INTERPOLATED,78735,"Karl-Marx-Allee 93, 10243 Berlin, Germany",EilLYXJsLU1hcngtQWxsZWUgOTMsIDEwMjQzIEJlcmxpbiwgR2VybWFueSIaEhgKFAoSCWcrcgpqTqhHES-2R2RtzI8OEF0,"Karl-Marx-Allee 93, 10243",52.5170956,13.441836,2, James June,10243,OK,street_address,52.5170956,13.441836
ROOFTOP,149910,"Börnestraße 14, 13086 Berlin, Germany",ChIJ2Sb21OdNqEcRj0Nx3AjXd9k,"Boernerstrasse 14, Weisensee, 13086",52.5487464,13.4479169,1, Jerry's House,13086,OK,premise,52.5487464,13.4479169
ROOFTOP,150103,"Gartenfelder Str. 14, 13599 Berlin, Germany",ChIJq3qwoo9WqEcR5EXNtEJAStM,Gartenfelder Straße 14-28,52.5484194,13.2474116,1, Kabelwerk Berlin,13599,OK,street_address,52.5484194,13.2474116
ROOFTOP,86240,"Torstraße 60, 10119 Berlin, Germany",ChIJHzjOXeJRqEcRsv5JnIX0hIo,"Torstraße 60, 10119",52.5287809,13.4085682,1, Kaffee Burger,10119,OK,street_address,52.5287809,13.4085682
ROOFTOP,142820,"Libauer Str. 23, 10245 Berlin, Germany",ChIJEYbp_ltOqEcREBYW3ym2Rxc,"Libauer Str. 23, 10245",52.50987920000001,13.455155,1, Kaia,10245,OK,street_address,52.50987920000001,13.455155
RANGE_INTERPOLATED,8742,"Am Wriezener Bahnhof 70, 10243 Berlin, Germany",Ei5BbSBXcmllemVuZXIgQmFobmhvZiA3MCwgMTAyNDMgQmVybGluLCBHZXJtYW55IhoSGAoUChIJGfXprEZOqEcRrLJpuzi-6ioQRg,70 Am Wriezener Bahnhof; Friedrichshain; 10243,52.5116457,13.4404548,1, Kantine am Berghain,10243,OK,street_address,52.5116457,13.4404548
ROOFTOP,149951,"Skalitzer Str. 64, 10997 Berlin, Germany",ChIJryeGM0xOqEcRKhLbHHADlPs,"Skalitzer Str. 64, 10997",52.500134,13.4388596,1, Kantine Kohlmann,10997,OK,street_address,52.500134,13.4388596
ROOFTOP,141464,"Großgörschenstraße 12-14, 10829 Berlin, Germany",ChIJJU-BlzlQqEcR-j3Umry5XxQ,Großgörschenstr. 12-14; 10829 ; Deutschland,52.49108,13.36714,1, Kapelle Alter St.-Matthäus-Kirchhof,10829,OK,street_address,52.49108,13.36714
ROOFTOP,99161,"Holzmarktstraße 25, 10243 Berlin, Germany",ChIJY1wYbDlOqEcRSRXkkq9B_14,"Holzmarktstrasse 25, 10243",52.5117851,13.4258816,1, Kater Blau,10243,OK,street_address,52.5117851,13.4258816
ROOFTOP,125751,"Schillerpromenade 2, 12049 Berlin, Germany",ChIJfeiiUb5PqEcRs8Z9azv188M,"Schillerpromenade 2, 12049",52.4781944,13.4209427,1, Keith Bar,12049,OK,premise,52.4781944,13.4209427
ROOFTOP,12641,"Knaackstraße 97, 10435 Berlin, Germany",ChIJkUpouP9RqEcRRmXpm84fHzI,"Knaackstraße 97, 10435",52.5403087,13.4142478,1, Kesselhaus,10435,OK,street_address,52.5403087,13.4142478
RANGE_INTERPOLATED,2755,"Karl-Marx-Allee 33, 10178 Berlin, Germany",EilLYXJsLU1hcngtQWxsZWUgMzMsIDEwMTc4IEJlcmxpbiwgR2VybWFueSIaEhgKFAoSCW2R9fYXTqhHEeBQppjWEqlFECE,"Karl-Marx-Allee 33, 10178",52.5202677,13.4226618,1, Kino International,10178,OK,street_address,52.5202677,13.4226618
ROOFTOP,10546,"Köpenicker Str. 76, 10179 Berlin, Germany",ChIJXdBoMiVOqEcR00oMjCjHye8,Köpenicker Strasse 76; Mitte; 10179,52.5110688,13.4170846,1, KitKatClub,10179,OK,premise,52.5110688,13.4170846
ROOFTOP,157516,"Niemetzstraße 24, 12055 Berlin, Germany",ChIJMx6rpHRPqEcRiCq8YqJ_Feo,"Niemetzstr. 24, 12055",52.47157,13.45106,1, Kleinoid,12055,OK,street_address,52.47157,13.45106
ROOFTOP,77598,"Karl-Marx-Straße 66, 12043 Berlin, Germany",ChIJh1TYJrtPqEcRqGQhhDqGF5o,"Karl-Marx-Straße 66, 12043",52.4820247,13.4327194,1, Klunkerkranich,12043,OK,street_address,52.4820247,13.4327194
ROOFTOP,137371,"Bodestraße 1-3, 10178 Berlin, Germany",ChIJ-ZB2ft5RqEcR2IrhQvwDjQ8,"Bodestr. 1-3, 10178",52.5194665,13.3987445,1, Kolonnadenhof der Museumsinsel Berlin,10178,OK,premise,52.5194665,13.3987445
ROOFTOP,149474,"Am Sudhaus 3, 12053 Berlin, Germany",ChIJ7SnnwLxPqEcRS90G938qEBE,"12053, Am Sudhaus 3",52.47883789999999,13.4308228,1, König Otto,12053,OK,street_address,52.47883789999999,13.4308228
ROOFTOP,154873,"Hardenbergstraße 33, 10623 Berlin, Germany",ChIJdTS8fwJRqEcRe3SJHfdWUhM,"Hardenbergstrasse 33, 10623",52.5090178,13.3268642,1, Konzertsaal der UdK Berlin,10623,OK,street_address,52.5090178,13.3268642
ROOFTOP,150907,"Köpenicker Str. 18, 10997 Berlin, Germany",ChIJ9ybxV0hOqEcRbiiPqZnF3B4,"Köpenicker Strasse 18, 10997",52.5055647,13.4329611,1, Köpenicker Strasse 18,10997,OK,street_address,52.5055647,13.4329611
ROOFTOP,13390,"Köpenicker Str. 137, 10179 Berlin, Germany",ChIJgbWBYzdOqEcRO46021sEtg4,Köpenicker Str. 137,52.507634,13.4262722,1, Köpi,10179,OK,premise,52.507634,13.4262722
ROOFTOP,77908,"Köpenicker Str. 70, 10179 Berlin, Germany",ChIJ2RpH5TpOqEcRWK0z_M__z18,"Köpenicker Str. 70, 10179",52.5110009,13.4195187,1, Kraftwerk Berlin,10179,OK,premise,52.5110009,13.4195187
ROOFTOP,146396,"Kurfürstendamm 206, 10719 Berlin, Germany",ChIJqRfZDvtQqEcRXj3eabqXync,"Kurfürstendamm 206, 10719",52.501986,13.323509,1, Ku'damm Karree,10719,OK,street_address,52.501986,13.323509
ROOFTOP,74553,"Grüntaler Str. 51, 13359 Berlin, Germany",ChIJj5MithdSqEcRMU3oQUTzkdg,"Grüntaler Str. 51, 13359",52.55727539999999,13.3957143,1, Kugelbahn Wedding,13359,OK,premise,52.55727539999999,13.3957143
ROOFTOP,110817,"Karl-Marx-Straße 52, 12043 Berlin, Germany",ChIJC63WBbtPqEcR_DFJoo3WOtM,"Karl-Marx-Straße 52, 12043",52.4824334,13.4308927,1, Kultstätte Keller,12043,OK,premise,52.4824334,13.4308927
ROOFTOP,7234,"Schönhauser Allee 36-39, 10435 Berlin, Germany",ChIJgSHqQ_5RqEcR_wusuJS-XW4,Schönhauser Allee 36-39; Prenzlauer Berg; 10435,52.5383033,13.4127523,1, Kulturbrauerei,10435,OK,premise,52.5383033,13.4127523
ROOFTOP,106684,"Wiesenweg 5-9, 10365 Berlin, Germany",ChIJYymK9vFOqEcRZYL-XZNUqNk,"Wiesenweg 5-9, 10365",52.5074322,13.4763332,1, Kulturhaus Kili,10365,OK,street_address,52.5074322,13.4763332
GEOMETRIC_CENTER,11289,"Rechlin-Lärz Airfield, Am Flugpl., 17248 Lärz, Germany",ChIJJZIuhshQqUcRLlBfbDOwJ0A,"Flugplatz Lärz, 17248 Lärz",53.3051075,12.7514235,1, Kulturkosmos Müritz e.V.,17248,OK,"airport,establishment,point_of_interest",53.3051075,12.7514235
GEOMETRIC_CENTER,138365,"Strausberg, Kulturpark, 15344 Strausberg, Germany",ChIJexDVOi_NqUcRnuHH24MTkbw,"Kulturpark Strausberg, 15344 Strausberg",52.58296,13.882604,1, Kulturpark Strausberg,15344,OK,"bus_station,establishment,point_of_interest,transit_station",52.58296,13.882604
ROOFTOP,110668,"Rotherstraße 3, 10245 Berlin, Germany",ChIJJSccP1dOqEcRM9paaf26eDE,"Rotherstraße 3, 10245",52.5032613,13.4538668,1, Kulturraum Zwingli Kirche e.V.,10245,OK,premise,52.5032613,13.4538668
ROOFTOP,143338,"Boddinstraße 10, 12053 Berlin, Germany",ChIJqdS5Z7tPqEcRM4AmS_bO9eI,Boddinstraße 10 12053,52.4807712,13.4315199,1, Kunstbar,12053,OK,street_address,52.4807712,13.4315199
ROOFTOP,29567,"Mariannenpl. 2, 10997 Berlin, Germany",ChIJ1d-WlzZOqEcRY7INApzm9y8,Mariannenplatz 2,52.50390040000001,13.424064,1, Kunstquartier Bethanien,10997,OK,premise,52.50390040000001,13.424064
ROOFTOP,14587,"Schlesische Str. 41, 10997 Berlin, Germany",ChIJ58ZQAlJOqEcR0_UxmTbyU74,Schlesische Strasse 41; Kreuzberg; 10997,52.5004104,13.4438358,1, L.U.X.,10997,OK,premise,52.5004104,13.4438358
ROOFTOP,22306,"Rigaer Str. 103, 10247 Berlin, Germany",ChIJ0SxuVGZOqEcRzE_nINQvJKA,Rigaer Strasse 103; Friedrichshain; 10247,52.5184819,13.4552656,1, Lauschangriff,10247,OK,premise,52.5184819,13.4552656
ROOFTOP,110183,"Augsburger Str. 41, 10789 Berlin, Germany",ChIJcVwt1f5QqEcRDbUDi_GPF0o,"Augsburger Str. 41, 10789",52.5024885,13.3318377,1, Le Faubourg Lounge,10789,OK,premise,52.5024885,13.3318377
ROOFTOP,118086,"Holzmarktstraße 16, 10179 Berlin, Germany",ChIJG7_BzjxOqEcRal8vR9ldXaA,"Holzmarktstraße 16, 10179",52.51589999999999,13.4204,1, Libertine Club,10179,OK,street_address,52.51589999999999,13.4204
ROOFTOP,159857,"Kastanienallee 77, 10435 Berlin, Germany",ChIJQwXOFvxRqEcR3jUS8exySbg,"Kastanienallee 77, 10435",52.53637,13.40814,1, Lichtblick-Kino,10435,OK,street_address,52.53637,13.40814
ROOFTOP,7235,"Cuvrystraße 7, 10997 Berlin, Germany",ChIJ6e3BOFJOqEcRmOCdfXsbTsI,Cuvrystrasse 7; Kreuzberg; 10997,52.49917,13.445,1, Lido Berlin,10997,OK,street_address,52.49917,13.445
ROOFTOP,112947,"Nostitzstraße 12, 10961 Berlin, Germany",ChIJKwo6QChQqEcRTDB0iUVseE4,"Nostitzstraße 12, 10961 -Kreuzberg",52.49184,13.3904619,1, Limonadier,10961,OK,premise,52.49184,13.3904619
ROOFTOP,63780,"Mehringdamm 61, 10961 Berlin, Germany",ChIJTYo9gChQqEcRH5Dj7rl9HLo,"Mehringdamm 61, 10961",52.4908091,13.3871714,1, Liquid Sky Berlin - #LSB02,10961,OK,street_address,52.4908091,13.3871714
ROOFTOP,40378,"Möckernstraße 10, 10963 Berlin, Germany",ChIJWaWSpTJQqEcRu84KBTesmow,"Möckernstraße 10, 10963",52.50158390000001,13.3811564,1, Liquidrom,10963,OK,premise,52.50158390000001,13.3811564
ROOFTOP,52449,"Maybachufer 48, 12045 Berlin, Germany",ChIJkxVE9bFPqEcRER4eG6CzEQA,Maybachufer 48; Neukölln; 12045,52.4904869,13.435771,1, Loftus Hall,12045,OK,street_address,52.4904869,13.435771
ROOFTOP,16367,"Boddinstraße 60, 12053 Berlin, Germany",ChIJXcCvVrtPqEcR5GNd0ENkAZo,Boddinstrasse 60; Neukölln; 12053,52.4806591,13.4330371,1, Loophole,12053,OK,premise,52.4806591,13.4330371
ROOFTOP,98526,"Torstraße 225, 10115 Berlin, Germany",ChIJp-OPWulRqEcRAQnWL_ijfdQ,"Torstraße 225, 10115",52.527542,13.388054,1, Lustbar,10115,OK,street_address,52.527542,13.388054
ROOFTOP,15418,"Oranienstraße 34, 10999 Berlin, Germany",ChIJe-IgvDNOqEcRqmCBEabyBJ8,Oranienstrasse 34; Kreutzberg; 10999,52.501742,13.418312,1, Luzia,10999,OK,street_address,52.501742,13.418312
ROOFTOP,28667,"Lübbener Str. 19, 10997 Berlin, Germany",ChIJOQNYQUxOqEcRwEBXa3BF-K4,"Lübbener Str. 19, 10997",52.4996325,13.4373429,1, Madame Claude,10997,OK,premise,52.4996325,13.4373429
ROOFTOP,37540,"Holzmarktstraße 15, 10179 Berlin, Germany",ChIJ34TAeDtOqEcRGTT_Qx6-TWU,"Holzmarktstraße 15, 10179",52.51375729999999,13.4226856,1, Marie Antoinette,10179,OK,street_address,52.51375729999999,13.4226856
ROOFTOP,139384,"Ziegrastraße 1, 12057 Berlin, Germany",ChIJ-8rPew5PqEcRt1RLqdAAzAk,"Ziegrastrasse 1, 12057",52.47742299999999,13.459496,1, Marin Fischrestaurant,12057,OK,premise,52.47742299999999,13.459496
ROOFTOP,146612,"Niederkirchnerstraße 7, 10117 Berlin, Germany",ChIJM55ewc1RqEcR0P27nGRFgKw,"Niederkirchnerstraße 7, 10963",52.5066485,13.3819377,1, Martin-Gropius-Bau,10117,OK,street_address,52.5066485,13.3819377
ROOFTOP,158776,"Am Falkpl. 1, 10437 Berlin, Germany",ChIJs5CUGwNSqEcR2sxK5lXPngI,"Am Falkpl. 1, 10437",52.5459436,13.4061159,1, Max-Schmeling-Halle,10437,OK,premise,52.5459436,13.4061159
ROOFTOP,106915,"Mehringdamm 61, 10961 Berlin, Germany",ChIJTYo9gChQqEcRH5Dj7rl9HLo,"Mehringdamm 61, 10961",52.4908091,13.3871714,1, Maze,10961,OK,street_address,52.4908091,13.3871714
GEOMETRIC_CENTER,18924,"Dircksenstraße, Berlin, Germany",ChIJXWn7yyFOqEcRR1r743v9SJM,Dircksenstrasse; Mitte; 10178,52.5198711,13.4140388,1, M-Bia,,OK,route,52.5198711,13.4140388
ROOFTOP,32136,"Brunnenstraße 197-198, 10119 Berlin, Germany",ChIJLfZp9-RRqEcRf9NSzd-OqT0,Brunnenstrasse 197-198; Mitte; 10119,52.52998299999999,13.4007594,1, Mein Haus Am See,10119,OK,street_address,52.52998299999999,13.4007594
ROOFTOP,150248,"Münchener Str. 21, 90478 Nürnberg, Germany",ChIJucA27XtXn0cREIYRwlYkN74,"Münchener Str. 21, 90478 Nürnberg",49.4373145,11.1042448,1, Meistersingerhalle,90478,OK,street_address,49.4373145,11.1042448
ROOFTOP,147372,"Greifswalder Str. 218, 10405 Berlin, Germany",ChIJw91eZwVOqEcRBp4bTYBFg4A,"Greifswalder Str. 218, 10405",52.53128,13.42626,1, Melloch Bar,10405,OK,street_address,52.53128,13.42626
ROOFTOP,81430,"An der Wuhlheide 250, 12459 Berlin, Germany",ChIJNZ3_t2FIqEcRfNv63LvjUmw,"An der Wuhlheide 250-256, D-12555",52.4558695,13.5635956,1, Mellowpark,12459,OK,street_address,52.4558695,13.5635956
ROOFTOP,103373,"Storkower Str. 121, 10407 Berlin, Germany",ChIJ5WHC1XVOqEcR5LvAgTpV0xU,"Storkower Str. 121, 10407",52.5351784,13.4523689,1, Mensch Meier,10407,OK,premise,52.5351784,13.4523689
ROOFTOP,14245,"Warschauer Str. 39-40, 10243 Berlin, Germany",ChIJGcZbblBOqEcRSMYtolOO4BI,"Warschauer Str. 39/40, 10243",52.50471,13.44779,1, Michelberger Hotel,10243,OK,street_address,52.50471,13.44779
APPROXIMATE,46327,"14913 Niedergörsdorf, Germany",ChIJ46EdVQfVp0cRwJleW0YgIQQ,14913 Niedergörsdorf - Land Brandenburg,51.9807948,12.9884985,1, Militärflugplatz,14913,OK,"locality,political",51.9807948,12.9884985
ROOFTOP,23370,"Rigaer Str. 31, 10247 Berlin, Germany",ChIJtWjVRWBOqEcRU8oT1wtgWm4,Rigaer Strasse 31; Friedrichshain; 10247,52.51638999999999,13.46406,1, Minimal Bar,10247,OK,street_address,52.51638999999999,13.46406
ROOFTOP,51949,"Reichenberger Str. 177, 10999 Berlin, Germany",ChIJ59TOEzNOqEcRBqTuXq4l3gg,"Reichenberger Str. 177, 10999",52.50004500000001,13.417503,1, Möbel-Olfe,10999,OK,street_address,52.50004500000001,13.417503
ROOFTOP,133475,"Gottlieb-Dunkel-Straße 43-44, 12099 Berlin, Germany",ChIJfaaqbopPqEcRJR25Wi-sVFo,"Gottlieb-Dunkel-Straße 43/44, 12099",52.45643579999999,13.41133,1, Modular+,12099,OK,street_address,52.45643579999999,13.41133
ROOFTOP,158661,"Danziger Str. 56, 10435 Berlin, Germany",ChIJSb5s7gBOqEcRZoVI-HvqC2k,"Danziger Str. 56, 10435",52.5394705,13.4209011,1, Mokum Berlin,10435,OK,street_address,52.5394705,13.4209011
ROOFTOP,19219,"Skalitzer Str. 134, 10999 Berlin, Germany",ChIJYTCanzROqEcRu13myLXodFg,Skalitzer Strasse 134; Kreuzberg; 10999,52.49937250000001,13.4187919,1, Monarch,10999,OK,street_address,52.49937250000001,13.4187919
ROOFTOP,144489,"Nalepastraße 18, 12459 Berlin, Germany",ChIJZXscXC5PqEcRJm5vQzzgAlU,"Nalepastraße 18, 12459",52.4800665,13.5003142,1, MONOM,12459,OK,premise,52.4800665,13.5003142
ROOFTOP,9391,"Warschauer Str. 34, 10243 Berlin, Germany",ChIJZWgpeFBOqEcRnupP4xMZ44o,"Warschauer Str. 34, 10243",52.50524480000001,13.4483818,1, Monster Ronson's Ichiban Karaoke,10243,OK,street_address,52.50524480000001,13.4483818
ROOFTOP,155727,"Simon-Dach-Straße 3, 10245 Berlin, Germany",ChIJjzOBgV5OqEcRVRJZ1q8WuCc,"Simon-Dach-Straße 3, 10245",52.51251689999999,13.4567581,1, Monti,10245,OK,premise,52.51251689999999,13.4567581
ROOFTOP,130861,"Schönhauser Allee 36, 10435 Berlin, Germany",ChIJI1LmRf5RqEcRanabz7p0i50,"Schönhauser Allee 36, 10435",52.5386047,13.4130561,1, Moon Club Berlin,10435,OK,street_address,52.5386047,13.4130561
ROOFTOP,138432,"Weserstraße 189, 12045 Berlin, Germany",ChIJTX6jF7BPqEcRY4isnoLR_B8,Weserstr. 189 12045,52.4863294,13.4353576,1, Motif Wein,12045,OK,street_address,52.4863294,13.4353576
ROOFTOP,136536,"Andreasstraße 76, 10243 Berlin, Germany",ChIJk5nF7zhOqEcRrC1bC4sbuFI,"Andreasstraße 76-78, 10243",52.5110221,13.4301186,1, Moxy Berlin Ostbahnhof,10243,OK,street_address,52.5110221,13.4301186
ROOFTOP,153107,"Heinitzstraße 41, 15562 Rüdersdorf bei Berlin, Germany",ChIJZS0RNkExqEcR3mHgT3thoi0,"Heinitzstr. 41, 15562, Rüdersdorf bei",52.4811631,13.7832618,1, Museumspark Rüdersdorf,15562,OK,premise,52.4811631,13.7832618
ROOFTOP,113631,"Falckensteinstraße 48, 10997 Berlin, Germany",ChIJfYps9FFOqEcR3aVtAz10R7g,"Falckensteinstraße 48, 10997",52.5007405,13.4449256,1, Musik & Frieden,10997,OK,street_address,52.5007405,13.4449256
ROOFTOP,103538,"Greifswalder Str. 23A, 10405 Berlin, Germany",ChIJHVN_7g9OqEcRgl53UKlzf3I,Greifswalder Str.23A,52.5312181,13.4278374,1, Musikbrauerei,10405,OK,street_address,52.5312181,13.4278374
ROOFTOP,127151,"Blücherstraße 22, 10961 Berlin, Germany",ChIJm0H0kdZPqEcROmAPBjPQeKc,"Blücherstrasse 22, 10961",52.4938702,13.3984408,1, Muting The Noise,10961,OK,premise,52.4938702,13.3984408
ROOFTOP,117176,"Schlesische Str. 35, 10997 Berlin, Germany",ChIJIY78OlJOqEcRcN24qOIv_Vg,"Schlesische Str. 35, 10997",52.4995529,13.4452059,1, Mysliwska,10997,OK,street_address,52.4995529,13.4452059
ROOFTOP,146565,"Oranienburger Str. 4, 10178 Berlin, Germany",ChIJt8_f0eBRqEcRXBF7NwwLd2E,"Oranienburger Straße 4, 10178 Deutschland",52.5237949,13.4010827,1, N3 Club,10178,OK,premise,52.5237949,13.4010827
ROOFTOP,82056,"Pappelallee 21A, 10437 Berlin, Germany",ChIJQV1PXgBSqEcRCTjQmybcf_Q,Pappelallee 21a 10437,52.5442984,13.4161679,1, Nachbeben,10437,OK,premise,52.5442984,13.4161679
ROOFTOP,126445,"Budapester Str. 40, 10787 Berlin, Germany",ChIJ-RAVYVVQqEcR7BN7HG1zkwk,"Budapester Str. 40, 10787",52.50561949999999,13.3379602,1, NENI Berlin / Monkey Bar,10787,OK,street_address,52.50561949999999,13.3379602
ROOFTOP,146516,"Lützner Str. 29, 04177 Leipzig, Germany",ChIJ--IxWqL3pkcRQnBz8uZ8BWg,"Lützner Str.29, 04177 Leipzig, Sachsen",51.3357951,12.3340342,1, Neues Schauspiel Leipzig,04177,OK,premise,51.3357951,12.3340342
APPROXIMATE,47404,"10965 Berlin, Germany",ChIJLWVmFdlPqEcR8OM9lUkgIRw,"Neukölln, 10965",52.4853765,13.3989037,1, Neuköllner Hasenheide,10965,OK,postal_code,52.4853765,13.3989037
ROOFTOP,60681,"nhow Berlin, Stralauer Allee 3, 10245 Berlin, Germany",ChIJQUmQNVFOqEcRzqNBfDUFdBs,"Stralauer Allee 3, 10245",52.50119189999999,13.4508457,1, Nhow Hotel,10245,OK,premise,52.50119189999999,13.4508457
ROOFTOP,123071,"Helsingforser Str. 11, 10243 Berlin, Germany",ChIJffRik0ROqEcRHzGBhZXS0co,"Helsingsforser Str. 11-13, 10243",52.51018260000001,13.4454731,1, Nirgendwo,10243,OK,street_address,52.51018260000001,13.4454731
ROOFTOP,142616,"Oranienburger Str. 4, 10178 Berlin, Germany",ChIJS2wxHMVRqEcR3pk62Y-6w0s,N3 Club Oranienburger str 4 10178,52.5237949,13.4010827,1, Nordwind Clubnight,10178,OK,"establishment,point_of_interest",52.5237949,13.4010827
ROOFTOP,147686,"Schönhauser Allee 52, 10437 Berlin, Germany",ChIJi7MxzgFSqEcRZDvKI1uPGFE,"Schönhauser Allee 52, 10437",52.54289139999999,13.4127189,1, OAK & ICE,10437,OK,street_address,52.54289139999999,13.4127189
ROOFTOP,127014,"Revaler Str. 99, 10245 Berlin, Germany",ChIJsdkMp1lOqEcRq8YbzXSVlqI,"Revaler Str. 99, 10245",52.5077221,13.4542457,1, The Off,10245,OK,street_address,52.5077221,13.4542457
ROOFTOP,75457,"Köpenicker Str. 70, 10179 Berlin, Germany",ChIJ2RpH5TpOqEcRWK0z_M__z18,"Köpenicker Str. 70, 10179",52.5110009,13.4195187,1, OHM,10179,OK,premise,52.5110009,13.4195187
ROOFTOP,155709,"Weichselstraße 49, 12045 Berlin, Germany",ChIJxzVKIbBPqEcRn8szPHCIwd0,Weichselstr. 49 D-12045 -Neukölln,52.4868216,13.4360544,1, Ohrenhoch,12045,OK,premise,52.4868216,13.4360544
ROOFTOP,146334,"Weichselstraße 49, 12045 Berlin, Germany",ChIJxzVKIbBPqEcRn8szPHCIwd0,"Weichselstraße 49, 12045",52.4868216,13.4360544,1," Ohrenhoch, der Geräuschladen",12045,OK,premise,52.4868216,13.4360544
ROOFTOP,135008,"Torstraße 58, 10119 Berlin, Germany",ChIJnY82Z-JRqEcRhj1I9DQhqts,"Torstraße 58, 10119",52.52868309999999,13.4087578,1, Old CCCP,10119,OK,premise,52.52868309999999,13.4087578
ROOFTOP,13603,"Olympischer Platz 3, 14053 Berlin, Germany",ChIJ00RwPxxXqEcR4VGYKwG-Itk,"Olympischer Platz 3, 14053",52.5153057,13.2395208,1, Olympic Stadium,14053,OK,premise,52.5153057,13.2395208
ROOFTOP,153098,"Oranienpl. 17, 10999 Berlin, Germany",ChIJhVPKSjJOqEcRGjqtPYxNP8M,"Oranienplatz 17, 10999",52.5022169,13.4168669,1, Orania.Berlin,10999,OK,street_address,52.5022169,13.4168669
ROOFTOP,126273,"Möckernstraße 120, 10963 Berlin, Germany",ChIJT6a39i1QqEcRJdwBo6eyNiM,"Möckernstraße 120, 10963",52.4979926,13.3802938,1, Orenstein & Koppel Lofts,10963,OK,premise,52.4979926,13.3802938
ROOFTOP,157432,"Rheinstraße 18, 12159 Berlin, Germany",ChIJL_EVjnlQqEcRryxMnZMD9M0,Rheinstraße 18 12159,52.469294,13.3325069,1, Original Cut Masters,12159,OK,premise,52.469294,13.3325069
ROOFTOP,149002,"Frank-Zappa-Straße 19, 12681 Berlin, Germany",ChIJzQT9yAVMqEcR3FpEUJU4fcc,"Frank-Zappa-Straße 19, 12681 Berli",52.53733,13.52953,1, Orwo Haus,12681,OK,street_address,52.53733,13.52953
ROOFTOP,141987,"Alt-Stralau 1-2, 10245 Berlin, Germany",ChIJIZI7HPxOqEcRgEsN8Bf9A2g,"Alt-Stralau, 1-2 Friedrichshain 10245",52.49715,13.46502,1, OST,10245,OK,street_address,52.49715,13.46502
ROOFTOP,153312,"Alt-Stralau 1-2, 10245 Berlin, Germany",ChIJIZI7HPxOqEcRgEsN8Bf9A2g,Alt Stralau 1-2,52.49715,13.46502,1, Osthafen,10245,OK,street_address,52.49715,13.46502
ROOFTOP,80808,"Friedelstraße 49, 12047 Berlin, Germany",ChIJVV3w77ZPqEcRgdb14UJjbIY,"Friedelstr. 49, 12047",52.48953849999999,13.4273941,1, OYE Kreuzkoelln,12047,OK,street_address,52.48953849999999,13.4273941
ROOFTOP,8957,"Skalitzer Str. 135, 10999 Berlin, Germany",ChIJ03wjXjNOqEcRhimG1ZkndGw,"Skalitzer Str. 135, 10999",52.4993177,13.4189874,1, Paloma,10999,OK,street_address,52.4993177,13.4189874
ROOFTOP,136646,"Am Flutgraben 2, 12435 Berlin, Germany",ChIJZ_q0lzROqEcRLmty9qmUZcI,"Festsaal Kreuzberg Biergarten, Am Flutgraben 2, 12435",52.4967039,13.4515843,2, Paloma Sommerlager,12435,OK,"establishment,food,point_of_interest,restaurant",52.4967039,13.4515843
ROOFTOP,41485,"Gerichtstraße 23, 13347 Berlin, Germany",ChIJGwOte4hRqEcRt65DQT5lWYs,"Gerichtstraße 23, 13347",52.5445587,13.372549,1, Panke,13347,OK,premise,52.5445587,13.372549
ROOFTOP,56022,"Marheinekepl. 1, 10961 Berlin, Germany",ChIJNTlg4NlPqEcR26oPi0jSpoM,"Marheinekepl. 1, 10961",52.4895235,13.3971431,1, Passionskirche,10961,OK,premise,52.4895235,13.3971431
ROOFTOP,36288,"Friedenstraße 101, 10249 Berlin, Germany",ChIJrZnkYBFOqEcRflaOLc77SEo,"Friedenstraße 101, 10249",52.52509,13.43176,1, Pavillon,10249,OK,street_address,52.52509,13.43176
ROOFTOP,137909,"Kaiserin-Augusta-Allee 101, 10553 Berlin, Germany",ChIJQ5TvfhZRqEcRMLJe3xqJq0s,"Kaiserin-Augusta-Allee 101, 10553",52.5255149,13.3198546,1, Petersburg Art Space,10553,OK,premise,52.5255149,13.3198546
ROOFTOP,144096,"Schönhauser Allee 176, 10119 Berlin, Germany",ChIJcZlRq-JRqEcRFXQP8EdnU_c,"Schönhauser Allee 176, 10119",52.5317112,13.4120256,1, Pfefferberg Theater,10119,OK,street_address,52.5317112,13.4120256
ROOFTOP,62426,"Herbert-von-Karajan-Straße 1, 10785 Berlin, Germany",ChIJK_QFBbZRqEcRPESmErAyNSg,Herbert-von-Karajan-Straße 1,52.5098485,13.3699181,1, Philharmonie Berlin,10785,OK,street_address,52.5098485,13.3699181
ROOFTOP,101044,"Pappelallee 65, 10437 Berlin, Germany",ChIJladm6wBSqEcR9rznkWfOCQU,"Pappelallee 65, 10437",52.5454632,13.4167434,1, Phonoclub,10437,OK,premise,52.5454632,13.4167434
ROOFTOP,68176,"Wiesenweg 1-4, 10365 Berlin, Germany",ChIJsesPiPFOqEcR7X5DCZ2vGtg,Wiesenweg 1-4; Friedrichshain; 10365,52.5074565,13.4742189,1, Polygon Club,10365,OK,street_address,52.5074565,13.4742189
ROOFTOP,157019,"Potsdamer Straße 180, 10783 Berlin, Germany",ChIJ03WpCkhQqEcRsTEp-SRLqlk,"Potsdamer Str. 180, 10783",52.49386,13.3606,1, Potse,10783,OK,street_address,52.49386,13.3606
ROOFTOP,91909,"Ganghoferstraße 2, 12043 Berlin, Germany",ChIJFzJE8aNPqEcRsl1pQsQSgMk,"Ganghoferstraße 2, 12043",52.4790697,13.4388571,1, Prachtwerk Berlin,12043,OK,street_address,52.4790697,13.4388571
ROOFTOP,105050,"Schliemannstraße 5, 10437 Berlin, Germany",ChIJK5c4DwBOqEcRN0II9Fw5nW4,"Schliemannstraße 5, 10437",52.54118,13.41787,1, Praegewerk,10437,OK,street_address,52.54118,13.41787
ROOFTOP,58686,"Colbestraße 26, 10247 Berlin, Germany",ChIJ8bEMm19OqEcRD5PyOujsOGI,"Colbestraße 26, 10247",52.5123409,13.4632369,1, Pride,10247,OK,premise,52.5123409,13.4632369
ROOFTOP,52395,"Prinzenstraße 85, 10969 Berlin, Germany",ChIJUVwutC1OqEcRGPAvblEBPSM,Prinzenstrasse 85; Friedrichshain-Kreuzberg; 10969,52.5031115,13.4099611,1, Prince Charles,10969,OK,street_address,52.5031115,13.4099611
ROOFTOP,12752,"Skalitzer Str. 85-86, 10997 Berlin, Germany",ChIJ-T40EkxOqEcRb6yDfpqzT6w,"Skalitzer Straße 85-86, 10997",52.50031999999999,13.4364801,1, Privatclub,10997,OK,street_address,52.50031999999999,13.4364801
ROOFTOP,88900,"Schillerpromenade 11, 12049 Berlin, Germany",ChIJI2LL95VPqEcRz3NG6GKfymI,"Schillerpromenade 11, 12049",52.475866,13.4220073,1, Promenaden Eck,12049,OK,street_address,52.475866,13.4220073
ROOFTOP,17219,"Tauentzienstraße 11, 10789 Berlin, Germany",ChIJ7ymLh1VQqEcRtaHeZpVM1as,Tauentzienstrasse 11; Kreuzberg; 10789,52.50452970000001,13.3377401,2, Puro,10789,OK,street_address,52.50452970000001,13.3377401
ROOFTOP,149553,"Kirchstraße 25, 10557 Berlin, Germany",ChIJycnG5KBRqEcRP9CGgxPmdmg,"Kirchstraße 25, 10557",52.5241708,13.349763,1, R_1992,10557,OK,premise,52.5241708,13.349763
ROOFTOP,7231,"Holzmarktstraße 33, 10243 Berlin, Germany",ChIJhz8mADlOqEcR2lw7-iNCoDM,"Holzmarktstraße 33, 10243",52.51056999999999,13.42873,1, Radialsystem,10243,OK,street_address,52.51056999999999,13.42873
ROOFTOP,116529,"Frankfurter Allee 23, 10247 Berlin, Germany",ChIJYbu8sWBOqEcR6M_TS2gM5kk,Frankfurter Allee 23,52.5158894,13.459121,1, Radio The Label Bar,10247,OK,street_address,52.5158894,13.459121
ROOFTOP,157018,"Schönhauser Allee 36-39, 10435 Berlin, Germany",ChIJgSHqQ_5RqEcR_wusuJS-XW4,"Schönhauser Allee 36-39, 10435",52.5383033,13.4127523,1, Rambazamba Theater (Kulturbrauerei),10435,OK,premise,52.5383033,13.4127523
ROOFTOP,138911,"Markgrafendamm 24c, 10245 Berlin, Germany",ChIJE3PM7_lOqEcRx7NIgXOdQVA,Markgrafendamm 24c 10245 -Friedrichshain,52.50255900000001,13.4663169,1, Raumerweiterungshalle,10245,OK,street_address,52.50255900000001,13.4663169
ROOFTOP,3301,"Libauer Str. 1, 10245 Berlin, Germany",ChIJNWgt_1tOqEcRO7jmhsl4DA4,Libauer Strasse 1; Friedrichshain; 10245,52.5099472,13.4547588,1, Raumklang,10245,OK,street_address,52.5099472,13.4547588
ROOFTOP,83893,"Revaler Str. 99, 10245 Berlin, Germany",ChIJsdkMp1lOqEcRq8YbzXSVlqI,Revaler Strasse 99; Friedrichshain; 10245,52.5077221,13.4542457,1, RAW Club,10245,OK,street_address,52.5077221,13.4542457
ROOFTOP,7302,"Revaler Str. 99, 10245 Berlin, Germany",ChIJsdkMp1lOqEcRq8YbzXSVlqI,"Revaler Str. 99, 10245",52.5077221,13.4542457,1, Raw Tempel,10245,OK,street_address,52.5077221,13.4542457
ROOFTOP,145826,"Ohlauer Str. 43, 10999 Berlin, Germany",ChIJ1d0Y-LRPqEcRgcl4FkbMzxk,"Ohlauer Str. 43, 10999",52.49406639999999,13.4292826,1, Red Bull Music Studios,10999,OK,street_address,52.49406639999999,13.4292826
ROOFTOP,150187,"Karl-Liebknecht-Str. 13, 10178 Berlin, Germany",ChIJB5Ur4B9OqEcRCJxlCbhOxdk,"Karl-Liebknecht-Str. 13, 10178",52.5220352,13.4077372,1, The Reed,10178,OK,street_address,52.5220352,13.4077372
ROOFTOP,151890,"Am Hamburger Bahnhof 4, 10557 Berlin, Germany",ChIJm8_D2ZBRqEcRL6slqc2-xY0,"Am Hamburger Bahnhof 4, 10557",52.5316215,13.3691311,1, Reinhard Bär Restaurant und Café,10557,OK,street_address,52.5316215,13.3691311
ROOFTOP,103425,"Lausitzer Str. 1, 10999 Berlin, Germany",ChIJycdJ-kpOqEcRsD7Kh188tE0,"Lausitzer Str. 1, 10999",52.4989316,13.4301189,1, Repeat,10999,OK,street_address,52.4989316,13.4301189
ROOFTOP,155292,"Rhinower Str. 3, 10437 Berlin, Germany",ChIJTeUfdQRSqEcRE46iIzDobGo,"Rhinower Str. 3, 10437",52.5480145,13.4104374,1, Rhinoçéros,10437,OK,premise,52.5480145,13.4104374
ROOFTOP,6950,"Ritterstraße 26, 10969 Berlin, Germany",ChIJu8m_QyxOqEcRu_JZRCm9ec4,Ritterstrasse 26; Kreuzberg; 10969,52.50291,13.40791,1, Ritter Butzke,10969,OK,street_address,52.50291,13.40791
ROOFTOP,152304,"Weinbergsweg 13, 10119 Berlin, Germany",ChIJtUczrORRqEcRDP3Ji4yQcsE,"Weinbergsweg 13, 10119",52.53205,13.4038,1, Rosengarten Berlin,10119,OK,street_address,52.53205,13.4038
ROOFTOP,3708,"Revaler Str. 29, 10245 Berlin, Germany",ChIJqzlo6vdOqEcRm3j6pherS0w,Revaler Strasse 29; Friedrichshain; 10245,52.50512699999999,13.4625051,1, Rosi's,10245,OK,premise,52.50512699999999,13.4625051
GEOMETRIC_CENTER,13368,"Rosa-Luxemburg-Platz, 10178 Berlin, Germany",ChIJe6Vo3R1OqEcRxo0PyQzHMeI,"Rosa-Luxemburg-Platz, 10178",52.5266977,13.4113305,1, Roter Salon,10178,OK,route,52.5266977,13.4113305
ROOFTOP,147587,"Holzmarktstraße 25, 10243 Berlin, Germany",ChIJY1wYbDlOqEcRSRXkkq9B_14,"Holzmarktstraße 25, 10243",52.5117851,13.4258816,1, Säälchen,10243,OK,street_address,52.5117851,13.4258816
ROOFTOP,147855,"Cuvrystraße 4, 10997 Berlin, Germany",ChIJnZtLL1JOqEcREvNc9_HGAy4,"Cuvrystraße 4, 10997",52.49997339999999,13.4458621,1, SAE Institute,10997,OK,street_address,52.49997339999999,13.4458621
ROOFTOP,47291,"Köpenicker Str. 18-20, 10997 Berlin, Germany",ChIJsXtbQ0hOqEcR1LQOi4_qOnY,Köpenicker Str. 18-20 10997,52.50557999999999,13.43297,1, Sage Beach Berlin,10997,OK,street_address,52.50557999999999,13.43297
ROOFTOP,8556,"Alt-Stralau 70, 10245 Berlin, Germany",ChIJ-YtXA_xOqEcRYk6AIyQ3l60,Alt Stralau 70; Friedrichshain; 10245,52.49744,13.46531,1, Salon Zur Wilden Renate,10245,OK,street_address,52.49744,13.46531
ROOFTOP,34420,"Richardstraße 10, 12043 Berlin, Germany",ChIJSdb53qNPqEcRiDK1secNyuE,Richardstrasse 10; Neukölln; 12043,52.4778181,13.4390955,1, Sameheads,12043,OK,premise,52.4778181,13.4390955
ROOFTOP,151313,"Mittenwalder Str. 15, 10961 Berlin, Germany",ChIJ7yUkq9dPqEcRDD2Ast4K2Wo,"Mittenwalder Strasse 15, 10961",52.49239619999999,13.3965055,1, Sankt Studio,10961,OK,premise,52.49239619999999,13.3965055
ROOFTOP,126817,"Forster Str. 46, 10999 Berlin, Germany",ChIJ04JuY7NPqEcRsMqneJlCYEk,"Forster Str. 46, 10999",52.49448,13.4327999,1, Sauer Mutter,10999,OK,street_address,52.49448,13.4327999
ROOFTOP,113791,"Weisestraße 35, 12049 Berlin, Germany",ChIJHYFHOJZPqEcRWtrolugRc0w,"Weisestraße 35, 12049",52.474162,13.4250744,1, Savo Bar Café,12049,OK,street_address,52.474162,13.4250744
ROOFTOP,119761,"Plantagenstraße 31, 13347 Berlin, Germany",ChIJ07-6RodRqEcRu-5KLLHCq9o,"Plantagenstraße 31, 13347, Wedding",52.54622860000001,13.3665865,1, Savvy Contemporary,13347,OK,street_address,52.54622860000001,13.3665865
ROOFTOP,116594,"Karl-Liebknecht-Straße 20, 03046 Cottbus, Germany",ChIJGZzXdGZ0CEcRuL4l825m0CM,"Karl-Liebknecht-Straße 20, 03046 Cottbus",51.7567834,14.3268552,1, Scandale - Le Locale Fatale,03046,OK,premise,51.7567834,14.3268552
ROOFTOP,145306,"Revaler Str. 99, 10245 Berlin, Germany",ChIJsdkMp1lOqEcRq8YbzXSVlqI,"Revaler Str. 99, 10245",52.5077221,13.4542457,1, Scape,10245,OK,street_address,52.5077221,13.4542457
ROOFTOP,152522,"Heinitzstraße 43, 15562 Rüdersdorf bei Berlin, Germany",ChIJYTJxJUIxqEcRoKxrAhkCunw,"Heinitzstraße 43, 15562 Rüdersdorf bei",52.4825177,13.7883163,1, Schachtofenbatterie,15562,OK,street_address,52.4825177,13.7883163
GEOMETRIC_CENTER,145852,"Wilhelmstraße, 10963 Berlin, Germany",EiVXaWxoZWxtc3RyYXNzZSwgMTA5NjMgQmVybGluLCBHZXJtYW55IkgqRgoUChIJNxVUHM5RqEcR0jVOpHKa_-gSFAoSCTHRtF8yUKhHEaD1P5VJICEcGhgKCg0PfUofFYpB-gcSCg2hZkwfFYMJ-wc,"10963, Wilhelmstraße, 10963",52.5038943,13.3873775,1, Schicksaal-Tommyhaus,10963,OK,route,52.5038943,13.3873775
ROOFTOP,21027,"Weserstraße 9, 12047 Berlin, Germany",ChIJDWlTLrdPqEcRIWilFa6gHVo,"Weserstraße 9, 12047",52.4882094,13.4285893,1, Schillingbar,12047,OK,street_address,52.4882094,13.4285893
ROOFTOP,112222,"Saarbrücker Str. 23, 10405 Berlin, Germany",ChIJOXMaSB1OqEcRnl9CXsN20RU,Saarbrücker Straße 23 10405,52.53060139999999,13.4134281,1, Schlagwerk,10405,OK,street_address,52.53060139999999,13.4134281
ROOFTOP,137022,"Lohmühlenstraße 1, 12435 Berlin, Germany",ChIJja_9YlNOqEcRuxDlxOFU_Dg,"Lohmühlenstraße 1, 12435",52.49647,13.44864,1, Schlesischer Busch,12435,OK,street_address,52.49647,13.44864
ROOFTOP,143822,"Skalitzer Str. 135A, 10999 Berlin, Germany",ChIJTRKDYDNOqEcR2_TcTOWJQ_s,"Skalitzer Str. 135A, 10999",52.49936,13.41905,1, SchneidersLaden,10999,OK,street_address,52.49936,13.41905
ROOFTOP,6503,"Bernauer Str. 63, 13355 Berlin, Germany",ChIJxaD33_dRqEcRXqtize_Xagk,"Bernauer Str. 63, 13355",52.5419243,13.4018956,1, Schoenwetter,13355,OK,street_address,52.5419243,13.4018956
ROOFTOP,6503,"Bernauer Str. 63, 13355 Berlin, Germany",ChIJxaD33_dRqEcRXqtize_Xagk,"Bernauer Str. 63, 13355",52.5419243,13.4018956,1, Schoenwetter,13355,OK,street_address,52.5419243,13.4018956
ROOFTOP,34193,"Rollbergstraße 26, 12053 Berlin, Germany",ChIJ7yZZUqNPqEcRe3Ogtaad424,"Rollbergstraße 26, 12053",52.4795442,13.4329425,1, Schwuz,12053,OK,street_address,52.4795442,13.4329425
ROOFTOP,135944,"Columbiadamm 160, 10965 Berlin, Germany",ChIJhadej8BPqEcRKlV3PMRUoFs,"Columbiadamm 160, 10965",52.4797,13.41637,1, Scube Park Columbia,10965,OK,street_address,52.4797,13.41637
ROOFTOP,143982,"Gormannstraße 7, 10119 Berlin, Germany",ChIJWTEV2eNRqEcRrxK_lFKp-FU,"Gormannstraße 7, 10119",52.5270586,13.4046083,1, Seven Star Gallery,10119,OK,street_address,52.5270586,13.4046083
ROOFTOP,28975,"Sieversufer 22, 12359 Berlin, Germany",ChIJu92tu3pPqEcRbF_w69LUs50,"Sieversufer 22, 12359",52.46060199999999,13.4530862,1, Sieversufer 22,12359,OK,street_address,52.46060199999999,13.4530862
ROOFTOP,114471,"Gerichtstraße 35, 13347 Berlin, Germany",ChIJ_4cWH4dRqEcRsErX4RuEdkg,"Gerichtstraße 35, 13347",52.5450039,13.3665422,1, Silent Green Kulturquartier,13347,OK,street_address,52.5450039,13.3665422
ROOFTOP,140747,"Am Flutgraben 3, 12435 Berlin, Germany",ChIJ6ZQ3XTxPqEcR0tt9W9jwsmY,Am Flutgraben 3,52.4970977,13.4516979,1, Sinneslust-Oase,12435,OK,street_address,52.4970977,13.4516979
ROOFTOP,17118,"Hauptstraße 15, 10317 Berlin, Germany",ChIJwx7Ew95OqEcRyORk9R9VIxY,Hauptstrasse 15; Rummelsburg; 10317,52.4932172,13.4919033,1, Sisyphos,10317,OK,premise,52.4932172,13.4919033
ROOFTOP,147221,"Oranienstraße 142, 10969 Berlin, Germany",ChIJyzMqLCxOqEcR6FhOoGQwvQo,"Oranienstraße 142, 10969",52.5040188,13.4095659,1, Skyliveclub,10969,OK,street_address,52.5040188,13.4095659
ROOFTOP,84807,"Lehrter Str. 35, 10557 Berlin, Germany",ChIJ_UlhgZtRqEcRWfJQQbDFCQU,"Lehrter Str. 35, 10557",52.53425379999999,13.3593443,1, Slaughterhouse am Kulturfabrik Moabit,10557,OK,street_address,52.53425379999999,13.3593443
ROOFTOP,15179,"Oranienstraße 190, 10999 Berlin, Germany",ChIJG3xlXzROqEcRBFp2Cv9PSws,"Oranienstraße 190, 10999",52.50038439999999,13.4219941,1, So36,10999,OK,street_address,52.50038439999999,13.4219941
ROOFTOP,55558,"Knaackstraße 97, 10435 Berlin, Germany",ChIJkUpouP9RqEcRyhx26L9_1js,"KulturBrauerei, Knaackstraße 97, 10435",52.5393856,13.4137106,1, Soda Club,10435,OK,"establishment,point_of_interest",52.5393856,13.4137106
ROOFTOP,145124,"Torstraße 164, 10115 Berlin, Germany",ChIJgSEQ7uVRqEcR8yp6N97R6F8,"Torstr. 164, 10115",52.5288576,13.3959902,1, Sodom & Gomorra Ultra Lounge,10115,OK,premise,52.5288576,13.3959902
ROOFTOP,150445,"Augsburger Str. 41, 10789 Berlin, Germany",ChIJcVwt1f5QqEcRDbUDi_GPF0o,"Augsburger Straße 41, 10789",52.5024885,13.3318377,1, Sofitel Kurfürstendamm,10789,OK,premise,52.5024885,13.3318377
ROOFTOP,11809,"Stresemannstraße 76, 10963 Berlin, Germany",ChIJ2WSje81RqEcRHPYSzH3n4uc,"Stresemannstraße 76, 10963",52.50430799999999,13.383744,1, Solar,10963,OK,street_address,52.50430799999999,13.383744
ROOFTOP,156267,"Edisonstraße 63, 12459 Berlin, Germany",ChIJ8QnpA7dIqEcRhlzkQO0-4cs,"Edisonstr. 63, 12459",52.4623187,13.5136291,1, Sonnendeck Berlin,12459,OK,premise,52.4623187,13.5136291
ROOFTOP,131525,"Große Hamburger Str. 29-30, 10115 Berlin, Germany",ChIJrbyS5-ZRqEcR71AwwMPyz70,"Große Hamburger Straße 29-30, 10115",52.5253025,13.399192,1, Sophienkirche,10115,OK,street_address,52.5253025,13.399192
ROOFTOP,138508,"Revaler Str. 99, 10245 Berlin, Germany",ChIJsdkMp1lOqEcRq8YbzXSVlqI,"Revalerstr.99, 10245",52.5077221,13.4542457,1, Sound Kitchen Emma Pea,10245,OK,street_address,52.5077221,13.4542457
ROOFTOP,114070,"Reichenberger Str. 152, 10999 Berlin, Germany",ChIJ87hfSjVOqEcRjuvQJIACc88,"Reichenberger Str. 152, 10999",52.49742,13.4245647,1, Sound Metaphors,10999,OK,street_address,52.49742,13.4245647
ROOFTOP,152773,"Ziegrastraße 11, 12057 Berlin, Germany",ChIJH4zU5g1PqEcRT5yaMWF4hjY,"Ziegrastr. 11, 12057",52.4764363,13.459215,1, Sounds,12057,OK,street_address,52.4764363,13.459215
ROOFTOP,80194,"Zossener Str. 33, 10961 Berlin, Germany",ChIJ76-KjtdPqEcRc7fCpP00-eM,"Zossener Strasse 33, 10961",52.4904807,13.3945702,1, Spacehall Record Store,10961,OK,premise,52.4904807,13.3945702
ROOFTOP,68304,"Friedrich-Engels-Straße 22, 14473 Potsdam, Germany",ChIJ0U82y-31qEcRq6vq5eOrStI,"Friedrich-Engels-Straße 22, 14473 Potsdam",52.38937,13.07694,1, Spartacus Potsdam,14473,OK,street_address,52.38937,13.07694
ROOFTOP,110181,"Bürknerstraße 12, 12047 Berlin, Germany",ChIJo_NVEspPqEcR55W2aEhMjlk,Bürknerstraße 12 12047,52.4931978,13.4230399,1, Spektrum,12047,OK,street_address,52.4931978,13.4230399
ROOFTOP,3394,"Köpenicker Str. 16-17, 10997 Berlin, Germany",ChIJUR9LjUhOqEcRs6PoclGkkJc,"Köpenicker Str. 16-17, 10997",52.505555,13.435102,1, Spindler & Klatt,10997,OK,premise,52.505555,13.435102
ROOFTOP,152121,"Weichselstraße 38, 12045 Berlin, Germany",ChIJ87m1Oq5PqEcRdhN7DHEE4zI,"Weichselstraße 38, 12045",52.488431,13.438231,1, Sprachsalon Berlin,12045,OK,street_address,52.488431,13.438231
ROOFTOP,124506,"Wilhelmine-Gemberg-Weg 10, 10179 Berlin, Germany",ChIJ7e_uKTpOqEcRAKwBZFjoeq0,"Wilhelmine-Gemberg-Weg 10/12/14, 10179",52.51053289999999,13.4246814,1, Spreefeld Bootshaus,10179,OK,premise,52.51053289999999,13.4246814
ROOFTOP,104707,"Gubener Str. 41, 10243 Berlin, Germany",ChIJ90utoFxOqEcRfPUfc0W8Im0,"Gubener Straße 41, 10243",52.5107729,13.4496315,1, Spud Bencer,10243,OK,premise,52.5107729,13.4496315
ROOFTOP,117216,"Invalidenstraße 3, 10115 Berlin, Germany",ChIJHSYfAPBRqEcRj4xV9A1z1_c,Invalidenstr. 3 10115,52.5331265,13.3972492,1, St. Elisabeth Kirche,10115,OK,premise,52.5331265,13.3972492
ROOFTOP,159152,"Mariannenpl. 28, 10997 Berlin, Germany",ChIJx1xBrDdOqEcRPI1vDMep-ME,"Mariannenpl. 28, 10997",52.50546869999999,13.4268587,1, St. Thomas Kirche,10997,OK,street_address,52.50546869999999,13.4268587
ROOFTOP,22518,"Ritterstraße 26, 10969 Berlin, Germany",ChIJu8m_QyxOqEcRu_JZRCm9ec4,Ritterstrasse 26; Kreuzberg; 10969 Mitte,52.50291,13.40791,1, st.Georg,10969,OK,street_address,52.50291,13.40791
ROOFTOP,11753,"Krossener Str. 24, 10245 Berlin, Germany",ChIJXyJeL19OqEcRW6aZpMWeygU,Krossener Strasse 24; Friedrichshain; 10245,52.5101525,13.4603374,1, Stereo 33,10245,OK,street_address,52.5101525,13.4603374
ROOFTOP,155142,"An der Wuhlheide 197, 12459 Berlin, Germany",ChIJK7fkNI1IqEcRri5XBf4G_Cw,"An der Wuhlheide 197, 12459",52.46102,13.54962,1, Strandbad FEZ,12459,OK,street_address,52.46102,13.54962
ROOFTOP,19899,"Sportpromenade 9, 12527 Berlin, Germany",ChIJyY5nhnQ4qEcRSv3BCGXY8Sc,"Sportpromenade 9, 12527",52.4087255,13.6056755,1, Strandbad Grünau,12527,OK,street_address,52.4087255,13.6056755
ROOFTOP,34226,"Jungfernheideweg 60, 13629 Berlin, Germany",ChIJ70gbrrtWqEcRuWRjAzetEFw,"Jungfernheideweg 60, 13629",52.54378,13.27435,1, Strandbad Jungfernheide,13629,OK,street_address,52.54378,13.27435
ROOFTOP,121019,"Am Klostersee 13B, 14797 Kloster Lehnin, Germany",ChIJV8SDChqTqEcR-S-zt-qYQQQ,Am Klostersee 13b 14797 Kloster Lehnin,52.32850999999999,12.74631,1, Strandbad Lehnin,14797,OK,street_address,52.32850999999999,12.74631
APPROXIMATE,151589,"Alfred-Scholz-Platz, 12043 Berlin, Germany",ChIJlQSWiKNPqEcR1Je6Isn1RUg,Alfred-Scholz-Platz 12043 Neukölln,52.4793239,13.4374919,3, Strassen Bühne,12043,OK,,52.4793239,13.4374919
ROOFTOP,151186,"Brunnenstraße 183, 10119 Berlin, Germany",ChIJw2rYF-VRqEcRYekwyez6vh4,"Brunnenstrasse 183, 10119",52.5314612,13.3989984,1, Studio 183,10119,OK,premise,52.5314612,13.3989984
ROOFTOP,143430,"Uferstraße 8-11, 13357 Berlin, Germany",ChIJccyEDb9TqEcR4VBvdaaG524,"Studio dB - Uferstrasse 8-11, Studio A14 - 13357",52.5518203,13.374371,1, Studio dB,13357,OK,"establishment,night_club,point_of_interest",52.5518203,13.374371
ROOFTOP,104473,"Köpenicker Str. 55, 10179 Berlin, Germany",ChIJIRL6ajpOqEcRSmd66q-4YTI,"Köpenicker Str. 55, 10179",52.5097,13.42231,1, Studio r°,10179,OK,street_address,52.5097,13.42231
ROOFTOP,43297,"Admiralstraße 1-2, 10999 Berlin, Germany",ChIJwadaNTNOqEcRT6SwAstQw7Y,"Admiralstraße 1-2, 10999",52.498287,13.4168212,1, Südblock,10999,OK,street_address,52.498287,13.4168212
ROOFTOP,17071,"Revaler Str. 99, 10245 Berlin, Germany",ChIJsdkMp1lOqEcRq8YbzXSVlqI,Revaler Strasse 99; Friedrichshain; 10245,52.5077221,13.4542457,1, Suicide Circus,10245,OK,street_address,52.5077221,13.4542457
GEOMETRIC_CENTER,26014,"Jessnerstraße, 10247 Berlin, Germany",ChIJJybAg_ROqEcR5RPfo_fj4x8,"Jessnerstraße, 10247",52.511072,13.4717041,1, Supamolly,10247,OK,route,52.511072,13.4717041
ROOFTOP,11554,"Wühlischstraße 43, 10245 Berlin, Germany",ChIJk6eluVhOqEcRLmDO8mD8PYA,"Wühlischstraße 43, 10245",52.5086064,13.4610066,1, Süss War Gestern,10245,OK,street_address,52.5086064,13.4610066
ROOFTOP,150609,"Veteranenstraße 16, 10119 Berlin, Germany",ChIJbUtlI_tRqEcRYOSc4ujKjgE,"Veteranenstrasse 16, 10119 Deutschland",52.5335535,13.4022086,1, Suzie Mambo,10119,OK,premise,52.5335535,13.4022086
ROOFTOP,13913,"Schiffbauerdamm 11, 10117 Berlin, Germany",ChIJI8NDzcNRqEcRAQHLUW6_7pA,Schiffbauerdamm 11; Mitte; 10117,52.52088999999999,13.38459,1, Tausend,10117,OK,street_address,52.52088999999999,13.38459
ROOFTOP,18934,"Platz der Luftbrücke 5, 12101 Berlin, Germany",ChIJmzoVxehPqEcRB6YzEZWqGuM,Flughafen Tempelhof; Tempelhof; 12101,52.48244649999999,13.3892026,1, Tempelhof Airport,12101,OK,"establishment,point_of_interest",52.48244649999999,13.3892026
ROOFTOP,63458,"Möckernstraße 10, 10963 Berlin, Germany",ChIJWaWSpTJQqEcRu84KBTesmow,"Möckernstraße 10, 10963",52.50158390000001,13.3811564,1, Tempodrom,10963,OK,premise,52.50158390000001,13.3811564
ROOFTOP,152761,"Grolmanstraße 28, 10623 Berlin, Germany",ChIJu4vkl_xQqEcRd8H24Hog8R0,"Grolmanstrasse 28, 10623",52.5045219,13.3231664,1, Terzo Mondo,10623,OK,street_address,52.5045219,13.3231664
ROOFTOP,66322,"Teufelsseechaussee 10, 14193 Berlin, Germany",ChIJdStNO2pXqEcROUoHi3QuMOg,"Teufelseechaussee 10, Grunewald, 14193",52.4961334,13.2392013,1, Teufelsberg,14193,OK,street_address,52.4961334,13.2392013
ROOFTOP,104545,"Kleine Präsidentenstraße 4, 10178 Berlin, Germany",ChIJSx-jsuBRqEcRoORYgXDZSGE,"Kleine Präsidentenstraße 4, 10178",52.5226225,13.3999726,1, The Liberate,10178,OK,street_address,52.5226225,13.3999726
ROOFTOP,149981,"Danziger Str. 1, 10435 Berlin, Germany",ChIJHRwLdv9RqEcRGkNca7jEgpk,"Danziger Str. 1, 10435",52.5411559,13.4127789,1, Toast Hawaii,10435,OK,street_address,52.5411559,13.4127789
ROOFTOP,146986,"Möckernstraße 26, 10963 Berlin, Germany",ChIJxY8l4DFQqEcRTLPVTQ0gR7k,"Möckernstraße 26, 10963",52.49519180000001,13.377439,1, Tor Eins,10963,OK,street_address,52.49519180000001,13.377439
ROOFTOP,135694,"Treskowallee 129, 10318 Berlin, Germany",ChIJs2D2GtBIqEcRV1tV0XgWTts,"Treskowallee 129, 10318",52.4781929,13.5246451,1, Trabrennbahn Karlshorst,10318,OK,street_address,52.4781929,13.5246451
ROOFTOP,87128,"Alexanderstraße 7, 10178 Berlin, Germany",ChIJzUBDKBlOqEcRiZcv2MLSNQo,"Alexanderstr. 7, 10178",52.5230361,13.4166955,1, Traffic Club Berlin,10178,OK,street_address,52.5230361,13.4166955
ROOFTOP,12508,"Schlesische Str. 35A, 10997 Berlin, Germany",ChIJqYMTO1JOqEcR5ixNnM8qs_I,"Schlesische Straße 35 a, Kreuzberg",52.49961,13.44524,1, Transit Bar,10997,OK,street_address,52.49961,13.44524
ROOFTOP,157011,"Heidestraße 50, 10557 Berlin, Germany",ChIJPYgROJdRqEcRreA6YNh7l8g,"Heidestrasse 50, 10557",52.5303114,13.3670772,1, Trauma Bar und Kino,10557,OK,premise,52.5303114,13.3670772
ROOFTOP,156777,"Revaler Str. 99, 10245 Berlin, Germany",ChIJsdkMp1lOqEcRq8YbzXSVlqI,"Revaler Str. 99, 10245",52.5077221,13.4542457,1, Treehouse,10245,OK,street_address,52.5077221,13.4542457
GEOMETRIC_CENTER,18571,"Treptower Park, Alt-Treptow, 12435 Berlin, Germany",ChIJWVbXxhhPqEcR3OZE5GXI9I4,Treptower Park,52.4884599,13.4697445,2, Treptower Park,12435,OK,"establishment,park,point_of_interest",52.4884599,13.4697445
ROOFTOP,5494,"Köpenicker Str. 70, 10179 Berlin, Germany",ChIJ2RpH5TpOqEcRWK0z_M__z18,Köpenickerstrasse 70; Mitte; 10179,52.5110009,13.4195187,1, Tresor,10179,OK,premise,52.5110009,13.4195187
ROOFTOP,70817,"Wilhelmstraße 44, 10117 Berlin, Germany",ChIJu8AAvc9RqEcRrt-4rS51eVs,"Wilhelmstraße 44, 10117",52.51138,13.38392,1, Tschechisches Zentrum,10117,OK,street_address,52.51138,13.38392
ROOFTOP,93514,"Boddinstraße 57A, 12053 Berlin, Germany",ChIJu-gCX7tPqEcRfKsQ9PtZ6Ko,"Boddinstraße 57a, 12053",52.4804299,13.4315446,1, Twinpigs,12053,OK,street_address,52.4804299,13.4315446
ROOFTOP,121856,"Viktoriastraße 10-18, 12105 Berlin, Germany",ChIJhdT8HlRFqEcRA2rIxGLjdi0,"Viktoriastraße 10-18, 12105",52.4544783,13.381799,1, ufaFabrik - Internationales Kultur Centrum,12105,OK,street_address,52.4544783,13.381799
ROOFTOP,103395,"Fürbringerstraße 20A, 10961 Berlin, Germany",ChIJcV5p8tZPqEcRrBPN56AzDIY,"Fürbringerstrasse 20a, DE10961",52.493104,13.3979118,1, Unterrock Berlin,10961,OK,street_address,52.493104,13.3979118
ROOFTOP,136723,"Mehringdamm 32, 10961 Berlin, Germany",ChIJYUr6IilQqEcR4nrhX5xmkK4,"Mehringdamm 32, 10961",52.4938254,13.3879279,1, Untertage Berlin,10961,OK,street_address,52.4938254,13.3879279
ROOFTOP,68748,"Revaler Str. 99, 10245 Berlin, Germany",ChIJsdkMp1lOqEcRq8YbzXSVlqI,"Revaler Str. 99, 10245",52.5077221,13.4542457,1, Urban Spree,10245,OK,street_address,52.5077221,13.4542457
ROOFTOP,2629,"Paul-Heyse-Straße 26, 10407 Berlin, Germany",ChIJQyMZ33NOqEcRnZhf1WMm4hM,"Paul-Heyse-Straße 26, 10407",52.530817,13.450184,1, Velodrom Berlin,10407,OK,street_address,52.530817,13.450184
GEOMETRIC_CENTER,129980,"Herzbergstraße, Berlin, Germany",ChIJIWw-kptOqEcR6L814FBQEbA,"Herzbergstrasse, 10365",52.5265268,13.4926147,1, Velvet Monkeys - Club Berlin,,OK,route,52.5265268,13.4926147
ROOFTOP,144604,"Fehmarner Str. 4, 13353 Berlin, Germany",ChIJI8rZl3lRqEcRc6iSl2agSUQ,"Fehmarner Straße 4, 13353",52.54057,13.3487101,1, Venus des Westens,13353,OK,street_address,52.54057,13.3487101
GEOMETRIC_CENTER,156872,"Mercedes Platz, 10243 Berlin, Germany",ChIJvzZlpTxOqEcR4gXqLVxcuv4,"Verti Music Hall, Mercedes-Platz 1, 10243",52.5051145,13.4433182,1, Verti Music Hall,10243,OK,"establishment,point_of_interest",52.5051145,13.4433182
ROOFTOP,155861,"Scheffelstraße 21, 10367 Berlin, Germany",ChIJzXKqcolOqEcRlgJaAK-Zx2s,"Scheffelstraße 21, 10367",52.5201536,13.473208,1, Villa Kuriosum,10367,OK,street_address,52.5201536,13.473208
ROOFTOP,144145,"Müllerstraße 55, 13349 Berlin, Germany",ChIJr0Wxa9dTqEcRrFDK_faEJhg,Müllerstrasse 55,52.5535899,13.3470586,1, Vodoo55,13349,OK,street_address,52.5535899,13.3470586
ROOFTOP,106495,"Wiesenweg 5, 10365 Berlin, Germany",ChIJG90S8_FOqEcRcLK4spARRwA,"Wiesenweg 5, 10365",52.5076153,13.4757216,1, Void Club,10365,OK,street_address,52.5076153,13.4757216
GEOMETRIC_CENTER,8701,"Rosa-Luxemburg-Platz, 10178 Berlin, Germany",ChIJe6Vo3R1OqEcRxo0PyQzHMeI,"Rosa-Luxemburg-Platz, 10178",52.5266977,13.4113305,1, Volksbühne,10178,OK,route,52.5266977,13.4113305
GEOMETRIC_CENTER,66201,"Volkspark Friedrichshain, 10249 Berlin, Germany",ChIJ_S5uaxJOqEcRdg-gu1fEgcI,Volkspark Friedrichshain,52.5280353,13.4363934,1, Volkspark Friedrichshain,10249,OK,"establishment,park,point_of_interest",52.5280353,13.4363934
GEOMETRIC_CENTER,18678,"Hasenheide, 10967 Berlin, Germany",EiFIYXNlbmhlaWRlLCAxMDk2NyBCZXJsaW4sIEdlcm1hbnkiSCpGChQKEgkLCUecyE-oRxE-cOBb55adxRIUChIJX_eNMslPqEcRANQ9lUkgIRwaGAoKDdrFSB8V0Nr9BxIKDZwzSR8VVGMACA,Hasenheide; Kreuzberg; 10967,52.4878886,13.4160823,1, Volkspark Hasenheide,10967,OK,route,52.4878886,13.4160823
ROOFTOP,146673,"Müllerstraße 55, 13349 Berlin, Germany",ChIJr0Wxa9dTqEcRrFDK_faEJhg,"Müllerstraße 55, 13349",52.5535899,13.3470586,1, Voodoo55,13349,OK,street_address,52.5535899,13.3470586
ROOFTOP,156723,"Max-Brauer-Allee 204, 22769 Hamburg, Germany",ChIJyVq1Yl2PsUcRpsMStQnrTxg,Max-Brauer-Allee 204,53.5615325,9.9557332,1, Waagenbau,22769,OK,street_address,53.5615325,9.9557332
ROOFTOP,51522,"Danziger Str. 101, 10405 Berlin, Germany",ChIJ0TpHfghOqEcRK2cwTG2DKbA,"Danziger Str. 101, 10405",52.537467,13.4307639,1, Wabe,10405,OK,street_address,52.537467,13.4307639
GEOMETRIC_CENTER,151737,"Hauptstraße, 95709 Tröstau, Germany",ChIJJ-eMYK6roUcR90nh0UvbjdE,"Hauptstraße, 95709 Tröstau",50.0155633,11.9464464,1, Waldbad Tröstau,95709,OK,route,50.0155633,11.9464464
ROOFTOP,59581,"Wrangelstraße 83, 10997 Berlin, Germany",ChIJtZyxiE1OqEcRc6Xor4a6w2A,"Wrangelstraße 83, 10997",52.4987934,13.4418563,1, Walther Bar,10997,OK,premise,52.4987934,13.4418563
ROOFTOP,60753,"Sonnenallee 27, 12047 Berlin, Germany",ChIJa6H_r7BPqEcRgS4xCsYNU7g,"Sonnenallee 27, 12047",52.486573,13.4295323,1, Warschau,12047,OK,premise,52.486573,13.4295323
ROOFTOP,127375,"Schiffbauergasse 4, 14467 Potsdam, Germany",ChIJc4-LueD1qEcRmkykYR7kw_M,"Schiffbauergasse 4, 14467 Potsdam",52.4025105,13.0731726,1, Waschhaus,14467,OK,street_address,52.4025105,13.0731726
ROOFTOP,3213,"Falckensteinstraße 49, 10997 Berlin, Germany",ChIJK68FjVFOqEcRuXy-g00QYzQ,Falckensteinstrasse 49; Kreuzberg; 10997,52.501026,13.445226,1, Watergate,10997,OK,street_address,52.501026,13.445226
ROOFTOP,21186,"Hallesches Ufer 32, 10963 Berlin, Germany",ChIJ8UKriixQqEcRLGaGyWPuqxo,Hallesches Ufer 32; Kreuzberg; 10693,52.499064,13.386289,1, WAU (Wirtshaus Am Ufer),10963,OK,premise,52.499064,13.386289
APPROXIMATE,97533,"13189 Berlin, Germany",ChIJryM4lHNSqEcR4PQ_lUkgIRw,"er Str., 13189",52.5600917,13.4222482,1, Wbb Willner Brauerei,13189,OK,postal_code,52.5600917,13.4222482
ROOFTOP,3067,"Alexanderstraße 7, 10178 Berlin, Germany",ChIJzUBDKBlOqEcRiZcv2MLSNQo,Alexanderstrasse 7; Mitte; 10178,52.5230361,13.4166955,1, Weekend,10178,OK,street_address,52.5230361,13.4166955
ROOFTOP,17924,"Schlesische Str. 42, 10997 Berlin, Germany",ChIJESZQAFJOqEcR8_j_5jN2rNs,Schlesische Strasse 42; Kreuzberg; 10997,52.500543,13.443569,1, Wendel,10997,OK,street_address,52.500543,13.443569
ROOFTOP,60330,"Emser Str. 124, 12051 Berlin, Germany",ChIJN9SMqJ5PqEcRykXLQ-KoPow,"Emser Str. 124, 12051",52.4690073,13.4360672,1, Werkstadt Kulturverein,12051,OK,street_address,52.4690073,13.4360672
ROOFTOP,21423,"Skalitzer Str. 133, 10999 Berlin, Germany",ChIJTUibXzNOqEcRUnvXhWai0wg,Skalitzer Strasse 133; Kreuzberg; 10999,52.499294,13.419727,1, West Germany,10999,OK,street_address,52.499294,13.419727
ROOFTOP,119767,"Wiener Straße 20, 10999 Berlin, Germany",ChIJ5xsyJUtOqEcRpCFN7LcBETM,"Wiener Straße 20, 10999",52.4975324,13.4310199,1, Wild At Heart,10999,OK,street_address,52.4975324,13.4310199
ROOFTOP,149771,"Spreewaldpl. 5, 10999 Berlin, Germany",ChIJXeyMD0tOqEcRA8Q3-xxJDaE,"Spreewaldplatz 5, 10999",52.4986816,13.431612,1, Wildeküche,10999,OK,premise,52.4986816,13.431612
ROOFTOP,149588,"Wildenbruchstraße 68, 12045 Berlin, Germany",ChIJU2j23ahPqEcRbSJcAlSZDCk,"Wildenbruchstrasse 68 (Ecke Harzerstraße), 12045 Neukölln",52.486379,13.44612,1, Wildenbruch Bar,12045,OK,street_address,52.486379,13.44612
ROOFTOP,150697,"Landsberger Allee 268, 10367 Berlin, Germany",ChIJDQ_ngCdMqEcRi_MNCFkMOKk,"Landsberger Allee 268, 10367",52.532953,13.4937347,1, Windobona Indoor Skydiving Berlin,10367,OK,street_address,52.532953,13.4937347
GEOMETRIC_CENTER,82173,"Wittenbergpl., 10789 Berlin, Germany",ChIJDd5oBlRQqEcRwK27kxOsiU4,"Wittenbergplatz, 10789",52.501638,13.3426468,1, Wittenbergplatz,10789,OK,route,52.501638,13.3426468
ROOFTOP,123746,"Prinzenstraße 1, 10969 Berlin, Germany",ChIJPfXUjNJPqEcRnjmFjb1eXEs,"Prinzenstraße 1, 10969",52.49698,13.40851,1, Wonder Ballroom,10969,OK,street_address,52.49698,13.40851
ROOFTOP,47644,"Skalitzer Str. 67, 10997 Berlin, Germany",ChIJYdO5zk1OqEcRq5BGZGUbtw4,Skalitzerstrasse.67 - 10997,52.50007,13.43963,1, X-Lab,10997,OK,street_address,52.50007,13.43963
ROOFTOP,93297,"An der Schillingbrücke 3, 10243 Berlin, Germany",ChIJJWdfRDhOqEcRaImccyUdyv8,"An der Schillingbrücke 3, 10243",52.5092548,13.4305315,1, Yaam,10243,OK,street_address,52.5092548,13.4305315
ROOFTOP,8822,"Prenzlauer Allee 80, 10405 Berlin, Germany",ChIJcXMpM_xNqEcRfr_uheSTOE8,Prenzlauer Allee 80; Prenzlauer Berg; 10405,52.54294,13.42784,1, Zeiss Grossplanetarium,10405,OK,street_address,52.54294,13.42784
ROOFTOP,158589,"Ziegrastraße 11, 12057 Berlin, Germany",ChIJH4zU5g1PqEcRT5yaMWF4hjY,"Ziegrastraße 11, 12057",52.4764363,13.459215,1, Ziegrastraße 11,12057,OK,street_address,52.4764363,13.459215
ROOFTOP,157913,"Ziegrastraße 13, 12057 Berlin, Germany",ChIJf25lxA1PqEcRwruxHJTSt_s,"Ziegrastraße 13, 12057",52.476398,13.4596611,1, Ziegrastraße 13,12057,OK,street_address,52.476398,13.4596611
ROOFTOP,58535,"Ziegrastraße 15, 12057 Berlin, Germany",ChIJ_0bPwQ1PqEcRHSDvFIKsrfI,"Ziegrastraße 15, 12057",52.4762688,13.4591095,1, Ziegrastraße 15,12057,OK,street_address,52.4762688,13.4591095
ROOFTOP,95798,"Siemensstraße 27, 10551 Berlin, Germany",ChIJM0fIUWxRqEcRqWLX_-Qybvk,"Siemensstraße 27, 10551",52.533799,13.336468,1, ZK/U (Zentrum für Kunst und Urbanistik),10551,OK,street_address,52.533799,13.336468
ROOFTOP,27908,"Lychener Str. 15, 10437 Berlin, Germany",ChIJFRRRIABSqEcRTSUXE2iGyNg,"Lychener Str. 15, 10437",52.542096,13.4150192,1, Zu Mir Oder Zu Dir,10437,OK,premise,52.542096,13.4150192
ROOFTOP,137711,"Markgrafendamm 24c, 10245 Berlin, Germany",ChIJE3PM7_lOqEcRx7NIgXOdQVA,"Markgrafendamm 24c, 10245",52.50255900000001,13.4663169,1, Zuckerzauber,10245,OK,street_address,52.50255900000001,13.4663169
ROOFTOP,78165,"Laskerstraße 5, 10245 Berlin, Germany",ChIJEQTch_lOqEcRNPwRrr9mxhA,"Laskerstraße 5, 10245",52.50130000000001,13.4666,1, Zukunft am Ostkreuz,10245,OK,street_address,52.50130000000001,13.4666
ROOFTOP,146817,"Türrschmidtstraße 36, 10317 Berlin, Germany",ChIJx8W7E-9OqEcRI69TodDElKw,"Türrschmidtstrasse 36, 10317",52.50332,13.48066,1, Zum Alten Rathaus Berlin,10317,OK,street_address,52.50332,13.48066
ROOFTOP,99790,"Sanderstraße 11, 12047 Berlin, Germany",ChIJm6SQ3LVPqEcRmJnmJS-aYls,"Sanderstraße 11, 12047",52.4923839,13.4261443,1, Zum Böhmischen Dorf,12047,OK,street_address,52.4923839,13.4261443
ROOFTOP,147082,"Yorckstraße 56a, 10965 Berlin, Germany",ChIJkWkxdDpQqEcRRaqyx6bqwC4,"Yorckstraße 56A, 10965 Deutschland",52.492366,13.371824,1, Zum Umsteiger,10965,OK,street_address,52.492366,13.371824
ROOFTOP,61296,"Schlesische Str. 16, 10997 Berlin, Germany",ChIJkW4pNlJOqEcRh2ZMu2NVBgM,"Schlesische Str. 16, 10997",52.4990152,13.4455698,1, Zur Fetten Ecke,10997,OK,street_address,52.4990152,13.4455698
GEOMETRIC_CENTER,146008,"Yorckstraße, 10965 Berlin, Germany",EiNZb3Jja3N0cmHDn2UsIDEwOTY1IEJlcmxpbiwgR2VybWFueSJIKkYKFAoSCaXrwOIvUKhHERtZIQiUCw8uEhQKEgktZWYV2U-oRxHw4z2VSSAhHBoYCgoNGpBJHxV4vPcHEgoNP-tJHxVy0voH,"Yorckstrasse 0, 10965",52.4922289,13.3784711,1, Zur Klappe,10965,OK,route,52.4922289,13.3784711
ROOFTOP,118967,"Gitschiner Str. 20, 10969 Berlin, Germany",ChIJcQTRntRPqEcRRcr9xYEbpiw,"Gitschiner Str. 20, 10969",52.49824750000001,13.4036207,1, Zwei Drei Raum,10969,OK,street_address,52.49824750000001,13.4036207
